<?xml version="1.0" encoding="UTF-8"?>
<gpx version="1.1" creator="coucou-cosyn" xmlns="http://www.topografix.com/GPX/1/1"
     xmlns:xsi="http://www.w3.org/2001/XMLSchema-instance"
     xsi:schemaLocation="http://www.topografix.com/GPX/1/1 http://www.topografix.com/GPX/1/1/gpx.xsd">
  <metadata>
    <name>Approche — Briançon &gt; Guillestre par la vallée</name>
    <desc>Le trace le plus plat : N94 le long de la Durance par Prelles, L&#x27;Argentiere-la-Bessee, La Roche-de-Rame, Saint-Crepin et Mont-Dauphin. 31 km pour 320 m, le minimum possible, le verrou de Saint-Martin-de-Queyrieres compris. Routage OpenStreetMap (BRouter).</desc>
  </metadata>
  <trk>
    <name>Approche — Briançon &gt; Guillestre par la vallée</name>
    <type>Cycling</type>
    <trkseg>
      <trkpt lat="44.879797" lon="6.619503"><ele>1180.0</ele></trkpt>
      <trkpt lat="44.879650" lon="6.619362"><ele>1179.8</ele></trkpt>
      <trkpt lat="44.879204" lon="6.618974"><ele>1179.2</ele></trkpt>
      <trkpt lat="44.878973" lon="6.618788"><ele>1179.0</ele></trkpt>
      <trkpt lat="44.878734" lon="6.618624"><ele>1178.8</ele></trkpt>
      <trkpt lat="44.878249" lon="6.618328"><ele>1178.5</ele></trkpt>
      <trkpt lat="44.877690" lon="6.618087"><ele>1178.2</ele></trkpt>
      <trkpt lat="44.876742" lon="6.617797"><ele>1177.8</ele></trkpt>
      <trkpt lat="44.876257" lon="6.617620"><ele>1176.8</ele></trkpt>
      <trkpt lat="44.875841" lon="6.617435"><ele>1176.8</ele></trkpt>
      <trkpt lat="44.875587" lon="6.617277"><ele>1176.5</ele></trkpt>
      <trkpt lat="44.875293" lon="6.617062"><ele>1176.0</ele></trkpt>
      <trkpt lat="44.875069" lon="6.616864"><ele>1176.2</ele></trkpt>
      <trkpt lat="44.874838" lon="6.616618"><ele>1176.2</ele></trkpt>
      <trkpt lat="44.874593" lon="6.616311"><ele>1175.5</ele></trkpt>
      <trkpt lat="44.874425" lon="6.616074"><ele>1175.8</ele></trkpt>
      <trkpt lat="44.874244" lon="6.615788"><ele>1175.0</ele></trkpt>
      <trkpt lat="44.873959" lon="6.615204"><ele>1174.0</ele></trkpt>
      <trkpt lat="44.873840" lon="6.614904"><ele>1173.8</ele></trkpt>
      <trkpt lat="44.873711" lon="6.614542"><ele>1173.8</ele></trkpt>
      <trkpt lat="44.872704" lon="6.611248"><ele>1171.2</ele></trkpt>
      <trkpt lat="44.872666" lon="6.611037"><ele>1171.0</ele></trkpt>
      <trkpt lat="44.872561" lon="6.610657"><ele>1170.8</ele></trkpt>
      <trkpt lat="44.872485" lon="6.610410"><ele>1170.8</ele></trkpt>
      <trkpt lat="44.872400" lon="6.610118"><ele>1171.0</ele></trkpt>
      <trkpt lat="44.872196" lon="6.609417"><ele>1171.0</ele></trkpt>
      <trkpt lat="44.872155" lon="6.609293"><ele>1171.0</ele></trkpt>
      <trkpt lat="44.872038" lon="6.608894"><ele>1171.0</ele></trkpt>
      <trkpt lat="44.871867" lon="6.608355"><ele>1170.5</ele></trkpt>
      <trkpt lat="44.871678" lon="6.607821"><ele>1170.0</ele></trkpt>
      <trkpt lat="44.871576" lon="6.607563"><ele>1169.0</ele></trkpt>
      <trkpt lat="44.871458" lon="6.607297"><ele>1169.0</ele></trkpt>
      <trkpt lat="44.871209" lon="6.606797"><ele>1169.0</ele></trkpt>
      <trkpt lat="44.870947" lon="6.606314"><ele>1168.2</ele></trkpt>
      <trkpt lat="44.870319" lon="6.605230"><ele>1168.0</ele></trkpt>
      <trkpt lat="44.869361" lon="6.603375"><ele>1171.5</ele></trkpt>
      <trkpt lat="44.869160" lon="6.603032"><ele>1172.0</ele></trkpt>
      <trkpt lat="44.868990" lon="6.602760"><ele>1172.8</ele></trkpt>
      <trkpt lat="44.868745" lon="6.602420"><ele>1173.5</ele></trkpt>
      <trkpt lat="44.868594" lon="6.602228"><ele>1172.8</ele></trkpt>
      <trkpt lat="44.868348" lon="6.601946"><ele>1173.0</ele></trkpt>
      <trkpt lat="44.868119" lon="6.601709"><ele>1173.0</ele></trkpt>
      <trkpt lat="44.868039" lon="6.601637"><ele>1173.0</ele></trkpt>
      <trkpt lat="44.867923" lon="6.601543"><ele>1173.5</ele></trkpt>
      <trkpt lat="44.867481" lon="6.601186"><ele>1173.5</ele></trkpt>
      <trkpt lat="44.867100" lon="6.600907"><ele>1173.8</ele></trkpt>
      <trkpt lat="44.866637" lon="6.600588"><ele>1174.5</ele></trkpt>
      <trkpt lat="44.866366" lon="6.600428"><ele>1174.8</ele></trkpt>
      <trkpt lat="44.865813" lon="6.600022"><ele>1175.8</ele></trkpt>
      <trkpt lat="44.865581" lon="6.599820"><ele>1176.2</ele></trkpt>
      <trkpt lat="44.865239" lon="6.599486"><ele>1177.2</ele></trkpt>
      <trkpt lat="44.864936" lon="6.599131"><ele>1177.5</ele></trkpt>
      <trkpt lat="44.864763" lon="6.598898"><ele>1178.0</ele></trkpt>
      <trkpt lat="44.864674" lon="6.598749"><ele>1178.0</ele></trkpt>
      <trkpt lat="44.864620" lon="6.598660"><ele>1178.0</ele></trkpt>
      <trkpt lat="44.864568" lon="6.598575"><ele>1178.0</ele></trkpt>
      <trkpt lat="44.864237" lon="6.597968"><ele>1176.5</ele></trkpt>
      <trkpt lat="44.864191" lon="6.597846"><ele>1176.0</ele></trkpt>
      <trkpt lat="44.864084" lon="6.597605"><ele>1176.0</ele></trkpt>
      <trkpt lat="44.863884" lon="6.597171"><ele>1176.0</ele></trkpt>
      <trkpt lat="44.863734" lon="6.596862"><ele>1175.2</ele></trkpt>
      <trkpt lat="44.863481" lon="6.596368"><ele>1173.0</ele></trkpt>
      <trkpt lat="44.863277" lon="6.595977"><ele>1171.8</ele></trkpt>
      <trkpt lat="44.862886" lon="6.595252"><ele>1169.0</ele></trkpt>
      <trkpt lat="44.862681" lon="6.594914"><ele>1166.8</ele></trkpt>
      <trkpt lat="44.862375" lon="6.594325"><ele>1164.5</ele></trkpt>
      <trkpt lat="44.861939" lon="6.593480"><ele>1159.2</ele></trkpt>
      <trkpt lat="44.860761" lon="6.591147"><ele>1153.8</ele></trkpt>
      <trkpt lat="44.860623" lon="6.590884"><ele>1154.0</ele></trkpt>
      <trkpt lat="44.860472" lon="6.590637"><ele>1153.2</ele></trkpt>
      <trkpt lat="44.860358" lon="6.590472"><ele>1152.5</ele></trkpt>
      <trkpt lat="44.860210" lon="6.590291"><ele>1152.0</ele></trkpt>
      <trkpt lat="44.859481" lon="6.589495"><ele>1151.0</ele></trkpt>
      <trkpt lat="44.859420" lon="6.589427"><ele>1151.0</ele></trkpt>
      <trkpt lat="44.859003" lon="6.588977"><ele>1151.2</ele></trkpt>
      <trkpt lat="44.858724" lon="6.588672"><ele>1151.5</ele></trkpt>
      <trkpt lat="44.857825" lon="6.587700"><ele>1151.2</ele></trkpt>
      <trkpt lat="44.857567" lon="6.587421"><ele>1153.8</ele></trkpt>
      <trkpt lat="44.857520" lon="6.587371"><ele>1154.2</ele></trkpt>
      <trkpt lat="44.854864" lon="6.584503"><ele>1164.8</ele></trkpt>
      <trkpt lat="44.854740" lon="6.584366"><ele>1165.5</ele></trkpt>
      <trkpt lat="44.854452" lon="6.584098"><ele>1166.8</ele></trkpt>
      <trkpt lat="44.854266" lon="6.583872"><ele>1168.2</ele></trkpt>
      <trkpt lat="44.854148" lon="6.583735"><ele>1168.8</ele></trkpt>
      <trkpt lat="44.854065" lon="6.583644"><ele>1168.5</ele></trkpt>
      <trkpt lat="44.853993" lon="6.583568"><ele>1168.2</ele></trkpt>
      <trkpt lat="44.853916" lon="6.583486"><ele>1168.5</ele></trkpt>
      <trkpt lat="44.853899" lon="6.583468"><ele>1168.5</ele></trkpt>
      <trkpt lat="44.853878" lon="6.583447"><ele>1168.5</ele></trkpt>
      <trkpt lat="44.853636" lon="6.583181"><ele>1167.8</ele></trkpt>
      <trkpt lat="44.853572" lon="6.583113"><ele>1167.5</ele></trkpt>
      <trkpt lat="44.853501" lon="6.583040"><ele>1167.0</ele></trkpt>
      <trkpt lat="44.853397" lon="6.582932"><ele>1166.5</ele></trkpt>
      <trkpt lat="44.853318" lon="6.582850"><ele>1166.5</ele></trkpt>
      <trkpt lat="44.852992" lon="6.582544"><ele>1165.2</ele></trkpt>
      <trkpt lat="44.852807" lon="6.582408"><ele>1164.5</ele></trkpt>
      <trkpt lat="44.852608" lon="6.582276"><ele>1164.0</ele></trkpt>
      <trkpt lat="44.852427" lon="6.582170"><ele>1163.2</ele></trkpt>
      <trkpt lat="44.852321" lon="6.582114"><ele>1162.5</ele></trkpt>
      <trkpt lat="44.852126" lon="6.582024"><ele>1160.8</ele></trkpt>
      <trkpt lat="44.852025" lon="6.581991"><ele>1160.0</ele></trkpt>
      <trkpt lat="44.851933" lon="6.581965"><ele>1159.2</ele></trkpt>
      <trkpt lat="44.851810" lon="6.581957"><ele>1158.5</ele></trkpt>
      <trkpt lat="44.851605" lon="6.581984"><ele>1155.5</ele></trkpt>
      <trkpt lat="44.851591" lon="6.581986"><ele>1155.2</ele></trkpt>
      <trkpt lat="44.851489" lon="6.582002"><ele>1153.5</ele></trkpt>
      <trkpt lat="44.851456" lon="6.582008"><ele>1152.8</ele></trkpt>
      <trkpt lat="44.851355" lon="6.582036"><ele>1152.5</ele></trkpt>
      <trkpt lat="44.850783" lon="6.582262"><ele>1152.5</ele></trkpt>
      <trkpt lat="44.850500" lon="6.582387"><ele>1152.2</ele></trkpt>
      <trkpt lat="44.850123" lon="6.582538"><ele>1152.2</ele></trkpt>
      <trkpt lat="44.849992" lon="6.582577"><ele>1152.2</ele></trkpt>
      <trkpt lat="44.849704" lon="6.582642"><ele>1154.2</ele></trkpt>
      <trkpt lat="44.848480" lon="6.582865"><ele>1153.2</ele></trkpt>
      <trkpt lat="44.847030" lon="6.583148"><ele>1149.2</ele></trkpt>
      <trkpt lat="44.846239" lon="6.583253"><ele>1146.5</ele></trkpt>
      <trkpt lat="44.846113" lon="6.583254"><ele>1145.5</ele></trkpt>
      <trkpt lat="44.845861" lon="6.583224"><ele>1147.5</ele></trkpt>
      <trkpt lat="44.845727" lon="6.583192"><ele>1149.0</ele></trkpt>
      <trkpt lat="44.845596" lon="6.583152"><ele>1150.5</ele></trkpt>
      <trkpt lat="44.845353" lon="6.583048"><ele>1151.5</ele></trkpt>
      <trkpt lat="44.845024" lon="6.582893"><ele>1151.0</ele></trkpt>
      <trkpt lat="44.844769" lon="6.582761"><ele>1152.2</ele></trkpt>
      <trkpt lat="44.844633" lon="6.582694"><ele>1152.5</ele></trkpt>
      <trkpt lat="44.844390" lon="6.582598"><ele>1153.0</ele></trkpt>
      <trkpt lat="44.844199" lon="6.582544"><ele>1153.0</ele></trkpt>
      <trkpt lat="44.844034" lon="6.582514"><ele>1153.5</ele></trkpt>
      <trkpt lat="44.843872" lon="6.582502"><ele>1154.0</ele></trkpt>
      <trkpt lat="44.843705" lon="6.582501"><ele>1154.0</ele></trkpt>
      <trkpt lat="44.843588" lon="6.582510"><ele>1154.0</ele></trkpt>
      <trkpt lat="44.843346" lon="6.582557"><ele>1154.5</ele></trkpt>
      <trkpt lat="44.843175" lon="6.582612"><ele>1154.2</ele></trkpt>
      <trkpt lat="44.843010" lon="6.582681"><ele>1153.2</ele></trkpt>
      <trkpt lat="44.842777" lon="6.582808"><ele>1150.2</ele></trkpt>
      <trkpt lat="44.842672" lon="6.582879"><ele>1150.0</ele></trkpt>
      <trkpt lat="44.842357" lon="6.583128"><ele>1151.0</ele></trkpt>
      <trkpt lat="44.841885" lon="6.583523"><ele>1146.2</ele></trkpt>
      <trkpt lat="44.841709" lon="6.583650"><ele>1145.5</ele></trkpt>
      <trkpt lat="44.841374" lon="6.583865"><ele>1144.2</ele></trkpt>
      <trkpt lat="44.841150" lon="6.583977"><ele>1145.5</ele></trkpt>
      <trkpt lat="44.840743" lon="6.584141"><ele>1144.5</ele></trkpt>
      <trkpt lat="44.840358" lon="6.584242"><ele>1142.0</ele></trkpt>
      <trkpt lat="44.840053" lon="6.584288"><ele>1141.5</ele></trkpt>
      <trkpt lat="44.839692" lon="6.584313"><ele>1142.8</ele></trkpt>
      <trkpt lat="44.838735" lon="6.584234"><ele>1146.5</ele></trkpt>
      <trkpt lat="44.838428" lon="6.584226"><ele>1146.5</ele></trkpt>
      <trkpt lat="44.838132" lon="6.584237"><ele>1148.2</ele></trkpt>
      <trkpt lat="44.836821" lon="6.584323"><ele>1159.2</ele></trkpt>
      <trkpt lat="44.836464" lon="6.584335"><ele>1163.0</ele></trkpt>
      <trkpt lat="44.836085" lon="6.584306"><ele>1165.2</ele></trkpt>
      <trkpt lat="44.835766" lon="6.584242"><ele>1168.0</ele></trkpt>
      <trkpt lat="44.835473" lon="6.584147"><ele>1169.8</ele></trkpt>
      <trkpt lat="44.833677" lon="6.583407"><ele>1179.8</ele></trkpt>
      <trkpt lat="44.833394" lon="6.583301"><ele>1182.2</ele></trkpt>
      <trkpt lat="44.833080" lon="6.583211"><ele>1183.8</ele></trkpt>
      <trkpt lat="44.832864" lon="6.583172"><ele>1185.8</ele></trkpt>
      <trkpt lat="44.832663" lon="6.583147"><ele>1187.5</ele></trkpt>
      <trkpt lat="44.832496" lon="6.583141"><ele>1188.8</ele></trkpt>
      <trkpt lat="44.832168" lon="6.583139"><ele>1192.8</ele></trkpt>
      <trkpt lat="44.831496" lon="6.583157"><ele>1196.0</ele></trkpt>
      <trkpt lat="44.831241" lon="6.583164"><ele>1196.8</ele></trkpt>
      <trkpt lat="44.831085" lon="6.583161"><ele>1197.2</ele></trkpt>
      <trkpt lat="44.830952" lon="6.583146"><ele>1198.2</ele></trkpt>
      <trkpt lat="44.830837" lon="6.583112"><ele>1198.8</ele></trkpt>
      <trkpt lat="44.830735" lon="6.583071"><ele>1198.8</ele></trkpt>
      <trkpt lat="44.830621" lon="6.583001"><ele>1198.5</ele></trkpt>
      <trkpt lat="44.830528" lon="6.582932"><ele>1198.5</ele></trkpt>
      <trkpt lat="44.830449" lon="6.582857"><ele>1198.2</ele></trkpt>
      <trkpt lat="44.830309" lon="6.582689"><ele>1199.2</ele></trkpt>
      <trkpt lat="44.830232" lon="6.582559"><ele>1200.0</ele></trkpt>
      <trkpt lat="44.830166" lon="6.582425"><ele>1201.0</ele></trkpt>
      <trkpt lat="44.830103" lon="6.582260"><ele>1203.5</ele></trkpt>
      <trkpt lat="44.830046" lon="6.582061"><ele>1206.8</ele></trkpt>
      <trkpt lat="44.829933" lon="6.581596"><ele>1211.0</ele></trkpt>
      <trkpt lat="44.829884" lon="6.581418"><ele>1211.5</ele></trkpt>
      <trkpt lat="44.829813" lon="6.581240"><ele>1211.8</ele></trkpt>
      <trkpt lat="44.829720" lon="6.581059"><ele>1211.0</ele></trkpt>
      <trkpt lat="44.829636" lon="6.580939"><ele>1211.8</ele></trkpt>
      <trkpt lat="44.829532" lon="6.580817"><ele>1211.2</ele></trkpt>
      <trkpt lat="44.829418" lon="6.580715"><ele>1211.0</ele></trkpt>
      <trkpt lat="44.829310" lon="6.580640"><ele>1211.0</ele></trkpt>
      <trkpt lat="44.829155" lon="6.580557"><ele>1211.0</ele></trkpt>
      <trkpt lat="44.828731" lon="6.580352"><ele>1215.8</ele></trkpt>
      <trkpt lat="44.828438" lon="6.580225"><ele>1217.8</ele></trkpt>
      <trkpt lat="44.827359" lon="6.579726"><ele>1221.0</ele></trkpt>
      <trkpt lat="44.827277" lon="6.579694"><ele>1221.2</ele></trkpt>
      <trkpt lat="44.827149" lon="6.579670"><ele>1222.2</ele></trkpt>
      <trkpt lat="44.827012" lon="6.579672"><ele>1223.2</ele></trkpt>
      <trkpt lat="44.826878" lon="6.579697"><ele>1223.8</ele></trkpt>
      <trkpt lat="44.825885" lon="6.579938"><ele>1226.0</ele></trkpt>
      <trkpt lat="44.825627" lon="6.579989"><ele>1225.2</ele></trkpt>
      <trkpt lat="44.825305" lon="6.580050"><ele>1224.0</ele></trkpt>
      <trkpt lat="44.825088" lon="6.580060"><ele>1223.2</ele></trkpt>
      <trkpt lat="44.824981" lon="6.580048"><ele>1222.8</ele></trkpt>
      <trkpt lat="44.824840" lon="6.580003"><ele>1221.8</ele></trkpt>
      <trkpt lat="44.824637" lon="6.579907"><ele>1221.5</ele></trkpt>
      <trkpt lat="44.824286" lon="6.579714"><ele>1221.0</ele></trkpt>
      <trkpt lat="44.824213" lon="6.579672"><ele>1221.0</ele></trkpt>
      <trkpt lat="44.824134" lon="6.579628"><ele>1221.0</ele></trkpt>
      <trkpt lat="44.823784" lon="6.579437"><ele>1220.2</ele></trkpt>
      <trkpt lat="44.823769" lon="6.579429"><ele>1220.2</ele></trkpt>
      <trkpt lat="44.823186" lon="6.579105"><ele>1219.8</ele></trkpt>
      <trkpt lat="44.822914" lon="6.578956"><ele>1219.2</ele></trkpt>
      <trkpt lat="44.822778" lon="6.578910"><ele>1219.0</ele></trkpt>
      <trkpt lat="44.822699" lon="6.578895"><ele>1219.0</ele></trkpt>
      <trkpt lat="44.822504" lon="6.578878"><ele>1218.8</ele></trkpt>
      <trkpt lat="44.822261" lon="6.578874"><ele>1217.8</ele></trkpt>
      <trkpt lat="44.821822" lon="6.578889"><ele>1217.5</ele></trkpt>
      <trkpt lat="44.821783" lon="6.578893"><ele>1217.2</ele></trkpt>
      <trkpt lat="44.821616" lon="6.578905"><ele>1217.2</ele></trkpt>
      <trkpt lat="44.821365" lon="6.578906"><ele>1217.2</ele></trkpt>
      <trkpt lat="44.821090" lon="6.578859"><ele>1216.2</ele></trkpt>
      <trkpt lat="44.820931" lon="6.578840"><ele>1215.2</ele></trkpt>
      <trkpt lat="44.820753" lon="6.578844"><ele>1214.5</ele></trkpt>
      <trkpt lat="44.820445" lon="6.578885"><ele>1214.8</ele></trkpt>
      <trkpt lat="44.820362" lon="6.578886"><ele>1214.8</ele></trkpt>
      <trkpt lat="44.820285" lon="6.578875"><ele>1214.5</ele></trkpt>
      <trkpt lat="44.820219" lon="6.578849"><ele>1214.8</ele></trkpt>
      <trkpt lat="44.820145" lon="6.578804"><ele>1214.5</ele></trkpt>
      <trkpt lat="44.819872" lon="6.578581"><ele>1211.8</ele></trkpt>
      <trkpt lat="44.819704" lon="6.578482"><ele>1211.0</ele></trkpt>
      <trkpt lat="44.819599" lon="6.578442"><ele>1211.0</ele></trkpt>
      <trkpt lat="44.819500" lon="6.578423"><ele>1211.5</ele></trkpt>
      <trkpt lat="44.819258" lon="6.578397"><ele>1213.2</ele></trkpt>
      <trkpt lat="44.819168" lon="6.578380"><ele>1213.8</ele></trkpt>
      <trkpt lat="44.819081" lon="6.578341"><ele>1213.8</ele></trkpt>
      <trkpt lat="44.819020" lon="6.578303"><ele>1213.2</ele></trkpt>
      <trkpt lat="44.818920" lon="6.578222"><ele>1211.2</ele></trkpt>
      <trkpt lat="44.818608" lon="6.577936"><ele>1204.2</ele></trkpt>
      <trkpt lat="44.818494" lon="6.577845"><ele>1202.2</ele></trkpt>
      <trkpt lat="44.818347" lon="6.577756"><ele>1200.5</ele></trkpt>
      <trkpt lat="44.818219" lon="6.577710"><ele>1200.8</ele></trkpt>
      <trkpt lat="44.817791" lon="6.577596"><ele>1202.8</ele></trkpt>
      <trkpt lat="44.817651" lon="6.577545"><ele>1202.2</ele></trkpt>
      <trkpt lat="44.817420" lon="6.577438"><ele>1200.2</ele></trkpt>
      <trkpt lat="44.817160" lon="6.577343"><ele>1200.0</ele></trkpt>
      <trkpt lat="44.816996" lon="6.577296"><ele>1200.5</ele></trkpt>
      <trkpt lat="44.816735" lon="6.577267"><ele>1202.5</ele></trkpt>
      <trkpt lat="44.816604" lon="6.577241"><ele>1202.8</ele></trkpt>
      <trkpt lat="44.816252" lon="6.577132"><ele>1203.2</ele></trkpt>
      <trkpt lat="44.815735" lon="6.577088"><ele>1206.8</ele></trkpt>
      <trkpt lat="44.815234" lon="6.576983"><ele>1206.2</ele></trkpt>
      <trkpt lat="44.815026" lon="6.576918"><ele>1206.8</ele></trkpt>
      <trkpt lat="44.814940" lon="6.576866"><ele>1207.2</ele></trkpt>
      <trkpt lat="44.814877" lon="6.576805"><ele>1207.5</ele></trkpt>
      <trkpt lat="44.814827" lon="6.576736"><ele>1206.8</ele></trkpt>
      <trkpt lat="44.814363" lon="6.575908"><ele>1205.5</ele></trkpt>
      <trkpt lat="44.814274" lon="6.575783"><ele>1204.8</ele></trkpt>
      <trkpt lat="44.814210" lon="6.575711"><ele>1204.2</ele></trkpt>
      <trkpt lat="44.814133" lon="6.575648"><ele>1203.5</ele></trkpt>
      <trkpt lat="44.814060" lon="6.575605"><ele>1203.0</ele></trkpt>
      <trkpt lat="44.813980" lon="6.575576"><ele>1202.8</ele></trkpt>
      <trkpt lat="44.813867" lon="6.575562"><ele>1203.2</ele></trkpt>
      <trkpt lat="44.813381" lon="6.575541"><ele>1202.2</ele></trkpt>
      <trkpt lat="44.813116" lon="6.575520"><ele>1202.2</ele></trkpt>
      <trkpt lat="44.812867" lon="6.575485"><ele>1202.2</ele></trkpt>
      <trkpt lat="44.812698" lon="6.575441"><ele>1202.0</ele></trkpt>
      <trkpt lat="44.812533" lon="6.575372"><ele>1201.0</ele></trkpt>
      <trkpt lat="44.812401" lon="6.575307"><ele>1201.5</ele></trkpt>
      <trkpt lat="44.812268" lon="6.575217"><ele>1201.8</ele></trkpt>
      <trkpt lat="44.812146" lon="6.575112"><ele>1202.0</ele></trkpt>
      <trkpt lat="44.811978" lon="6.574921"><ele>1202.2</ele></trkpt>
      <trkpt lat="44.811762" lon="6.574621"><ele>1200.5</ele></trkpt>
      <trkpt lat="44.811703" lon="6.574555"><ele>1200.5</ele></trkpt>
      <trkpt lat="44.811626" lon="6.574505"><ele>1201.0</ele></trkpt>
      <trkpt lat="44.811524" lon="6.574461"><ele>1201.5</ele></trkpt>
      <trkpt lat="44.810757" lon="6.574217"><ele>1201.2</ele></trkpt>
      <trkpt lat="44.810436" lon="6.574100"><ele>1197.5</ele></trkpt>
      <trkpt lat="44.810224" lon="6.574019"><ele>1195.0</ele></trkpt>
      <trkpt lat="44.810112" lon="6.573996"><ele>1194.0</ele></trkpt>
      <trkpt lat="44.809993" lon="6.573987"><ele>1193.2</ele></trkpt>
      <trkpt lat="44.809872" lon="6.574004"><ele>1193.2</ele></trkpt>
      <trkpt lat="44.809345" lon="6.574147"><ele>1194.8</ele></trkpt>
      <trkpt lat="44.809247" lon="6.574165"><ele>1194.5</ele></trkpt>
      <trkpt lat="44.809091" lon="6.574181"><ele>1194.0</ele></trkpt>
      <trkpt lat="44.808974" lon="6.574189"><ele>1193.8</ele></trkpt>
      <trkpt lat="44.808822" lon="6.574169"><ele>1193.0</ele></trkpt>
      <trkpt lat="44.808738" lon="6.574140"><ele>1192.5</ele></trkpt>
      <trkpt lat="44.808649" lon="6.574100"><ele>1191.8</ele></trkpt>
      <trkpt lat="44.808571" lon="6.574048"><ele>1191.0</ele></trkpt>
      <trkpt lat="44.808415" lon="6.573895"><ele>1190.0</ele></trkpt>
      <trkpt lat="44.808306" lon="6.573748"><ele>1189.2</ele></trkpt>
      <trkpt lat="44.808209" lon="6.573592"><ele>1188.2</ele></trkpt>
      <trkpt lat="44.808135" lon="6.573435"><ele>1187.0</ele></trkpt>
      <trkpt lat="44.808052" lon="6.573227"><ele>1185.8</ele></trkpt>
      <trkpt lat="44.807592" lon="6.572028"><ele>1176.5</ele></trkpt>
      <trkpt lat="44.807464" lon="6.571718"><ele>1172.2</ele></trkpt>
      <trkpt lat="44.806772" lon="6.569890"><ele>1158.0</ele></trkpt>
      <trkpt lat="44.806604" lon="6.569513"><ele>1156.8</ele></trkpt>
      <trkpt lat="44.806523" lon="6.569361"><ele>1156.0</ele></trkpt>
      <trkpt lat="44.806361" lon="6.569076"><ele>1154.2</ele></trkpt>
      <trkpt lat="44.806225" lon="6.568860"><ele>1154.0</ele></trkpt>
      <trkpt lat="44.806067" lon="6.568633"><ele>1152.8</ele></trkpt>
      <trkpt lat="44.805724" lon="6.568168"><ele>1150.2</ele></trkpt>
      <trkpt lat="44.805576" lon="6.568016"><ele>1151.0</ele></trkpt>
      <trkpt lat="44.805443" lon="6.567901"><ele>1150.8</ele></trkpt>
      <trkpt lat="44.805310" lon="6.567822"><ele>1149.0</ele></trkpt>
      <trkpt lat="44.805156" lon="6.567758"><ele>1147.0</ele></trkpt>
      <trkpt lat="44.804979" lon="6.567725"><ele>1145.2</ele></trkpt>
      <trkpt lat="44.804793" lon="6.567717"><ele>1143.5</ele></trkpt>
      <trkpt lat="44.804568" lon="6.567740"><ele>1142.0</ele></trkpt>
      <trkpt lat="44.804256" lon="6.567826"><ele>1141.2</ele></trkpt>
      <trkpt lat="44.804064" lon="6.567903"><ele>1140.2</ele></trkpt>
      <trkpt lat="44.803940" lon="6.567980"><ele>1140.2</ele></trkpt>
      <trkpt lat="44.803799" lon="6.568084"><ele>1140.5</ele></trkpt>
      <trkpt lat="44.803633" lon="6.568188"><ele>1140.5</ele></trkpt>
      <trkpt lat="44.803567" lon="6.568204"><ele>1139.8</ele></trkpt>
      <trkpt lat="44.803512" lon="6.568192"><ele>1138.8</ele></trkpt>
      <trkpt lat="44.803466" lon="6.568171"><ele>1138.0</ele></trkpt>
      <trkpt lat="44.803416" lon="6.568123"><ele>1137.0</ele></trkpt>
      <trkpt lat="44.803380" lon="6.568053"><ele>1136.2</ele></trkpt>
      <trkpt lat="44.803368" lon="6.567982"><ele>1134.8</ele></trkpt>
      <trkpt lat="44.803376" lon="6.567889"><ele>1133.0</ele></trkpt>
      <trkpt lat="44.803401" lon="6.567823"><ele>1132.0</ele></trkpt>
      <trkpt lat="44.803436" lon="6.567771"><ele>1131.5</ele></trkpt>
      <trkpt lat="44.803491" lon="6.567720"><ele>1131.5</ele></trkpt>
      <trkpt lat="44.803575" lon="6.567690"><ele>1132.5</ele></trkpt>
      <trkpt lat="44.804436" lon="6.567518"><ele>1128.0</ele></trkpt>
      <trkpt lat="44.804643" lon="6.567470"><ele>1131.8</ele></trkpt>
      <trkpt lat="44.804808" lon="6.567423"><ele>1131.8</ele></trkpt>
      <trkpt lat="44.804924" lon="6.567367"><ele>1129.0</ele></trkpt>
      <trkpt lat="44.805026" lon="6.567303"><ele>1125.8</ele></trkpt>
      <trkpt lat="44.805115" lon="6.567218"><ele>1123.0</ele></trkpt>
      <trkpt lat="44.805212" lon="6.567112"><ele>1124.8</ele></trkpt>
      <trkpt lat="44.805306" lon="6.566966"><ele>1123.5</ele></trkpt>
      <trkpt lat="44.805475" lon="6.566664"><ele>1121.0</ele></trkpt>
      <trkpt lat="44.805548" lon="6.566549"><ele>1119.2</ele></trkpt>
      <trkpt lat="44.805625" lon="6.566442"><ele>1117.2</ele></trkpt>
      <trkpt lat="44.805712" lon="6.566352"><ele>1115.8</ele></trkpt>
      <trkpt lat="44.805794" lon="6.566293"><ele>1115.0</ele></trkpt>
      <trkpt lat="44.805879" lon="6.566248"><ele>1114.2</ele></trkpt>
      <trkpt lat="44.805959" lon="6.566222"><ele>1113.8</ele></trkpt>
      <trkpt lat="44.806062" lon="6.566197"><ele>1113.2</ele></trkpt>
      <trkpt lat="44.806538" lon="6.566129"><ele>1116.2</ele></trkpt>
      <trkpt lat="44.806588" lon="6.566119"><ele>1116.8</ele></trkpt>
      <trkpt lat="44.806637" lon="6.566090"><ele>1116.8</ele></trkpt>
      <trkpt lat="44.806670" lon="6.566056"><ele>1116.5</ele></trkpt>
      <trkpt lat="44.806700" lon="6.566004"><ele>1116.0</ele></trkpt>
      <trkpt lat="44.806714" lon="6.565963"><ele>1115.2</ele></trkpt>
      <trkpt lat="44.806725" lon="6.565896"><ele>1113.8</ele></trkpt>
      <trkpt lat="44.806721" lon="6.565829"><ele>1112.0</ele></trkpt>
      <trkpt lat="44.806699" lon="6.565747"><ele>1111.0</ele></trkpt>
      <trkpt lat="44.806669" lon="6.565692"><ele>1110.0</ele></trkpt>
      <trkpt lat="44.806630" lon="6.565662"><ele>1108.8</ele></trkpt>
      <trkpt lat="44.806579" lon="6.565642"><ele>1107.5</ele></trkpt>
      <trkpt lat="44.806514" lon="6.565648"><ele>1106.2</ele></trkpt>
      <trkpt lat="44.806246" lon="6.565735"><ele>1104.0</ele></trkpt>
      <trkpt lat="44.806096" lon="6.565758"><ele>1103.5</ele></trkpt>
      <trkpt lat="44.805972" lon="6.565763"><ele>1103.2</ele></trkpt>
      <trkpt lat="44.805798" lon="6.565741"><ele>1102.5</ele></trkpt>
      <trkpt lat="44.805644" lon="6.565702"><ele>1101.2</ele></trkpt>
      <trkpt lat="44.805138" lon="6.565460"><ele>1097.5</ele></trkpt>
      <trkpt lat="44.804757" lon="6.565362"><ele>1096.2</ele></trkpt>
      <trkpt lat="44.804373" lon="6.565298"><ele>1092.8</ele></trkpt>
      <trkpt lat="44.804123" lon="6.565301"><ele>1090.0</ele></trkpt>
      <trkpt lat="44.803941" lon="6.565349"><ele>1088.2</ele></trkpt>
      <trkpt lat="44.803807" lon="6.565413"><ele>1087.0</ele></trkpt>
      <trkpt lat="44.803375" lon="6.565677"><ele>1081.2</ele></trkpt>
      <trkpt lat="44.802999" lon="6.565912"><ele>1079.2</ele></trkpt>
      <trkpt lat="44.802781" lon="6.565990"><ele>1076.2</ele></trkpt>
      <trkpt lat="44.802591" lon="6.566035"><ele>1074.0</ele></trkpt>
      <trkpt lat="44.802341" lon="6.566050"><ele>1070.8</ele></trkpt>
      <trkpt lat="44.802054" lon="6.566051"><ele>1068.0</ele></trkpt>
      <trkpt lat="44.801654" lon="6.566046"><ele>1065.0</ele></trkpt>
      <trkpt lat="44.800911" lon="6.566054"><ele>1063.5</ele></trkpt>
      <trkpt lat="44.800657" lon="6.566018"><ele>1061.2</ele></trkpt>
      <trkpt lat="44.800316" lon="6.565994"><ele>1058.2</ele></trkpt>
      <trkpt lat="44.800153" lon="6.565973"><ele>1056.8</ele></trkpt>
      <trkpt lat="44.799835" lon="6.565914"><ele>1054.2</ele></trkpt>
      <trkpt lat="44.799654" lon="6.565884"><ele>1052.8</ele></trkpt>
      <trkpt lat="44.799548" lon="6.565848"><ele>1051.5</ele></trkpt>
      <trkpt lat="44.799299" lon="6.565733"><ele>1048.5</ele></trkpt>
      <trkpt lat="44.799216" lon="6.565682"><ele>1048.0</ele></trkpt>
      <trkpt lat="44.799003" lon="6.565505"><ele>1048.0</ele></trkpt>
      <trkpt lat="44.798903" lon="6.565407"><ele>1047.8</ele></trkpt>
      <trkpt lat="44.798764" lon="6.565242"><ele>1047.5</ele></trkpt>
      <trkpt lat="44.798696" lon="6.565152"><ele>1046.8</ele></trkpt>
      <trkpt lat="44.798493" lon="6.564850"><ele>1044.0</ele></trkpt>
      <trkpt lat="44.798414" lon="6.564731"><ele>1042.8</ele></trkpt>
      <trkpt lat="44.798169" lon="6.564353"><ele>1039.8</ele></trkpt>
      <trkpt lat="44.798053" lon="6.564180"><ele>1038.0</ele></trkpt>
      <trkpt lat="44.797981" lon="6.564081"><ele>1036.8</ele></trkpt>
      <trkpt lat="44.797872" lon="6.563944"><ele>1034.2</ele></trkpt>
      <trkpt lat="44.797767" lon="6.563826"><ele>1032.0</ele></trkpt>
      <trkpt lat="44.797655" lon="6.563716"><ele>1030.0</ele></trkpt>
      <trkpt lat="44.797641" lon="6.563706"><ele>1030.0</ele></trkpt>
      <trkpt lat="44.797560" lon="6.563640"><ele>1028.5</ele></trkpt>
      <trkpt lat="44.797524" lon="6.563609"><ele>1028.0</ele></trkpt>
      <trkpt lat="44.797450" lon="6.563550"><ele>1027.8</ele></trkpt>
      <trkpt lat="44.797376" lon="6.563492"><ele>1027.8</ele></trkpt>
      <trkpt lat="44.797123" lon="6.563316"><ele>1025.8</ele></trkpt>
      <trkpt lat="44.796901" lon="6.563151"><ele>1023.2</ele></trkpt>
      <trkpt lat="44.796695" lon="6.563015"><ele>1021.2</ele></trkpt>
      <trkpt lat="44.796670" lon="6.562998"><ele>1021.0</ele></trkpt>
      <trkpt lat="44.796534" lon="6.562926"><ele>1019.2</ele></trkpt>
      <trkpt lat="44.796502" lon="6.562911"><ele>1019.0</ele></trkpt>
      <trkpt lat="44.796282" lon="6.562815"><ele>1016.5</ele></trkpt>
      <trkpt lat="44.796008" lon="6.562729"><ele>1013.5</ele></trkpt>
      <trkpt lat="44.795978" lon="6.562720"><ele>1013.2</ele></trkpt>
      <trkpt lat="44.795877" lon="6.562696"><ele>1012.2</ele></trkpt>
      <trkpt lat="44.795586" lon="6.562646"><ele>1009.8</ele></trkpt>
      <trkpt lat="44.795112" lon="6.562574"><ele>1005.5</ele></trkpt>
      <trkpt lat="44.795014" lon="6.562559"><ele>1004.5</ele></trkpt>
      <trkpt lat="44.794860" lon="6.562553"><ele>1004.0</ele></trkpt>
      <trkpt lat="44.794517" lon="6.562548"><ele>1002.0</ele></trkpt>
      <trkpt lat="44.794305" lon="6.562545"><ele>1000.8</ele></trkpt>
      <trkpt lat="44.794100" lon="6.562521"><ele>999.8</ele></trkpt>
      <trkpt lat="44.793984" lon="6.562495"><ele>999.2</ele></trkpt>
      <trkpt lat="44.793331" lon="6.562362"><ele>996.5</ele></trkpt>
      <trkpt lat="44.793070" lon="6.562309"><ele>995.2</ele></trkpt>
      <trkpt lat="44.792973" lon="6.562290"><ele>994.8</ele></trkpt>
      <trkpt lat="44.792721" lon="6.562239"><ele>994.0</ele></trkpt>
      <trkpt lat="44.792505" lon="6.562197"><ele>992.5</ele></trkpt>
      <trkpt lat="44.792300" lon="6.562155"><ele>991.2</ele></trkpt>
      <trkpt lat="44.792249" lon="6.562145"><ele>991.0</ele></trkpt>
      <trkpt lat="44.792168" lon="6.562131"><ele>990.5</ele></trkpt>
      <trkpt lat="44.792073" lon="6.562113"><ele>989.5</ele></trkpt>
      <trkpt lat="44.792021" lon="6.562103"><ele>989.2</ele></trkpt>
      <trkpt lat="44.791935" lon="6.562087"><ele>988.2</ele></trkpt>
      <trkpt lat="44.791638" lon="6.562032"><ele>986.2</ele></trkpt>
      <trkpt lat="44.791535" lon="6.562013"><ele>985.2</ele></trkpt>
      <trkpt lat="44.791240" lon="6.561958"><ele>982.8</ele></trkpt>
      <trkpt lat="44.790978" lon="6.561909"><ele>980.8</ele></trkpt>
      <trkpt lat="44.790879" lon="6.561892"><ele>980.0</ele></trkpt>
      <trkpt lat="44.790515" lon="6.561816"><ele>976.8</ele></trkpt>
      <trkpt lat="44.790294" lon="6.561736"><ele>976.0</ele></trkpt>
      <trkpt lat="44.790105" lon="6.561683"><ele>975.2</ele></trkpt>
      <trkpt lat="44.789635" lon="6.561582"><ele>974.5</ele></trkpt>
      <trkpt lat="44.789020" lon="6.561449"><ele>973.2</ele></trkpt>
      <trkpt lat="44.788300" lon="6.561303"><ele>973.0</ele></trkpt>
      <trkpt lat="44.787961" lon="6.561243"><ele>973.5</ele></trkpt>
      <trkpt lat="44.787132" lon="6.561163"><ele>976.8</ele></trkpt>
      <trkpt lat="44.786024" lon="6.560945"><ele>985.2</ele></trkpt>
      <trkpt lat="44.785642" lon="6.560869"><ele>988.8</ele></trkpt>
      <trkpt lat="44.784892" lon="6.560715"><ele>992.2</ele></trkpt>
      <trkpt lat="44.784608" lon="6.560662"><ele>991.5</ele></trkpt>
      <trkpt lat="44.784230" lon="6.560602"><ele>990.5</ele></trkpt>
      <trkpt lat="44.783806" lon="6.560555"><ele>990.2</ele></trkpt>
      <trkpt lat="44.783465" lon="6.560550"><ele>991.2</ele></trkpt>
      <trkpt lat="44.783234" lon="6.560561"><ele>991.2</ele></trkpt>
      <trkpt lat="44.782994" lon="6.560591"><ele>989.2</ele></trkpt>
      <trkpt lat="44.782720" lon="6.560643"><ele>987.0</ele></trkpt>
      <trkpt lat="44.782417" lon="6.560714"><ele>986.0</ele></trkpt>
      <trkpt lat="44.781989" lon="6.560851"><ele>983.5</ele></trkpt>
      <trkpt lat="44.781278" lon="6.561095"><ele>979.2</ele></trkpt>
      <trkpt lat="44.781113" lon="6.561119"><ele>978.2</ele></trkpt>
      <trkpt lat="44.780886" lon="6.561126"><ele>977.0</ele></trkpt>
      <trkpt lat="44.780701" lon="6.561119"><ele>974.8</ele></trkpt>
      <trkpt lat="44.780464" lon="6.561096"><ele>972.2</ele></trkpt>
      <trkpt lat="44.780249" lon="6.561043"><ele>971.0</ele></trkpt>
      <trkpt lat="44.779750" lon="6.560881"><ele>968.0</ele></trkpt>
      <trkpt lat="44.779319" lon="6.560714"><ele>965.8</ele></trkpt>
      <trkpt lat="44.777913" lon="6.560137"><ele>962.2</ele></trkpt>
      <trkpt lat="44.777710" lon="6.560076"><ele>962.0</ele></trkpt>
      <trkpt lat="44.777444" lon="6.560005"><ele>961.5</ele></trkpt>
      <trkpt lat="44.776490" lon="6.559849"><ele>960.2</ele></trkpt>
      <trkpt lat="44.775721" lon="6.559761"><ele>960.8</ele></trkpt>
      <trkpt lat="44.775431" lon="6.559735"><ele>960.2</ele></trkpt>
      <trkpt lat="44.775088" lon="6.559761"><ele>961.2</ele></trkpt>
      <trkpt lat="44.774789" lon="6.559829"><ele>962.5</ele></trkpt>
      <trkpt lat="44.773356" lon="6.560086"><ele>959.2</ele></trkpt>
      <trkpt lat="44.772806" lon="6.560204"><ele>957.0</ele></trkpt>
      <trkpt lat="44.772537" lon="6.560302"><ele>958.0</ele></trkpt>
      <trkpt lat="44.772281" lon="6.560426"><ele>957.2</ele></trkpt>
      <trkpt lat="44.772067" lon="6.560567"><ele>957.0</ele></trkpt>
      <trkpt lat="44.771866" lon="6.560726"><ele>957.5</ele></trkpt>
      <trkpt lat="44.771487" lon="6.561073"><ele>958.0</ele></trkpt>
      <trkpt lat="44.771117" lon="6.561377"><ele>957.0</ele></trkpt>
      <trkpt lat="44.770570" lon="6.561755"><ele>959.2</ele></trkpt>
      <trkpt lat="44.768673" lon="6.563089"><ele>959.8</ele></trkpt>
      <trkpt lat="44.768242" lon="6.563415"><ele>954.5</ele></trkpt>
      <trkpt lat="44.767885" lon="6.563732"><ele>953.5</ele></trkpt>
      <trkpt lat="44.766581" lon="6.565109"><ele>951.2</ele></trkpt>
      <trkpt lat="44.765640" lon="6.566109"><ele>950.5</ele></trkpt>
      <trkpt lat="44.765594" lon="6.566159"><ele>950.5</ele></trkpt>
      <trkpt lat="44.765491" lon="6.566269"><ele>950.5</ele></trkpt>
      <trkpt lat="44.761665" lon="6.570265"><ele>948.0</ele></trkpt>
      <trkpt lat="44.761028" lon="6.570861"><ele>948.8</ele></trkpt>
      <trkpt lat="44.760462" lon="6.571439"><ele>949.0</ele></trkpt>
      <trkpt lat="44.760404" lon="6.571498"><ele>949.2</ele></trkpt>
      <trkpt lat="44.760272" lon="6.571635"><ele>949.8</ele></trkpt>
      <trkpt lat="44.760126" lon="6.571782"><ele>948.2</ele></trkpt>
      <trkpt lat="44.759915" lon="6.571997"><ele>948.8</ele></trkpt>
      <trkpt lat="44.759706" lon="6.572188"><ele>948.8</ele></trkpt>
      <trkpt lat="44.759367" lon="6.572475"><ele>949.5</ele></trkpt>
      <trkpt lat="44.758097" lon="6.573299"><ele>945.2</ele></trkpt>
      <trkpt lat="44.757097" lon="6.573936"><ele>943.0</ele></trkpt>
      <trkpt lat="44.757007" lon="6.573993"><ele>943.0</ele></trkpt>
      <trkpt lat="44.756904" lon="6.574059"><ele>943.0</ele></trkpt>
      <trkpt lat="44.756260" lon="6.574475"><ele>941.8</ele></trkpt>
      <trkpt lat="44.755677" lon="6.574806"><ele>941.0</ele></trkpt>
      <trkpt lat="44.754984" lon="6.575230"><ele>940.2</ele></trkpt>
      <trkpt lat="44.754948" lon="6.575254"><ele>940.0</ele></trkpt>
      <trkpt lat="44.754021" lon="6.575881"><ele>938.8</ele></trkpt>
      <trkpt lat="44.753717" lon="6.576117"><ele>938.0</ele></trkpt>
      <trkpt lat="44.752835" lon="6.576694"><ele>938.0</ele></trkpt>
      <trkpt lat="44.751973" lon="6.577260"><ele>938.8</ele></trkpt>
      <trkpt lat="44.751730" lon="6.577416"><ele>939.5</ele></trkpt>
      <trkpt lat="44.751409" lon="6.577626"><ele>940.8</ele></trkpt>
      <trkpt lat="44.751379" lon="6.577646"><ele>941.0</ele></trkpt>
      <trkpt lat="44.751107" lon="6.577828"><ele>942.0</ele></trkpt>
      <trkpt lat="44.750931" lon="6.577945"><ele>942.2</ele></trkpt>
      <trkpt lat="44.750640" lon="6.578136"><ele>943.8</ele></trkpt>
      <trkpt lat="44.750458" lon="6.578254"><ele>944.5</ele></trkpt>
      <trkpt lat="44.750204" lon="6.578422"><ele>945.0</ele></trkpt>
      <trkpt lat="44.750175" lon="6.578438"><ele>945.0</ele></trkpt>
      <trkpt lat="44.750155" lon="6.578451"><ele>945.0</ele></trkpt>
      <trkpt lat="44.750129" lon="6.578468"><ele>945.0</ele></trkpt>
      <trkpt lat="44.750115" lon="6.578476"><ele>945.0</ele></trkpt>
      <trkpt lat="44.750097" lon="6.578488"><ele>945.2</ele></trkpt>
      <trkpt lat="44.749936" lon="6.578590"><ele>945.5</ele></trkpt>
      <trkpt lat="44.749478" lon="6.578886"><ele>945.0</ele></trkpt>
      <trkpt lat="44.749362" lon="6.578960"><ele>944.5</ele></trkpt>
      <trkpt lat="44.749263" lon="6.579023"><ele>944.0</ele></trkpt>
      <trkpt lat="44.749180" lon="6.579076"><ele>943.8</ele></trkpt>
      <trkpt lat="44.749125" lon="6.579112"><ele>943.5</ele></trkpt>
      <trkpt lat="44.749048" lon="6.579161"><ele>943.5</ele></trkpt>
      <trkpt lat="44.748984" lon="6.579202"><ele>943.5</ele></trkpt>
      <trkpt lat="44.748964" lon="6.579214"><ele>943.2</ele></trkpt>
      <trkpt lat="44.748907" lon="6.579250"><ele>943.2</ele></trkpt>
      <trkpt lat="44.748714" lon="6.579370"><ele>942.8</ele></trkpt>
      <trkpt lat="44.748445" lon="6.579545"><ele>942.2</ele></trkpt>
      <trkpt lat="44.748398" lon="6.579571"><ele>942.2</ele></trkpt>
      <trkpt lat="44.748336" lon="6.579585"><ele>942.0</ele></trkpt>
      <trkpt lat="44.748077" lon="6.579619"><ele>940.8</ele></trkpt>
      <trkpt lat="44.748046" lon="6.579632"><ele>940.5</ele></trkpt>
      <trkpt lat="44.748015" lon="6.579653"><ele>940.5</ele></trkpt>
      <trkpt lat="44.747913" lon="6.579730"><ele>940.5</ele></trkpt>
      <trkpt lat="44.747536" lon="6.580052"><ele>940.2</ele></trkpt>
      <trkpt lat="44.747257" lon="6.580237"><ele>940.8</ele></trkpt>
      <trkpt lat="44.746928" lon="6.580410"><ele>941.5</ele></trkpt>
      <trkpt lat="44.746743" lon="6.580501"><ele>942.2</ele></trkpt>
      <trkpt lat="44.746683" lon="6.580531"><ele>942.8</ele></trkpt>
      <trkpt lat="44.746647" lon="6.580549"><ele>943.0</ele></trkpt>
      <trkpt lat="44.746468" lon="6.580638"><ele>944.5</ele></trkpt>
      <trkpt lat="44.746316" lon="6.580720"><ele>946.0</ele></trkpt>
      <trkpt lat="44.746191" lon="6.580804"><ele>947.8</ele></trkpt>
      <trkpt lat="44.746046" lon="6.580914"><ele>949.0</ele></trkpt>
      <trkpt lat="44.745877" lon="6.581080"><ele>949.5</ele></trkpt>
      <trkpt lat="44.745702" lon="6.581234"><ele>948.5</ele></trkpt>
      <trkpt lat="44.745568" lon="6.581326"><ele>947.5</ele></trkpt>
      <trkpt lat="44.745360" lon="6.581442"><ele>947.0</ele></trkpt>
      <trkpt lat="44.745146" lon="6.581581"><ele>947.0</ele></trkpt>
      <trkpt lat="44.744920" lon="6.581739"><ele>947.8</ele></trkpt>
      <trkpt lat="44.744673" lon="6.581928"><ele>948.0</ele></trkpt>
      <trkpt lat="44.744335" lon="6.582198"><ele>949.0</ele></trkpt>
      <trkpt lat="44.744209" lon="6.582256"><ele>950.2</ele></trkpt>
      <trkpt lat="44.744065" lon="6.582294"><ele>950.5</ele></trkpt>
      <trkpt lat="44.743613" lon="6.582370"><ele>948.0</ele></trkpt>
      <trkpt lat="44.742895" lon="6.582484"><ele>948.2</ele></trkpt>
      <trkpt lat="44.742669" lon="6.582519"><ele>949.2</ele></trkpt>
      <trkpt lat="44.742460" lon="6.582564"><ele>949.0</ele></trkpt>
      <trkpt lat="44.742272" lon="6.582622"><ele>947.2</ele></trkpt>
      <trkpt lat="44.741977" lon="6.582734"><ele>946.0</ele></trkpt>
      <trkpt lat="44.741848" lon="6.582772"><ele>945.0</ele></trkpt>
      <trkpt lat="44.741524" lon="6.582820"><ele>942.0</ele></trkpt>
      <trkpt lat="44.740072" lon="6.583320"><ele>931.8</ele></trkpt>
      <trkpt lat="44.739553" lon="6.583458"><ele>928.0</ele></trkpt>
      <trkpt lat="44.739156" lon="6.583522"><ele>928.0</ele></trkpt>
      <trkpt lat="44.737759" lon="6.583688"><ele>927.5</ele></trkpt>
      <trkpt lat="44.733589" lon="6.584185"><ele>924.2</ele></trkpt>
      <trkpt lat="44.733135" lon="6.584273"><ele>924.8</ele></trkpt>
      <trkpt lat="44.732656" lon="6.584419"><ele>923.8</ele></trkpt>
      <trkpt lat="44.730091" lon="6.585241"><ele>923.0</ele></trkpt>
      <trkpt lat="44.728318" lon="6.585818"><ele>919.8</ele></trkpt>
      <trkpt lat="44.727946" lon="6.585947"><ele>919.5</ele></trkpt>
      <trkpt lat="44.727571" lon="6.586117"><ele>918.8</ele></trkpt>
      <trkpt lat="44.727192" lon="6.586348"><ele>918.8</ele></trkpt>
      <trkpt lat="44.726908" lon="6.586557"><ele>918.8</ele></trkpt>
      <trkpt lat="44.726673" lon="6.586754"><ele>918.5</ele></trkpt>
      <trkpt lat="44.725428" lon="6.588019"><ele>919.2</ele></trkpt>
      <trkpt lat="44.724746" lon="6.588685"><ele>918.8</ele></trkpt>
      <trkpt lat="44.724451" lon="6.588979"><ele>917.5</ele></trkpt>
      <trkpt lat="44.724390" lon="6.589050"><ele>917.5</ele></trkpt>
      <trkpt lat="44.723914" lon="6.589534"><ele>917.2</ele></trkpt>
      <trkpt lat="44.723539" lon="6.589948"><ele>916.8</ele></trkpt>
      <trkpt lat="44.721370" lon="6.592171"><ele>918.2</ele></trkpt>
      <trkpt lat="44.719122" lon="6.594424"><ele>922.8</ele></trkpt>
      <trkpt lat="44.718971" lon="6.594586"><ele>922.8</ele></trkpt>
      <trkpt lat="44.717398" lon="6.596188"><ele>917.0</ele></trkpt>
      <trkpt lat="44.715476" lon="6.598132"><ele>908.5</ele></trkpt>
      <trkpt lat="44.713526" lon="6.600148"><ele>906.5</ele></trkpt>
      <trkpt lat="44.712671" lon="6.601014"><ele>907.5</ele></trkpt>
      <trkpt lat="44.712172" lon="6.601512"><ele>912.0</ele></trkpt>
      <trkpt lat="44.711900" lon="6.601769"><ele>913.2</ele></trkpt>
      <trkpt lat="44.711614" lon="6.602013"><ele>912.5</ele></trkpt>
      <trkpt lat="44.711416" lon="6.602166"><ele>911.8</ele></trkpt>
      <trkpt lat="44.711178" lon="6.602317"><ele>911.0</ele></trkpt>
      <trkpt lat="44.710915" lon="6.602457"><ele>909.2</ele></trkpt>
      <trkpt lat="44.710654" lon="6.602571"><ele>908.2</ele></trkpt>
      <trkpt lat="44.709013" lon="6.603192"><ele>905.8</ele></trkpt>
      <trkpt lat="44.708596" lon="6.603357"><ele>904.0</ele></trkpt>
      <trkpt lat="44.708257" lon="6.603510"><ele>904.2</ele></trkpt>
      <trkpt lat="44.707740" lon="6.603776"><ele>904.0</ele></trkpt>
      <trkpt lat="44.707446" lon="6.603963"><ele>904.0</ele></trkpt>
      <trkpt lat="44.707141" lon="6.604172"><ele>904.0</ele></trkpt>
      <trkpt lat="44.707099" lon="6.604200"><ele>904.0</ele></trkpt>
      <trkpt lat="44.706910" lon="6.604271"><ele>904.2</ele></trkpt>
      <trkpt lat="44.706872" lon="6.604284"><ele>904.2</ele></trkpt>
      <trkpt lat="44.706812" lon="6.604243"><ele>904.2</ele></trkpt>
      <trkpt lat="44.706764" lon="6.604239"><ele>904.2</ele></trkpt>
      <trkpt lat="44.706718" lon="6.604255"><ele>904.2</ele></trkpt>
      <trkpt lat="44.706678" lon="6.604291"><ele>904.2</ele></trkpt>
      <trkpt lat="44.706647" lon="6.604342"><ele>904.5</ele></trkpt>
      <trkpt lat="44.706628" lon="6.604416"><ele>904.8</ele></trkpt>
      <trkpt lat="44.706563" lon="6.604499"><ele>904.5</ele></trkpt>
      <trkpt lat="44.706488" lon="6.604560"><ele>904.0</ele></trkpt>
      <trkpt lat="44.706390" lon="6.604624"><ele>904.0</ele></trkpt>
      <trkpt lat="44.706342" lon="6.604646"><ele>904.0</ele></trkpt>
      <trkpt lat="44.706121" lon="6.604753"><ele>904.0</ele></trkpt>
      <trkpt lat="44.705764" lon="6.604952"><ele>905.0</ele></trkpt>
      <trkpt lat="44.705210" lon="6.605318"><ele>905.0</ele></trkpt>
      <trkpt lat="44.705010" lon="6.605475"><ele>905.8</ele></trkpt>
      <trkpt lat="44.704795" lon="6.605646"><ele>906.2</ele></trkpt>
      <trkpt lat="44.701627" lon="6.608381"><ele>902.5</ele></trkpt>
      <trkpt lat="44.700956" lon="6.608931"><ele>901.2</ele></trkpt>
      <trkpt lat="44.700549" lon="6.609275"><ele>901.0</ele></trkpt>
      <trkpt lat="44.700414" lon="6.609386"><ele>901.0</ele></trkpt>
      <trkpt lat="44.700031" lon="6.609644"><ele>900.2</ele></trkpt>
      <trkpt lat="44.699804" lon="6.609776"><ele>900.5</ele></trkpt>
      <trkpt lat="44.699566" lon="6.609927"><ele>900.2</ele></trkpt>
      <trkpt lat="44.699155" lon="6.610094"><ele>899.5</ele></trkpt>
      <trkpt lat="44.698746" lon="6.610228"><ele>900.0</ele></trkpt>
      <trkpt lat="44.697772" lon="6.610515"><ele>901.8</ele></trkpt>
      <trkpt lat="44.694463" lon="6.611464"><ele>919.2</ele></trkpt>
      <trkpt lat="44.693734" lon="6.611676"><ele>923.0</ele></trkpt>
      <trkpt lat="44.692438" lon="6.612040"><ele>927.5</ele></trkpt>
      <trkpt lat="44.692306" lon="6.612078"><ele>927.5</ele></trkpt>
      <trkpt lat="44.689861" lon="6.612792"><ele>928.5</ele></trkpt>
      <trkpt lat="44.687494" lon="6.613471"><ele>917.2</ele></trkpt>
      <trkpt lat="44.686453" lon="6.613772"><ele>911.0</ele></trkpt>
      <trkpt lat="44.685468" lon="6.614060"><ele>906.2</ele></trkpt>
      <trkpt lat="44.684945" lon="6.614212"><ele>904.8</ele></trkpt>
      <trkpt lat="44.684116" lon="6.614451"><ele>901.5</ele></trkpt>
      <trkpt lat="44.683919" lon="6.614508"><ele>900.5</ele></trkpt>
      <trkpt lat="44.683866" lon="6.614524"><ele>900.5</ele></trkpt>
      <trkpt lat="44.679491" lon="6.615797"><ele>889.0</ele></trkpt>
      <trkpt lat="44.678706" lon="6.616018"><ele>889.0</ele></trkpt>
      <trkpt lat="44.678417" lon="6.616104"><ele>889.0</ele></trkpt>
      <trkpt lat="44.678297" lon="6.616138"><ele>889.0</ele></trkpt>
      <trkpt lat="44.677436" lon="6.616383"><ele>888.8</ele></trkpt>
      <trkpt lat="44.677284" lon="6.616430"><ele>888.2</ele></trkpt>
      <trkpt lat="44.676954" lon="6.616502"><ele>888.0</ele></trkpt>
      <trkpt lat="44.676746" lon="6.616566"><ele>888.2</ele></trkpt>
      <trkpt lat="44.676587" lon="6.616603"><ele>888.8</ele></trkpt>
      <trkpt lat="44.676460" lon="6.616624"><ele>888.8</ele></trkpt>
      <trkpt lat="44.676161" lon="6.616669"><ele>888.0</ele></trkpt>
      <trkpt lat="44.675968" lon="6.616707"><ele>888.0</ele></trkpt>
      <trkpt lat="44.675709" lon="6.616812"><ele>888.0</ele></trkpt>
      <trkpt lat="44.675471" lon="6.616961"><ele>888.0</ele></trkpt>
      <trkpt lat="44.675334" lon="6.616999"><ele>888.0</ele></trkpt>
      <trkpt lat="44.675012" lon="6.617091"><ele>887.8</ele></trkpt>
      <trkpt lat="44.674776" lon="6.617158"><ele>888.0</ele></trkpt>
      <trkpt lat="44.674665" lon="6.617187"><ele>888.0</ele></trkpt>
      <trkpt lat="44.674639" lon="6.617194"><ele>888.0</ele></trkpt>
      <trkpt lat="44.674499" lon="6.617230"><ele>888.0</ele></trkpt>
      <trkpt lat="44.674462" lon="6.617240"><ele>888.0</ele></trkpt>
      <trkpt lat="44.674439" lon="6.617246"><ele>888.0</ele></trkpt>
      <trkpt lat="44.674044" lon="6.617350"><ele>888.0</ele></trkpt>
      <trkpt lat="44.672974" lon="6.617662"><ele>888.0</ele></trkpt>
      <trkpt lat="44.672826" lon="6.617706"><ele>888.0</ele></trkpt>
      <trkpt lat="44.672761" lon="6.617723"><ele>888.0</ele></trkpt>
      <trkpt lat="44.672231" lon="6.617879"><ele>888.0</ele></trkpt>
      <trkpt lat="44.671994" lon="6.617944"><ele>888.0</ele></trkpt>
      <trkpt lat="44.671831" lon="6.618005"><ele>888.2</ele></trkpt>
      <trkpt lat="44.671696" lon="6.618046"><ele>888.8</ele></trkpt>
      <trkpt lat="44.671492" lon="6.618144"><ele>889.0</ele></trkpt>
      <trkpt lat="44.671374" lon="6.618178"><ele>889.0</ele></trkpt>
      <trkpt lat="44.671296" lon="6.618192"><ele>889.0</ele></trkpt>
      <trkpt lat="44.671202" lon="6.618204"><ele>889.0</ele></trkpt>
      <trkpt lat="44.671013" lon="6.618225"><ele>889.2</ele></trkpt>
      <trkpt lat="44.670949" lon="6.618241"><ele>889.5</ele></trkpt>
      <trkpt lat="44.670628" lon="6.618319"><ele>890.0</ele></trkpt>
      <trkpt lat="44.670172" lon="6.618448"><ele>890.0</ele></trkpt>
      <trkpt lat="44.669993" lon="6.618470"><ele>890.5</ele></trkpt>
      <trkpt lat="44.669722" lon="6.618485"><ele>891.5</ele></trkpt>
      <trkpt lat="44.669511" lon="6.618480"><ele>891.8</ele></trkpt>
      <trkpt lat="44.669282" lon="6.618451"><ele>892.0</ele></trkpt>
      <trkpt lat="44.669082" lon="6.618412"><ele>892.2</ele></trkpt>
      <trkpt lat="44.668770" lon="6.618327"><ele>893.2</ele></trkpt>
      <trkpt lat="44.668463" lon="6.618201"><ele>892.8</ele></trkpt>
      <trkpt lat="44.668238" lon="6.618097"><ele>893.8</ele></trkpt>
      <trkpt lat="44.668038" lon="6.617976"><ele>894.0</ele></trkpt>
      <trkpt lat="44.667670" lon="6.617706"><ele>894.5</ele></trkpt>
      <trkpt lat="44.667387" lon="6.617463"><ele>894.5</ele></trkpt>
      <trkpt lat="44.667144" lon="6.617199"><ele>894.5</ele></trkpt>
      <trkpt lat="44.666947" lon="6.616946"><ele>895.8</ele></trkpt>
      <trkpt lat="44.666882" lon="6.616859"><ele>895.5</ele></trkpt>
      <trkpt lat="44.666620" lon="6.616453"><ele>895.0</ele></trkpt>
      <trkpt lat="44.666481" lon="6.616205"><ele>894.8</ele></trkpt>
      <trkpt lat="44.666333" lon="6.615923"><ele>894.5</ele></trkpt>
      <trkpt lat="44.665993" lon="6.615261"><ele>894.5</ele></trkpt>
      <trkpt lat="44.665926" lon="6.615061"><ele>894.8</ele></trkpt>
      <trkpt lat="44.665853" lon="6.614791"><ele>895.5</ele></trkpt>
      <trkpt lat="44.665841" lon="6.614692"><ele>895.8</ele></trkpt>
      <trkpt lat="44.665850" lon="6.614636"><ele>895.5</ele></trkpt>
      <trkpt lat="44.665850" lon="6.614579"><ele>895.8</ele></trkpt>
      <trkpt lat="44.665836" lon="6.614501"><ele>895.8</ele></trkpt>
      <trkpt lat="44.665806" lon="6.614433"><ele>895.8</ele></trkpt>
      <trkpt lat="44.665762" lon="6.614380"><ele>895.2</ele></trkpt>
      <trkpt lat="44.665715" lon="6.614350"><ele>895.0</ele></trkpt>
      <trkpt lat="44.665663" lon="6.614339"><ele>895.0</ele></trkpt>
      <trkpt lat="44.665601" lon="6.614352"><ele>895.2</ele></trkpt>
      <trkpt lat="44.665546" lon="6.614393"><ele>895.5</ele></trkpt>
      <trkpt lat="44.665503" lon="6.614458"><ele>895.2</ele></trkpt>
      <trkpt lat="44.665477" lon="6.614538"><ele>895.0</ele></trkpt>
      <trkpt lat="44.665472" lon="6.614642"><ele>895.2</ele></trkpt>
      <trkpt lat="44.665403" lon="6.614785"><ele>894.8</ele></trkpt>
      <trkpt lat="44.665147" lon="6.615113"><ele>893.8</ele></trkpt>
      <trkpt lat="44.663155" lon="6.617106"><ele>898.0</ele></trkpt>
      <trkpt lat="44.663108" lon="6.617156"><ele>898.2</ele></trkpt>
      <trkpt lat="44.662492" lon="6.617767"><ele>901.0</ele></trkpt>
      <trkpt lat="44.662436" lon="6.617823"><ele>901.2</ele></trkpt>
      <trkpt lat="44.662202" lon="6.618055"><ele>903.0</ele></trkpt>
      <trkpt lat="44.662100" lon="6.618110"><ele>903.2</ele></trkpt>
      <trkpt lat="44.662041" lon="6.618142"><ele>903.5</ele></trkpt>
      <trkpt lat="44.661989" lon="6.618162"><ele>903.8</ele></trkpt>
      <trkpt lat="44.661946" lon="6.618141"><ele>903.8</ele></trkpt>
      <trkpt lat="44.661900" lon="6.618141"><ele>904.2</ele></trkpt>
      <trkpt lat="44.661857" lon="6.618160"><ele>904.5</ele></trkpt>
      <trkpt lat="44.661820" lon="6.618197"><ele>904.8</ele></trkpt>
      <trkpt lat="44.661793" lon="6.618248"><ele>905.0</ele></trkpt>
      <trkpt lat="44.661778" lon="6.618307"><ele>905.0</ele></trkpt>
      <trkpt lat="44.661777" lon="6.618369"><ele>905.0</ele></trkpt>
      <trkpt lat="44.661716" lon="6.618510"><ele>905.0</ele></trkpt>
      <trkpt lat="44.661626" lon="6.618633"><ele>905.2</ele></trkpt>
      <trkpt lat="44.661534" lon="6.618729"><ele>905.8</ele></trkpt>
      <trkpt lat="44.661480" lon="6.618782"><ele>906.2</ele></trkpt>
      <trkpt lat="44.661317" lon="6.618943"><ele>907.0</ele></trkpt>
      <trkpt lat="44.661246" lon="6.619015"><ele>907.2</ele></trkpt>
      <trkpt lat="44.660527" lon="6.619736"><ele>910.0</ele></trkpt>
      <trkpt lat="44.660428" lon="6.619845"><ele>910.0</ele></trkpt>
      <trkpt lat="44.660305" lon="6.619999"><ele>910.8</ele></trkpt>
      <trkpt lat="44.660159" lon="6.620200"><ele>910.5</ele></trkpt>
      <trkpt lat="44.660021" lon="6.620418"><ele>911.2</ele></trkpt>
      <trkpt lat="44.659897" lon="6.620647"><ele>911.5</ele></trkpt>
      <trkpt lat="44.659760" lon="6.620969"><ele>912.0</ele></trkpt>
      <trkpt lat="44.659663" lon="6.621246"><ele>911.8</ele></trkpt>
      <trkpt lat="44.659588" lon="6.621523"><ele>911.5</ele></trkpt>
      <trkpt lat="44.659511" lon="6.621845"><ele>911.5</ele></trkpt>
      <trkpt lat="44.659450" lon="6.622235"><ele>910.8</ele></trkpt>
      <trkpt lat="44.659423" lon="6.622592"><ele>909.8</ele></trkpt>
      <trkpt lat="44.659417" lon="6.622958"><ele>909.2</ele></trkpt>
      <trkpt lat="44.659491" lon="6.624207"><ele>911.5</ele></trkpt>
      <trkpt lat="44.659550" lon="6.625122"><ele>911.0</ele></trkpt>
      <trkpt lat="44.659571" lon="6.625485"><ele>911.2</ele></trkpt>
      <trkpt lat="44.659612" lon="6.626227"><ele>912.5</ele></trkpt>
      <trkpt lat="44.659662" lon="6.627130"><ele>915.0</ele></trkpt>
      <trkpt lat="44.659761" lon="6.628747"><ele>922.8</ele></trkpt>
      <trkpt lat="44.659782" lon="6.629231"><ele>925.5</ele></trkpt>
      <trkpt lat="44.659788" lon="6.629614"><ele>927.8</ele></trkpt>
      <trkpt lat="44.659780" lon="6.629854"><ele>928.8</ele></trkpt>
      <trkpt lat="44.659757" lon="6.630127"><ele>930.0</ele></trkpt>
      <trkpt lat="44.659716" lon="6.630425"><ele>931.2</ele></trkpt>
      <trkpt lat="44.659673" lon="6.630626"><ele>931.8</ele></trkpt>
      <trkpt lat="44.659622" lon="6.630819"><ele>932.8</ele></trkpt>
      <trkpt lat="44.659575" lon="6.630986"><ele>933.5</ele></trkpt>
      <trkpt lat="44.659509" lon="6.631183"><ele>934.2</ele></trkpt>
      <trkpt lat="44.659431" lon="6.631380"><ele>934.8</ele></trkpt>
      <trkpt lat="44.659272" lon="6.631727"><ele>936.0</ele></trkpt>
      <trkpt lat="44.659186" lon="6.631880"><ele>935.8</ele></trkpt>
      <trkpt lat="44.658942" lon="6.632268"><ele>936.8</ele></trkpt>
      <trkpt lat="44.658534" lon="6.632849"><ele>941.5</ele></trkpt>
      <trkpt lat="44.658467" lon="6.633006"><ele>942.5</ele></trkpt>
      <trkpt lat="44.658422" lon="6.633205"><ele>943.5</ele></trkpt>
      <trkpt lat="44.658403" lon="6.633413"><ele>944.0</ele></trkpt>
      <trkpt lat="44.658413" lon="6.633583"><ele>944.0</ele></trkpt>
      <trkpt lat="44.658447" lon="6.633757"><ele>944.8</ele></trkpt>
      <trkpt lat="44.658495" lon="6.633926"><ele>945.8</ele></trkpt>
      <trkpt lat="44.658554" lon="6.634083"><ele>945.8</ele></trkpt>
      <trkpt lat="44.658614" lon="6.634217"><ele>945.5</ele></trkpt>
      <trkpt lat="44.659197" lon="6.635569"><ele>952.8</ele></trkpt>
      <trkpt lat="44.659282" lon="6.635756"><ele>953.8</ele></trkpt>
      <trkpt lat="44.659722" lon="6.636811"><ele>955.2</ele></trkpt>
      <trkpt lat="44.659785" lon="6.636949"><ele>956.0</ele></trkpt>
      <trkpt lat="44.659839" lon="6.637114"><ele>957.0</ele></trkpt>
      <trkpt lat="44.659879" lon="6.637288"><ele>958.2</ele></trkpt>
      <trkpt lat="44.659898" lon="6.637482"><ele>959.5</ele></trkpt>
      <trkpt lat="44.659897" lon="6.637651"><ele>960.8</ele></trkpt>
      <trkpt lat="44.659862" lon="6.637924"><ele>961.8</ele></trkpt>
      <trkpt lat="44.659774" lon="6.638446"><ele>963.0</ele></trkpt>
      <trkpt lat="44.659759" lon="6.638682"><ele>964.0</ele></trkpt>
      <trkpt lat="44.659776" lon="6.638931"><ele>965.0</ele></trkpt>
      <trkpt lat="44.659931" lon="6.640078"><ele>968.2</ele></trkpt>
      <trkpt lat="44.659937" lon="6.640276"><ele>969.0</ele></trkpt>
      <trkpt lat="44.659928" lon="6.640457"><ele>970.2</ele></trkpt>
      <trkpt lat="44.659904" lon="6.640626"><ele>971.0</ele></trkpt>
      <trkpt lat="44.659873" lon="6.640736"><ele>971.2</ele></trkpt>
      <trkpt lat="44.659803" lon="6.640917"><ele>971.2</ele></trkpt>
      <trkpt lat="44.659637" lon="6.641230"><ele>970.8</ele></trkpt>
      <trkpt lat="44.659590" lon="6.641336"><ele>970.8</ele></trkpt>
      <trkpt lat="44.659526" lon="6.641505"><ele>972.0</ele></trkpt>
      <trkpt lat="44.659408" lon="6.641678"><ele>972.2</ele></trkpt>
      <trkpt lat="44.659367" lon="6.641731"><ele>972.0</ele></trkpt>
      <trkpt lat="44.659332" lon="6.641744"><ele>971.5</ele></trkpt>
      <trkpt lat="44.659301" lon="6.641773"><ele>971.0</ele></trkpt>
      <trkpt lat="44.659279" lon="6.641814"><ele>971.2</ele></trkpt>
      <trkpt lat="44.659267" lon="6.641863"><ele>971.5</ele></trkpt>
      <trkpt lat="44.659267" lon="6.641916"><ele>972.2</ele></trkpt>
      <trkpt lat="44.659279" lon="6.641966"><ele>973.0</ele></trkpt>
      <trkpt lat="44.659302" lon="6.642008"><ele>973.5</ele></trkpt>
      <trkpt lat="44.659353" lon="6.642047"><ele>974.5</ele></trkpt>
      <trkpt lat="44.659377" lon="6.642193"><ele>975.5</ele></trkpt>
      <trkpt lat="44.659386" lon="6.642368"><ele>975.8</ele></trkpt>
      <trkpt lat="44.659374" lon="6.642617"><ele>975.8</ele></trkpt>
      <trkpt lat="44.659358" lon="6.643187"><ele>977.0</ele></trkpt>
      <trkpt lat="44.659370" lon="6.643417"><ele>977.8</ele></trkpt>
      <trkpt lat="44.659391" lon="6.643580"><ele>978.2</ele></trkpt>
      <trkpt lat="44.659445" lon="6.643767"><ele>979.2</ele></trkpt>
      <trkpt lat="44.659525" lon="6.643957"><ele>980.5</ele></trkpt>
      <trkpt lat="44.659632" lon="6.644156"><ele>981.8</ele></trkpt>
      <trkpt lat="44.659879" lon="6.644571"><ele>985.5</ele></trkpt>
      <trkpt lat="44.660018" lon="6.644885"><ele>987.8</ele></trkpt>
      <trkpt lat="44.660038" lon="6.644952"><ele>988.0</ele></trkpt>
      <trkpt lat="44.660062" lon="6.645100"><ele>988.2</ele></trkpt>
      <trkpt lat="44.660079" lon="6.645350"><ele>988.5</ele></trkpt>
      <trkpt lat="44.660136" lon="6.646621"><ele>993.2</ele></trkpt>
      <trkpt lat="44.660136" lon="6.646865"><ele>994.0</ele></trkpt>
      <trkpt lat="44.660122" lon="6.647024"><ele>994.5</ele></trkpt>
      <trkpt lat="44.660112" lon="6.647077"><ele>994.8</ele></trkpt>
      <trkpt lat="44.659865" lon="6.648276"><ele>997.5</ele></trkpt>
      <trkpt lat="44.659852" lon="6.648390"><ele>998.0</ele></trkpt>
      <trkpt lat="44.659847" lon="6.648511"><ele>998.8</ele></trkpt>
      <trkpt lat="44.659815" lon="6.648510"><ele>998.2</ele></trkpt>
      <trkpt lat="44.659719" lon="6.648510"><ele>997.0</ele></trkpt>
    </trkseg>
  </trk>
</gpx>
