<?xml version="1.0" encoding="UTF-8"?>
<gpx version="1.1" creator="coucou-cosyn" xmlns="http://www.topografix.com/GPX/1/1"
     xmlns:xsi="http://www.w3.org/2001/XMLSchema-instance"
     xsi:schemaLocation="http://www.topografix.com/GPX/1/1 http://www.topografix.com/GPX/1/1/gpx.xsd">
  <metadata>
    <name>Approche — Briançon &gt; Guillestre par la rive gauche</name>
    <desc>Variante plus calme : rive gauche de la Durance par Saint-Martin-de-Queyrieres jusqu&#x27;a L&#x27;Argentiere, puis la vallee. 36,7 km et 460 m, soit 16 min et 140 m de plus que la N94. Routage OpenStreetMap (BRouter).</desc>
  </metadata>
  <trk>
    <name>Approche — Briançon &gt; Guillestre par la rive gauche</name>
    <type>Cycling</type>
    <trkseg>
      <trkpt lat="44.879797" lon="6.619503"><ele>1180.0</ele></trkpt>
      <trkpt lat="44.880935" lon="6.620590"><ele>1183.5</ele></trkpt>
      <trkpt lat="44.881016" lon="6.620734"><ele>1184.2</ele></trkpt>
      <trkpt lat="44.881044" lon="6.620778"><ele>1184.5</ele></trkpt>
      <trkpt lat="44.881080" lon="6.620835"><ele>1184.8</ele></trkpt>
      <trkpt lat="44.881083" lon="6.620885"><ele>1184.5</ele></trkpt>
      <trkpt lat="44.881094" lon="6.620933"><ele>1184.2</ele></trkpt>
      <trkpt lat="44.881113" lon="6.620975"><ele>1184.2</ele></trkpt>
      <trkpt lat="44.881142" lon="6.621013"><ele>1184.2</ele></trkpt>
      <trkpt lat="44.881176" lon="6.621039"><ele>1184.2</ele></trkpt>
      <trkpt lat="44.881218" lon="6.621051"><ele>1184.5</ele></trkpt>
      <trkpt lat="44.881261" lon="6.621046"><ele>1184.8</ele></trkpt>
      <trkpt lat="44.881301" lon="6.621023"><ele>1185.0</ele></trkpt>
      <trkpt lat="44.881334" lon="6.620987"><ele>1185.0</ele></trkpt>
      <trkpt lat="44.881358" lon="6.620938"><ele>1185.5</ele></trkpt>
      <trkpt lat="44.881372" lon="6.620882"><ele>1185.8</ele></trkpt>
      <trkpt lat="44.881374" lon="6.620823"><ele>1185.8</ele></trkpt>
      <trkpt lat="44.881363" lon="6.620763"><ele>1185.8</ele></trkpt>
      <trkpt lat="44.881340" lon="6.620710"><ele>1185.8</ele></trkpt>
      <trkpt lat="44.881366" lon="6.620553"><ele>1185.8</ele></trkpt>
      <trkpt lat="44.881368" lon="6.620478"><ele>1185.8</ele></trkpt>
      <trkpt lat="44.881358" lon="6.620407"><ele>1185.8</ele></trkpt>
      <trkpt lat="44.881340" lon="6.620351"><ele>1185.8</ele></trkpt>
      <trkpt lat="44.881315" lon="6.620304"><ele>1185.5</ele></trkpt>
      <trkpt lat="44.881257" lon="6.620218"><ele>1185.2</ele></trkpt>
      <trkpt lat="44.881169" lon="6.620098"><ele>1184.5</ele></trkpt>
      <trkpt lat="44.881079" lon="6.619952"><ele>1183.8</ele></trkpt>
      <trkpt lat="44.880962" lon="6.619700"><ele>1182.8</ele></trkpt>
      <trkpt lat="44.880920" lon="6.619598"><ele>1182.5</ele></trkpt>
      <trkpt lat="44.880882" lon="6.619502"><ele>1182.2</ele></trkpt>
      <trkpt lat="44.880851" lon="6.619415"><ele>1182.0</ele></trkpt>
      <trkpt lat="44.880752" lon="6.619147"><ele>1182.2</ele></trkpt>
      <trkpt lat="44.880733" lon="6.619097"><ele>1182.5</ele></trkpt>
      <trkpt lat="44.880650" lon="6.618885"><ele>1182.5</ele></trkpt>
      <trkpt lat="44.880529" lon="6.618617"><ele>1183.5</ele></trkpt>
      <trkpt lat="44.880482" lon="6.618539"><ele>1183.5</ele></trkpt>
      <trkpt lat="44.880387" lon="6.618397"><ele>1183.5</ele></trkpt>
      <trkpt lat="44.880343" lon="6.618335"><ele>1183.5</ele></trkpt>
      <trkpt lat="44.880299" lon="6.618273"><ele>1183.5</ele></trkpt>
      <trkpt lat="44.880154" lon="6.618070"><ele>1183.5</ele></trkpt>
      <trkpt lat="44.880072" lon="6.617956"><ele>1183.0</ele></trkpt>
      <trkpt lat="44.880049" lon="6.617924"><ele>1183.0</ele></trkpt>
      <trkpt lat="44.879917" lon="6.617743"><ele>1182.0</ele></trkpt>
      <trkpt lat="44.879808" lon="6.617612"><ele>1181.0</ele></trkpt>
      <trkpt lat="44.879732" lon="6.617532"><ele>1180.0</ele></trkpt>
      <trkpt lat="44.879662" lon="6.617463"><ele>1180.0</ele></trkpt>
      <trkpt lat="44.879492" lon="6.617294"><ele>1180.0</ele></trkpt>
      <trkpt lat="44.879010" lon="6.616833"><ele>1181.5</ele></trkpt>
      <trkpt lat="44.878710" lon="6.616550"><ele>1183.2</ele></trkpt>
      <trkpt lat="44.878072" lon="6.615934"><ele>1184.5</ele></trkpt>
      <trkpt lat="44.878014" lon="6.615880"><ele>1184.5</ele></trkpt>
      <trkpt lat="44.877968" lon="6.615835"><ele>1184.5</ele></trkpt>
      <trkpt lat="44.877940" lon="6.615810"><ele>1184.8</ele></trkpt>
      <trkpt lat="44.877883" lon="6.615755"><ele>1184.8</ele></trkpt>
      <trkpt lat="44.877784" lon="6.615660"><ele>1185.2</ele></trkpt>
      <trkpt lat="44.877683" lon="6.615563"><ele>1185.2</ele></trkpt>
      <trkpt lat="44.877209" lon="6.615095"><ele>1185.0</ele></trkpt>
      <trkpt lat="44.877176" lon="6.615062"><ele>1185.0</ele></trkpt>
      <trkpt lat="44.876991" lon="6.614879"><ele>1185.0</ele></trkpt>
      <trkpt lat="44.876972" lon="6.614862"><ele>1185.0</ele></trkpt>
      <trkpt lat="44.876873" lon="6.614768"><ele>1185.0</ele></trkpt>
      <trkpt lat="44.876782" lon="6.614683"><ele>1185.0</ele></trkpt>
      <trkpt lat="44.876347" lon="6.614264"><ele>1184.2</ele></trkpt>
      <trkpt lat="44.876272" lon="6.614193"><ele>1184.0</ele></trkpt>
      <trkpt lat="44.876199" lon="6.614130"><ele>1183.8</ele></trkpt>
      <trkpt lat="44.876098" lon="6.614044"><ele>1183.2</ele></trkpt>
      <trkpt lat="44.875922" lon="6.613883"><ele>1182.5</ele></trkpt>
      <trkpt lat="44.875909" lon="6.613870"><ele>1182.5</ele></trkpt>
      <trkpt lat="44.875901" lon="6.613861"><ele>1182.5</ele></trkpt>
      <trkpt lat="44.875855" lon="6.613814"><ele>1182.2</ele></trkpt>
      <trkpt lat="44.875735" lon="6.613685"><ele>1181.8</ele></trkpt>
      <trkpt lat="44.875609" lon="6.613537"><ele>1181.5</ele></trkpt>
      <trkpt lat="44.875455" lon="6.613348"><ele>1181.0</ele></trkpt>
      <trkpt lat="44.875356" lon="6.613227"><ele>1180.8</ele></trkpt>
      <trkpt lat="44.875212" lon="6.613073"><ele>1180.2</ele></trkpt>
      <trkpt lat="44.875032" lon="6.612915"><ele>1179.5</ele></trkpt>
      <trkpt lat="44.874987" lon="6.612876"><ele>1179.5</ele></trkpt>
      <trkpt lat="44.874859" lon="6.612764"><ele>1178.5</ele></trkpt>
      <trkpt lat="44.874615" lon="6.612496"><ele>1176.8</ele></trkpt>
      <trkpt lat="44.874448" lon="6.612298"><ele>1175.8</ele></trkpt>
      <trkpt lat="44.874420" lon="6.612265"><ele>1175.5</ele></trkpt>
      <trkpt lat="44.874113" lon="6.611893"><ele>1173.8</ele></trkpt>
      <trkpt lat="44.874040" lon="6.611803"><ele>1173.5</ele></trkpt>
      <trkpt lat="44.873955" lon="6.611671"><ele>1173.2</ele></trkpt>
      <trkpt lat="44.873844" lon="6.611510"><ele>1172.5</ele></trkpt>
      <trkpt lat="44.873609" lon="6.611115"><ele>1171.8</ele></trkpt>
      <trkpt lat="44.873154" lon="6.610289"><ele>1171.2</ele></trkpt>
      <trkpt lat="44.872579" lon="6.609289"><ele>1171.0</ele></trkpt>
      <trkpt lat="44.872525" lon="6.609228"><ele>1171.0</ele></trkpt>
      <trkpt lat="44.872483" lon="6.609197"><ele>1171.0</ele></trkpt>
      <trkpt lat="44.872436" lon="6.609189"><ele>1171.0</ele></trkpt>
      <trkpt lat="44.872392" lon="6.609196"><ele>1171.0</ele></trkpt>
      <trkpt lat="44.872271" lon="6.609235"><ele>1171.0</ele></trkpt>
      <trkpt lat="44.872175" lon="6.609284"><ele>1171.0</ele></trkpt>
      <trkpt lat="44.872155" lon="6.609293"><ele>1171.0</ele></trkpt>
      <trkpt lat="44.872038" lon="6.608894"><ele>1171.0</ele></trkpt>
      <trkpt lat="44.871867" lon="6.608355"><ele>1170.5</ele></trkpt>
      <trkpt lat="44.871678" lon="6.607821"><ele>1170.0</ele></trkpt>
      <trkpt lat="44.871576" lon="6.607563"><ele>1169.0</ele></trkpt>
      <trkpt lat="44.871458" lon="6.607297"><ele>1169.0</ele></trkpt>
      <trkpt lat="44.871209" lon="6.606797"><ele>1169.0</ele></trkpt>
      <trkpt lat="44.870947" lon="6.606314"><ele>1168.2</ele></trkpt>
      <trkpt lat="44.870319" lon="6.605230"><ele>1168.0</ele></trkpt>
      <trkpt lat="44.869361" lon="6.603375"><ele>1171.5</ele></trkpt>
      <trkpt lat="44.869160" lon="6.603032"><ele>1172.0</ele></trkpt>
      <trkpt lat="44.868990" lon="6.602760"><ele>1172.8</ele></trkpt>
      <trkpt lat="44.868745" lon="6.602420"><ele>1173.5</ele></trkpt>
      <trkpt lat="44.868594" lon="6.602228"><ele>1172.8</ele></trkpt>
      <trkpt lat="44.868348" lon="6.601946"><ele>1173.0</ele></trkpt>
      <trkpt lat="44.868119" lon="6.601709"><ele>1173.0</ele></trkpt>
      <trkpt lat="44.868039" lon="6.601637"><ele>1173.0</ele></trkpt>
      <trkpt lat="44.867923" lon="6.601543"><ele>1173.5</ele></trkpt>
      <trkpt lat="44.867481" lon="6.601186"><ele>1173.5</ele></trkpt>
      <trkpt lat="44.867100" lon="6.600907"><ele>1173.8</ele></trkpt>
      <trkpt lat="44.866637" lon="6.600588"><ele>1174.5</ele></trkpt>
      <trkpt lat="44.866366" lon="6.600428"><ele>1174.8</ele></trkpt>
      <trkpt lat="44.865813" lon="6.600022"><ele>1175.8</ele></trkpt>
      <trkpt lat="44.865581" lon="6.599820"><ele>1176.2</ele></trkpt>
      <trkpt lat="44.865239" lon="6.599486"><ele>1177.2</ele></trkpt>
      <trkpt lat="44.864936" lon="6.599131"><ele>1177.5</ele></trkpt>
      <trkpt lat="44.864763" lon="6.598898"><ele>1178.0</ele></trkpt>
      <trkpt lat="44.864674" lon="6.598749"><ele>1178.0</ele></trkpt>
      <trkpt lat="44.864620" lon="6.598660"><ele>1178.0</ele></trkpt>
      <trkpt lat="44.864568" lon="6.598575"><ele>1178.0</ele></trkpt>
      <trkpt lat="44.864237" lon="6.597968"><ele>1176.5</ele></trkpt>
      <trkpt lat="44.864191" lon="6.597846"><ele>1176.0</ele></trkpt>
      <trkpt lat="44.864084" lon="6.597605"><ele>1176.0</ele></trkpt>
      <trkpt lat="44.863884" lon="6.597171"><ele>1176.0</ele></trkpt>
      <trkpt lat="44.863734" lon="6.596862"><ele>1175.2</ele></trkpt>
      <trkpt lat="44.863481" lon="6.596368"><ele>1173.0</ele></trkpt>
      <trkpt lat="44.863277" lon="6.595977"><ele>1171.8</ele></trkpt>
      <trkpt lat="44.862886" lon="6.595252"><ele>1169.0</ele></trkpt>
      <trkpt lat="44.862681" lon="6.594914"><ele>1166.8</ele></trkpt>
      <trkpt lat="44.862375" lon="6.594325"><ele>1164.5</ele></trkpt>
      <trkpt lat="44.861939" lon="6.593480"><ele>1159.2</ele></trkpt>
      <trkpt lat="44.860761" lon="6.591147"><ele>1153.8</ele></trkpt>
      <trkpt lat="44.860623" lon="6.590884"><ele>1154.0</ele></trkpt>
      <trkpt lat="44.860472" lon="6.590637"><ele>1153.2</ele></trkpt>
      <trkpt lat="44.860358" lon="6.590472"><ele>1152.5</ele></trkpt>
      <trkpt lat="44.860210" lon="6.590291"><ele>1152.0</ele></trkpt>
      <trkpt lat="44.859481" lon="6.589495"><ele>1151.0</ele></trkpt>
      <trkpt lat="44.859420" lon="6.589427"><ele>1151.0</ele></trkpt>
      <trkpt lat="44.859003" lon="6.588977"><ele>1151.2</ele></trkpt>
      <trkpt lat="44.858724" lon="6.588672"><ele>1151.5</ele></trkpt>
      <trkpt lat="44.857825" lon="6.587700"><ele>1151.2</ele></trkpt>
      <trkpt lat="44.857567" lon="6.587421"><ele>1153.8</ele></trkpt>
      <trkpt lat="44.857520" lon="6.587371"><ele>1154.2</ele></trkpt>
      <trkpt lat="44.854864" lon="6.584503"><ele>1164.8</ele></trkpt>
      <trkpt lat="44.854740" lon="6.584366"><ele>1165.5</ele></trkpt>
      <trkpt lat="44.854452" lon="6.584098"><ele>1166.8</ele></trkpt>
      <trkpt lat="44.854266" lon="6.583872"><ele>1168.2</ele></trkpt>
      <trkpt lat="44.854148" lon="6.583735"><ele>1168.8</ele></trkpt>
      <trkpt lat="44.854065" lon="6.583644"><ele>1168.5</ele></trkpt>
      <trkpt lat="44.853993" lon="6.583568"><ele>1168.2</ele></trkpt>
      <trkpt lat="44.853916" lon="6.583486"><ele>1168.5</ele></trkpt>
      <trkpt lat="44.853899" lon="6.583468"><ele>1168.5</ele></trkpt>
      <trkpt lat="44.853878" lon="6.583447"><ele>1168.5</ele></trkpt>
      <trkpt lat="44.853636" lon="6.583181"><ele>1167.8</ele></trkpt>
      <trkpt lat="44.853572" lon="6.583113"><ele>1167.5</ele></trkpt>
      <trkpt lat="44.853501" lon="6.583040"><ele>1167.0</ele></trkpt>
      <trkpt lat="44.853397" lon="6.582932"><ele>1166.5</ele></trkpt>
      <trkpt lat="44.853318" lon="6.582850"><ele>1166.5</ele></trkpt>
      <trkpt lat="44.852992" lon="6.582544"><ele>1165.2</ele></trkpt>
      <trkpt lat="44.852807" lon="6.582408"><ele>1164.5</ele></trkpt>
      <trkpt lat="44.852608" lon="6.582276"><ele>1164.0</ele></trkpt>
      <trkpt lat="44.852427" lon="6.582170"><ele>1163.2</ele></trkpt>
      <trkpt lat="44.852321" lon="6.582114"><ele>1162.5</ele></trkpt>
      <trkpt lat="44.852126" lon="6.582024"><ele>1160.8</ele></trkpt>
      <trkpt lat="44.852025" lon="6.581991"><ele>1160.0</ele></trkpt>
      <trkpt lat="44.851933" lon="6.581965"><ele>1159.2</ele></trkpt>
      <trkpt lat="44.851810" lon="6.581957"><ele>1158.5</ele></trkpt>
      <trkpt lat="44.851806" lon="6.581890"><ele>1159.2</ele></trkpt>
      <trkpt lat="44.851793" lon="6.581808"><ele>1160.0</ele></trkpt>
      <trkpt lat="44.851759" lon="6.581709"><ele>1160.5</ele></trkpt>
      <trkpt lat="44.851719" lon="6.581637"><ele>1160.5</ele></trkpt>
      <trkpt lat="44.851699" lon="6.581601"><ele>1160.5</ele></trkpt>
      <trkpt lat="44.851485" lon="6.581216"><ele>1158.8</ele></trkpt>
      <trkpt lat="44.851408" lon="6.581071"><ele>1158.0</ele></trkpt>
      <trkpt lat="44.851382" lon="6.581029"><ele>1157.8</ele></trkpt>
      <trkpt lat="44.851278" lon="6.580848"><ele>1156.8</ele></trkpt>
      <trkpt lat="44.851210" lon="6.580734"><ele>1156.2</ele></trkpt>
      <trkpt lat="44.851033" lon="6.580413"><ele>1156.0</ele></trkpt>
      <trkpt lat="44.850954" lon="6.580292"><ele>1156.0</ele></trkpt>
      <trkpt lat="44.850850" lon="6.580164"><ele>1156.2</ele></trkpt>
      <trkpt lat="44.850421" lon="6.579898"><ele>1157.0</ele></trkpt>
      <trkpt lat="44.850115" lon="6.579728"><ele>1157.0</ele></trkpt>
      <trkpt lat="44.850058" lon="6.579672"><ele>1157.2</ele></trkpt>
      <trkpt lat="44.850019" lon="6.579596"><ele>1158.0</ele></trkpt>
      <trkpt lat="44.849942" lon="6.579354"><ele>1160.5</ele></trkpt>
      <trkpt lat="44.849895" lon="6.579267"><ele>1161.0</ele></trkpt>
      <trkpt lat="44.849830" lon="6.579189"><ele>1160.8</ele></trkpt>
      <trkpt lat="44.849368" lon="6.578858"><ele>1159.8</ele></trkpt>
      <trkpt lat="44.848663" lon="6.578490"><ele>1159.8</ele></trkpt>
      <trkpt lat="44.848559" lon="6.578403"><ele>1160.8</ele></trkpt>
      <trkpt lat="44.848326" lon="6.578241"><ele>1161.0</ele></trkpt>
      <trkpt lat="44.848233" lon="6.578199"><ele>1161.8</ele></trkpt>
      <trkpt lat="44.847773" lon="6.578111"><ele>1162.0</ele></trkpt>
      <trkpt lat="44.847656" lon="6.578079"><ele>1162.2</ele></trkpt>
      <trkpt lat="44.847571" lon="6.578040"><ele>1162.5</ele></trkpt>
      <trkpt lat="44.847496" lon="6.577963"><ele>1162.8</ele></trkpt>
      <trkpt lat="44.847425" lon="6.577862"><ele>1163.2</ele></trkpt>
      <trkpt lat="44.847383" lon="6.577780"><ele>1163.5</ele></trkpt>
      <trkpt lat="44.847310" lon="6.577640"><ele>1165.0</ele></trkpt>
      <trkpt lat="44.847162" lon="6.577427"><ele>1168.2</ele></trkpt>
      <trkpt lat="44.847099" lon="6.577364"><ele>1169.5</ele></trkpt>
      <trkpt lat="44.846985" lon="6.577301"><ele>1171.0</ele></trkpt>
      <trkpt lat="44.846878" lon="6.577276"><ele>1171.8</ele></trkpt>
      <trkpt lat="44.846670" lon="6.577267"><ele>1172.5</ele></trkpt>
      <trkpt lat="44.846086" lon="6.577316"><ele>1175.0</ele></trkpt>
      <trkpt lat="44.845696" lon="6.577333"><ele>1177.5</ele></trkpt>
      <trkpt lat="44.845041" lon="6.577386"><ele>1181.8</ele></trkpt>
      <trkpt lat="44.844663" lon="6.577441"><ele>1182.5</ele></trkpt>
      <trkpt lat="44.844548" lon="6.577437"><ele>1183.5</ele></trkpt>
      <trkpt lat="44.844248" lon="6.577342"><ele>1189.5</ele></trkpt>
      <trkpt lat="44.843967" lon="6.577270"><ele>1194.5</ele></trkpt>
      <trkpt lat="44.843657" lon="6.577219"><ele>1198.8</ele></trkpt>
      <trkpt lat="44.843569" lon="6.577224"><ele>1199.0</ele></trkpt>
      <trkpt lat="44.843500" lon="6.577253"><ele>1198.0</ele></trkpt>
      <trkpt lat="44.843410" lon="6.577307"><ele>1196.5</ele></trkpt>
      <trkpt lat="44.843334" lon="6.577332"><ele>1196.0</ele></trkpt>
      <trkpt lat="44.843226" lon="6.577323"><ele>1196.5</ele></trkpt>
      <trkpt lat="44.843146" lon="6.577275"><ele>1198.2</ele></trkpt>
      <trkpt lat="44.843022" lon="6.577142"><ele>1202.5</ele></trkpt>
      <trkpt lat="44.842934" lon="6.577066"><ele>1205.2</ele></trkpt>
      <trkpt lat="44.842845" lon="6.577040"><ele>1206.5</ele></trkpt>
      <trkpt lat="44.842756" lon="6.577047"><ele>1206.8</ele></trkpt>
      <trkpt lat="44.842382" lon="6.577192"><ele>1207.5</ele></trkpt>
      <trkpt lat="44.842289" lon="6.577211"><ele>1208.2</ele></trkpt>
      <trkpt lat="44.842190" lon="6.577207"><ele>1209.5</ele></trkpt>
      <trkpt lat="44.841923" lon="6.577160"><ele>1212.8</ele></trkpt>
      <trkpt lat="44.841828" lon="6.577164"><ele>1213.8</ele></trkpt>
      <trkpt lat="44.841755" lon="6.577178"><ele>1214.0</ele></trkpt>
      <trkpt lat="44.841696" lon="6.577219"><ele>1213.8</ele></trkpt>
      <trkpt lat="44.841648" lon="6.577282"><ele>1213.8</ele></trkpt>
      <trkpt lat="44.841516" lon="6.577566"><ele>1212.5</ele></trkpt>
      <trkpt lat="44.841463" lon="6.577627"><ele>1211.8</ele></trkpt>
      <trkpt lat="44.841394" lon="6.577657"><ele>1212.2</ele></trkpt>
      <trkpt lat="44.841312" lon="6.577670"><ele>1212.8</ele></trkpt>
      <trkpt lat="44.841147" lon="6.577671"><ele>1214.8</ele></trkpt>
      <trkpt lat="44.840978" lon="6.577656"><ele>1215.8</ele></trkpt>
      <trkpt lat="44.840772" lon="6.577589"><ele>1217.0</ele></trkpt>
      <trkpt lat="44.840638" lon="6.577511"><ele>1217.5</ele></trkpt>
      <trkpt lat="44.840538" lon="6.577436"><ele>1217.2</ele></trkpt>
      <trkpt lat="44.840460" lon="6.577313"><ele>1218.0</ele></trkpt>
      <trkpt lat="44.840266" lon="6.576957"><ele>1220.8</ele></trkpt>
      <trkpt lat="44.840189" lon="6.576846"><ele>1222.2</ele></trkpt>
      <trkpt lat="44.840057" lon="6.576736"><ele>1224.0</ele></trkpt>
      <trkpt lat="44.839996" lon="6.576712"><ele>1224.2</ele></trkpt>
      <trkpt lat="44.839917" lon="6.576700"><ele>1225.0</ele></trkpt>
      <trkpt lat="44.839822" lon="6.576714"><ele>1225.2</ele></trkpt>
      <trkpt lat="44.839231" lon="6.576896"><ele>1225.5</ele></trkpt>
      <trkpt lat="44.839083" lon="6.576923"><ele>1225.2</ele></trkpt>
      <trkpt lat="44.838997" lon="6.576913"><ele>1225.5</ele></trkpt>
      <trkpt lat="44.838579" lon="6.576833"><ele>1227.2</ele></trkpt>
      <trkpt lat="44.838485" lon="6.576805"><ele>1226.5</ele></trkpt>
      <trkpt lat="44.838391" lon="6.576760"><ele>1226.8</ele></trkpt>
      <trkpt lat="44.838291" lon="6.576693"><ele>1227.5</ele></trkpt>
      <trkpt lat="44.838166" lon="6.576559"><ele>1228.0</ele></trkpt>
      <trkpt lat="44.838051" lon="6.576412"><ele>1230.0</ele></trkpt>
      <trkpt lat="44.837995" lon="6.576325"><ele>1230.5</ele></trkpt>
      <trkpt lat="44.837898" lon="6.576090"><ele>1234.2</ele></trkpt>
      <trkpt lat="44.837856" lon="6.576024"><ele>1236.0</ele></trkpt>
      <trkpt lat="44.837807" lon="6.575992"><ele>1236.5</ele></trkpt>
      <trkpt lat="44.837750" lon="6.575983"><ele>1236.8</ele></trkpt>
      <trkpt lat="44.837682" lon="6.575994"><ele>1237.0</ele></trkpt>
      <trkpt lat="44.837403" lon="6.576102"><ele>1234.5</ele></trkpt>
      <trkpt lat="44.837099" lon="6.576157"><ele>1235.5</ele></trkpt>
      <trkpt lat="44.836954" lon="6.576157"><ele>1236.2</ele></trkpt>
      <trkpt lat="44.836813" lon="6.576141"><ele>1235.0</ele></trkpt>
      <trkpt lat="44.836686" lon="6.576063"><ele>1236.8</ele></trkpt>
      <trkpt lat="44.836532" lon="6.575941"><ele>1240.8</ele></trkpt>
      <trkpt lat="44.836357" lon="6.575905"><ele>1241.0</ele></trkpt>
      <trkpt lat="44.836127" lon="6.575911"><ele>1241.5</ele></trkpt>
      <trkpt lat="44.835971" lon="6.575926"><ele>1243.5</ele></trkpt>
      <trkpt lat="44.835722" lon="6.575967"><ele>1245.0</ele></trkpt>
      <trkpt lat="44.835448" lon="6.576000"><ele>1246.0</ele></trkpt>
      <trkpt lat="44.835333" lon="6.575999"><ele>1246.8</ele></trkpt>
      <trkpt lat="44.835208" lon="6.575980"><ele>1247.2</ele></trkpt>
      <trkpt lat="44.835090" lon="6.575944"><ele>1247.2</ele></trkpt>
      <trkpt lat="44.834996" lon="6.575876"><ele>1248.8</ele></trkpt>
      <trkpt lat="44.834924" lon="6.575765"><ele>1249.0</ele></trkpt>
      <trkpt lat="44.834844" lon="6.575556"><ele>1251.2</ele></trkpt>
      <trkpt lat="44.834726" lon="6.575299"><ele>1250.5</ele></trkpt>
      <trkpt lat="44.834620" lon="6.575136"><ele>1251.0</ele></trkpt>
      <trkpt lat="44.834433" lon="6.574973"><ele>1249.8</ele></trkpt>
      <trkpt lat="44.834278" lon="6.574887"><ele>1250.5</ele></trkpt>
      <trkpt lat="44.833837" lon="6.574756"><ele>1249.2</ele></trkpt>
      <trkpt lat="44.833677" lon="6.574674"><ele>1251.0</ele></trkpt>
      <trkpt lat="44.833528" lon="6.574584"><ele>1253.0</ele></trkpt>
      <trkpt lat="44.833383" lon="6.574545"><ele>1252.2</ele></trkpt>
      <trkpt lat="44.832454" lon="6.574348"><ele>1251.8</ele></trkpt>
      <trkpt lat="44.832123" lon="6.574218"><ele>1252.8</ele></trkpt>
      <trkpt lat="44.831622" lon="6.574096"><ele>1249.8</ele></trkpt>
      <trkpt lat="44.831484" lon="6.574026"><ele>1250.0</ele></trkpt>
      <trkpt lat="44.831372" lon="6.573944"><ele>1250.5</ele></trkpt>
      <trkpt lat="44.831151" lon="6.573728"><ele>1249.8</ele></trkpt>
      <trkpt lat="44.831081" lon="6.573618"><ele>1249.5</ele></trkpt>
      <trkpt lat="44.830876" lon="6.573170"><ele>1253.5</ele></trkpt>
      <trkpt lat="44.830825" lon="6.573097"><ele>1252.8</ele></trkpt>
      <trkpt lat="44.830756" lon="6.573019"><ele>1253.8</ele></trkpt>
      <trkpt lat="44.830673" lon="6.572963"><ele>1253.2</ele></trkpt>
      <trkpt lat="44.830463" lon="6.572865"><ele>1248.5</ele></trkpt>
      <trkpt lat="44.830377" lon="6.572797"><ele>1247.8</ele></trkpt>
      <trkpt lat="44.830137" lon="6.572412"><ele>1250.5</ele></trkpt>
      <trkpt lat="44.830072" lon="6.572340"><ele>1250.0</ele></trkpt>
      <trkpt lat="44.829998" lon="6.572295"><ele>1247.8</ele></trkpt>
      <trkpt lat="44.829859" lon="6.572230"><ele>1245.5</ele></trkpt>
      <trkpt lat="44.829748" lon="6.572134"><ele>1247.0</ele></trkpt>
      <trkpt lat="44.829656" lon="6.572029"><ele>1247.2</ele></trkpt>
      <trkpt lat="44.829387" lon="6.571595"><ele>1252.5</ele></trkpt>
      <trkpt lat="44.829316" lon="6.571531"><ele>1253.2</ele></trkpt>
      <trkpt lat="44.829232" lon="6.571483"><ele>1252.2</ele></trkpt>
      <trkpt lat="44.828952" lon="6.571390"><ele>1251.8</ele></trkpt>
      <trkpt lat="44.828873" lon="6.571371"><ele>1252.0</ele></trkpt>
      <trkpt lat="44.828807" lon="6.571388"><ele>1251.0</ele></trkpt>
      <trkpt lat="44.828704" lon="6.571441"><ele>1248.5</ele></trkpt>
      <trkpt lat="44.828605" lon="6.571460"><ele>1248.0</ele></trkpt>
      <trkpt lat="44.828520" lon="6.571440"><ele>1247.5</ele></trkpt>
      <trkpt lat="44.828424" lon="6.571404"><ele>1247.5</ele></trkpt>
      <trkpt lat="44.828061" lon="6.571225"><ele>1246.8</ele></trkpt>
      <trkpt lat="44.828043" lon="6.571157"><ele>1248.5</ele></trkpt>
      <trkpt lat="44.828017" lon="6.571137"><ele>1248.8</ele></trkpt>
      <trkpt lat="44.827702" lon="6.571064"><ele>1247.5</ele></trkpt>
      <trkpt lat="44.827624" lon="6.571033"><ele>1247.8</ele></trkpt>
      <trkpt lat="44.827558" lon="6.570983"><ele>1248.2</ele></trkpt>
      <trkpt lat="44.827518" lon="6.570943"><ele>1248.8</ele></trkpt>
      <trkpt lat="44.827489" lon="6.570868"><ele>1249.8</ele></trkpt>
      <trkpt lat="44.827483" lon="6.570801"><ele>1250.8</ele></trkpt>
      <trkpt lat="44.827480" lon="6.570771"><ele>1251.0</ele></trkpt>
      <trkpt lat="44.827500" lon="6.570544"><ele>1254.0</ele></trkpt>
      <trkpt lat="44.827503" lon="6.570393"><ele>1255.2</ele></trkpt>
      <trkpt lat="44.827522" lon="6.570269"><ele>1256.5</ele></trkpt>
      <trkpt lat="44.827725" lon="6.569724"><ele>1263.8</ele></trkpt>
      <trkpt lat="44.827726" lon="6.569657"><ele>1265.0</ele></trkpt>
      <trkpt lat="44.827630" lon="6.569345"><ele>1266.8</ele></trkpt>
      <trkpt lat="44.827589" lon="6.569189"><ele>1268.2</ele></trkpt>
      <trkpt lat="44.827510" lon="6.568891"><ele>1269.2</ele></trkpt>
      <trkpt lat="44.827444" lon="6.568639"><ele>1273.0</ele></trkpt>
      <trkpt lat="44.827308" lon="6.568211"><ele>1278.5</ele></trkpt>
      <trkpt lat="44.827249" lon="6.568062"><ele>1279.8</ele></trkpt>
      <trkpt lat="44.827141" lon="6.567861"><ele>1281.2</ele></trkpt>
      <trkpt lat="44.827047" lon="6.567705"><ele>1282.8</ele></trkpt>
      <trkpt lat="44.826898" lon="6.567497"><ele>1284.8</ele></trkpt>
      <trkpt lat="44.826807" lon="6.567394"><ele>1286.5</ele></trkpt>
      <trkpt lat="44.826540" lon="6.567157"><ele>1289.8</ele></trkpt>
      <trkpt lat="44.826451" lon="6.567113"><ele>1289.5</ele></trkpt>
      <trkpt lat="44.826240" lon="6.567056"><ele>1288.0</ele></trkpt>
      <trkpt lat="44.826142" lon="6.566993"><ele>1289.2</ele></trkpt>
      <trkpt lat="44.825898" lon="6.566775"><ele>1296.2</ele></trkpt>
      <trkpt lat="44.825846" lon="6.566746"><ele>1297.0</ele></trkpt>
      <trkpt lat="44.825778" lon="6.566724"><ele>1296.8</ele></trkpt>
      <trkpt lat="44.825846" lon="6.566746"><ele>1297.0</ele></trkpt>
      <trkpt lat="44.825898" lon="6.566775"><ele>1296.2</ele></trkpt>
      <trkpt lat="44.826142" lon="6.566993"><ele>1289.2</ele></trkpt>
      <trkpt lat="44.826240" lon="6.567056"><ele>1288.0</ele></trkpt>
      <trkpt lat="44.826451" lon="6.567113"><ele>1289.5</ele></trkpt>
      <trkpt lat="44.826540" lon="6.567157"><ele>1289.8</ele></trkpt>
      <trkpt lat="44.826807" lon="6.567394"><ele>1286.5</ele></trkpt>
      <trkpt lat="44.826898" lon="6.567497"><ele>1284.8</ele></trkpt>
      <trkpt lat="44.827047" lon="6.567705"><ele>1282.8</ele></trkpt>
      <trkpt lat="44.827141" lon="6.567861"><ele>1281.2</ele></trkpt>
      <trkpt lat="44.827249" lon="6.568062"><ele>1279.8</ele></trkpt>
      <trkpt lat="44.827308" lon="6.568211"><ele>1278.5</ele></trkpt>
      <trkpt lat="44.827444" lon="6.568639"><ele>1273.0</ele></trkpt>
      <trkpt lat="44.827510" lon="6.568891"><ele>1269.2</ele></trkpt>
      <trkpt lat="44.827589" lon="6.569189"><ele>1268.2</ele></trkpt>
      <trkpt lat="44.827630" lon="6.569345"><ele>1266.8</ele></trkpt>
      <trkpt lat="44.827726" lon="6.569657"><ele>1265.0</ele></trkpt>
      <trkpt lat="44.827725" lon="6.569724"><ele>1263.8</ele></trkpt>
      <trkpt lat="44.827522" lon="6.570269"><ele>1256.5</ele></trkpt>
      <trkpt lat="44.827503" lon="6.570393"><ele>1255.2</ele></trkpt>
      <trkpt lat="44.827500" lon="6.570544"><ele>1254.0</ele></trkpt>
      <trkpt lat="44.827480" lon="6.570771"><ele>1251.0</ele></trkpt>
      <trkpt lat="44.827483" lon="6.570801"><ele>1250.8</ele></trkpt>
      <trkpt lat="44.827489" lon="6.570868"><ele>1249.8</ele></trkpt>
      <trkpt lat="44.827518" lon="6.570943"><ele>1248.8</ele></trkpt>
      <trkpt lat="44.827558" lon="6.570983"><ele>1248.2</ele></trkpt>
      <trkpt lat="44.827624" lon="6.571033"><ele>1247.8</ele></trkpt>
      <trkpt lat="44.827702" lon="6.571064"><ele>1247.5</ele></trkpt>
      <trkpt lat="44.828017" lon="6.571137"><ele>1248.8</ele></trkpt>
      <trkpt lat="44.828043" lon="6.571157"><ele>1248.5</ele></trkpt>
      <trkpt lat="44.828061" lon="6.571225"><ele>1246.8</ele></trkpt>
      <trkpt lat="44.827958" lon="6.571203"><ele>1246.0</ele></trkpt>
      <trkpt lat="44.827499" lon="6.571141"><ele>1243.5</ele></trkpt>
      <trkpt lat="44.827413" lon="6.571114"><ele>1242.5</ele></trkpt>
      <trkpt lat="44.827321" lon="6.571046"><ele>1241.8</ele></trkpt>
      <trkpt lat="44.827251" lon="6.570964"><ele>1241.8</ele></trkpt>
      <trkpt lat="44.827189" lon="6.570853"><ele>1241.8</ele></trkpt>
      <trkpt lat="44.827155" lon="6.570766"><ele>1240.5</ele></trkpt>
      <trkpt lat="44.827143" lon="6.570681"><ele>1239.8</ele></trkpt>
      <trkpt lat="44.827147" lon="6.570556"><ele>1240.0</ele></trkpt>
      <trkpt lat="44.827207" lon="6.570035"><ele>1242.2</ele></trkpt>
      <trkpt lat="44.827215" lon="6.569896"><ele>1243.2</ele></trkpt>
      <trkpt lat="44.827209" lon="6.569784"><ele>1244.0</ele></trkpt>
      <trkpt lat="44.827191" lon="6.569666"><ele>1245.0</ele></trkpt>
      <trkpt lat="44.827161" lon="6.569574"><ele>1246.2</ele></trkpt>
      <trkpt lat="44.827118" lon="6.569509"><ele>1246.8</ele></trkpt>
      <trkpt lat="44.827042" lon="6.569461"><ele>1246.0</ele></trkpt>
      <trkpt lat="44.826943" lon="6.569450"><ele>1243.8</ele></trkpt>
      <trkpt lat="44.826732" lon="6.569468"><ele>1237.8</ele></trkpt>
      <trkpt lat="44.826611" lon="6.569485"><ele>1234.8</ele></trkpt>
      <trkpt lat="44.826516" lon="6.569508"><ele>1232.5</ele></trkpt>
      <trkpt lat="44.826416" lon="6.569517"><ele>1231.0</ele></trkpt>
      <trkpt lat="44.826325" lon="6.569494"><ele>1230.0</ele></trkpt>
      <trkpt lat="44.826201" lon="6.569439"><ele>1228.5</ele></trkpt>
      <trkpt lat="44.826080" lon="6.569363"><ele>1227.0</ele></trkpt>
      <trkpt lat="44.825093" lon="6.568616"><ele>1219.2</ele></trkpt>
      <trkpt lat="44.824951" lon="6.568533"><ele>1217.8</ele></trkpt>
      <trkpt lat="44.824915" lon="6.568514"><ele>1217.5</ele></trkpt>
      <trkpt lat="44.824737" lon="6.568429"><ele>1216.0</ele></trkpt>
      <trkpt lat="44.824679" lon="6.568411"><ele>1215.5</ele></trkpt>
      <trkpt lat="44.824557" lon="6.568377"><ele>1214.5</ele></trkpt>
      <trkpt lat="44.824421" lon="6.568351"><ele>1213.2</ele></trkpt>
      <trkpt lat="44.823976" lon="6.568281"><ele>1208.5</ele></trkpt>
      <trkpt lat="44.823652" lon="6.568258"><ele>1207.0</ele></trkpt>
      <trkpt lat="44.823084" lon="6.568284"><ele>1204.8</ele></trkpt>
      <trkpt lat="44.823030" lon="6.568293"><ele>1204.8</ele></trkpt>
      <trkpt lat="44.822918" lon="6.568342"><ele>1204.2</ele></trkpt>
      <trkpt lat="44.822863" lon="6.568379"><ele>1203.8</ele></trkpt>
      <trkpt lat="44.822758" lon="6.568453"><ele>1202.8</ele></trkpt>
      <trkpt lat="44.822262" lon="6.568799"><ele>1199.0</ele></trkpt>
      <trkpt lat="44.821731" lon="6.569178"><ele>1194.8</ele></trkpt>
      <trkpt lat="44.821525" lon="6.569281"><ele>1192.8</ele></trkpt>
      <trkpt lat="44.821400" lon="6.569320"><ele>1191.8</ele></trkpt>
      <trkpt lat="44.821255" lon="6.569340"><ele>1191.8</ele></trkpt>
      <trkpt lat="44.820886" lon="6.569357"><ele>1191.0</ele></trkpt>
      <trkpt lat="44.820830" lon="6.569357"><ele>1190.8</ele></trkpt>
      <trkpt lat="44.820603" lon="6.569331"><ele>1189.8</ele></trkpt>
      <trkpt lat="44.819939" lon="6.569126"><ele>1190.0</ele></trkpt>
      <trkpt lat="44.819802" lon="6.569095"><ele>1189.8</ele></trkpt>
      <trkpt lat="44.819657" lon="6.569084"><ele>1188.8</ele></trkpt>
      <trkpt lat="44.819515" lon="6.569037"><ele>1188.0</ele></trkpt>
      <trkpt lat="44.819390" lon="6.568975"><ele>1187.2</ele></trkpt>
      <trkpt lat="44.819216" lon="6.568912"><ele>1186.5</ele></trkpt>
      <trkpt lat="44.819070" lon="6.568892"><ele>1186.5</ele></trkpt>
      <trkpt lat="44.818917" lon="6.568904"><ele>1185.5</ele></trkpt>
      <trkpt lat="44.818429" lon="6.569029"><ele>1184.0</ele></trkpt>
      <trkpt lat="44.817909" lon="6.569092"><ele>1183.0</ele></trkpt>
      <trkpt lat="44.817652" lon="6.569108"><ele>1182.2</ele></trkpt>
      <trkpt lat="44.817452" lon="6.569109"><ele>1181.2</ele></trkpt>
      <trkpt lat="44.817109" lon="6.569083"><ele>1179.0</ele></trkpt>
      <trkpt lat="44.817005" lon="6.569094"><ele>1178.0</ele></trkpt>
      <trkpt lat="44.816760" lon="6.569178"><ele>1174.5</ele></trkpt>
      <trkpt lat="44.816652" lon="6.569202"><ele>1174.0</ele></trkpt>
      <trkpt lat="44.816477" lon="6.569215"><ele>1172.5</ele></trkpt>
      <trkpt lat="44.816366" lon="6.569200"><ele>1171.2</ele></trkpt>
      <trkpt lat="44.816293" lon="6.569170"><ele>1169.2</ele></trkpt>
      <trkpt lat="44.816219" lon="6.569097"><ele>1168.2</ele></trkpt>
      <trkpt lat="44.816170" lon="6.569016"><ele>1167.8</ele></trkpt>
      <trkpt lat="44.816135" lon="6.568922"><ele>1167.8</ele></trkpt>
      <trkpt lat="44.816108" lon="6.568831"><ele>1168.5</ele></trkpt>
      <trkpt lat="44.816098" lon="6.568717"><ele>1171.2</ele></trkpt>
      <trkpt lat="44.816104" lon="6.568504"><ele>1178.2</ele></trkpt>
      <trkpt lat="44.816086" lon="6.568352"><ele>1180.8</ele></trkpt>
      <trkpt lat="44.816044" lon="6.568157"><ele>1178.0</ele></trkpt>
      <trkpt lat="44.816008" lon="6.568039"><ele>1176.2</ele></trkpt>
      <trkpt lat="44.815963" lon="6.567952"><ele>1174.8</ele></trkpt>
      <trkpt lat="44.815907" lon="6.567870"><ele>1171.0</ele></trkpt>
      <trkpt lat="44.815828" lon="6.567811"><ele>1164.2</ele></trkpt>
      <trkpt lat="44.815354" lon="6.567627"><ele>1168.8</ele></trkpt>
      <trkpt lat="44.815205" lon="6.567586"><ele>1170.8</ele></trkpt>
      <trkpt lat="44.815093" lon="6.567573"><ele>1172.8</ele></trkpt>
      <trkpt lat="44.814942" lon="6.567534"><ele>1173.8</ele></trkpt>
      <trkpt lat="44.814868" lon="6.567482"><ele>1173.2</ele></trkpt>
      <trkpt lat="44.814815" lon="6.567393"><ele>1174.0</ele></trkpt>
      <trkpt lat="44.814715" lon="6.567172"><ele>1175.0</ele></trkpt>
      <trkpt lat="44.814640" lon="6.567030"><ele>1176.5</ele></trkpt>
      <trkpt lat="44.814587" lon="6.566968"><ele>1176.8</ele></trkpt>
      <trkpt lat="44.814526" lon="6.566925"><ele>1176.5</ele></trkpt>
      <trkpt lat="44.814282" lon="6.566876"><ele>1175.0</ele></trkpt>
      <trkpt lat="44.814219" lon="6.566839"><ele>1175.2</ele></trkpt>
      <trkpt lat="44.814173" lon="6.566772"><ele>1176.0</ele></trkpt>
      <trkpt lat="44.814144" lon="6.566672"><ele>1177.2</ele></trkpt>
      <trkpt lat="44.814135" lon="6.566560"><ele>1177.5</ele></trkpt>
      <trkpt lat="44.814147" lon="6.566098"><ele>1179.2</ele></trkpt>
      <trkpt lat="44.814136" lon="6.565937"><ele>1180.2</ele></trkpt>
      <trkpt lat="44.814108" lon="6.565824"><ele>1180.5</ele></trkpt>
      <trkpt lat="44.814057" lon="6.565729"><ele>1181.2</ele></trkpt>
      <trkpt lat="44.814003" lon="6.565656"><ele>1181.8</ele></trkpt>
      <trkpt lat="44.813905" lon="6.565584"><ele>1181.5</ele></trkpt>
      <trkpt lat="44.813751" lon="6.565526"><ele>1181.8</ele></trkpt>
      <trkpt lat="44.813472" lon="6.565452"><ele>1183.0</ele></trkpt>
      <trkpt lat="44.813367" lon="6.565411"><ele>1184.0</ele></trkpt>
      <trkpt lat="44.813261" lon="6.565358"><ele>1185.0</ele></trkpt>
      <trkpt lat="44.813169" lon="6.565292"><ele>1186.2</ele></trkpt>
      <trkpt lat="44.813107" lon="6.565222"><ele>1187.0</ele></trkpt>
      <trkpt lat="44.813058" lon="6.565114"><ele>1187.2</ele></trkpt>
      <trkpt lat="44.813040" lon="6.565036"><ele>1188.0</ele></trkpt>
      <trkpt lat="44.813032" lon="6.564916"><ele>1188.5</ele></trkpt>
      <trkpt lat="44.813030" lon="6.564853"><ele>1188.5</ele></trkpt>
      <trkpt lat="44.813070" lon="6.564531"><ele>1190.0</ele></trkpt>
      <trkpt lat="44.813143" lon="6.564244"><ele>1187.8</ele></trkpt>
      <trkpt lat="44.813257" lon="6.563966"><ele>1187.5</ele></trkpt>
      <trkpt lat="44.813446" lon="6.563532"><ele>1184.2</ele></trkpt>
      <trkpt lat="44.813481" lon="6.563414"><ele>1183.2</ele></trkpt>
      <trkpt lat="44.813495" lon="6.563318"><ele>1182.2</ele></trkpt>
      <trkpt lat="44.813494" lon="6.563219"><ele>1182.2</ele></trkpt>
      <trkpt lat="44.813476" lon="6.563114"><ele>1181.5</ele></trkpt>
      <trkpt lat="44.813447" lon="6.563031"><ele>1180.8</ele></trkpt>
      <trkpt lat="44.813342" lon="6.562861"><ele>1178.5</ele></trkpt>
      <trkpt lat="44.813310" lon="6.562790"><ele>1177.8</ele></trkpt>
      <trkpt lat="44.813298" lon="6.562711"><ele>1176.8</ele></trkpt>
      <trkpt lat="44.813311" lon="6.562608"><ele>1176.0</ele></trkpt>
      <trkpt lat="44.813353" lon="6.562457"><ele>1176.0</ele></trkpt>
      <trkpt lat="44.813453" lon="6.562175"><ele>1175.0</ele></trkpt>
      <trkpt lat="44.813519" lon="6.562049"><ele>1175.2</ele></trkpt>
      <trkpt lat="44.813616" lon="6.561927"><ele>1176.5</ele></trkpt>
      <trkpt lat="44.813771" lon="6.561796"><ele>1177.2</ele></trkpt>
      <trkpt lat="44.814036" lon="6.561607"><ele>1177.0</ele></trkpt>
      <trkpt lat="44.814273" lon="6.561363"><ele>1170.2</ele></trkpt>
      <trkpt lat="44.814416" lon="6.561254"><ele>1168.2</ele></trkpt>
      <trkpt lat="44.814690" lon="6.561070"><ele>1167.0</ele></trkpt>
      <trkpt lat="44.814820" lon="6.560942"><ele>1164.8</ele></trkpt>
      <trkpt lat="44.815154" lon="6.560553"><ele>1160.8</ele></trkpt>
      <trkpt lat="44.815485" lon="6.560285"><ele>1163.5</ele></trkpt>
      <trkpt lat="44.815611" lon="6.560166"><ele>1164.2</ele></trkpt>
      <trkpt lat="44.815789" lon="6.559952"><ele>1163.5</ele></trkpt>
      <trkpt lat="44.815900" lon="6.559783"><ele>1162.2</ele></trkpt>
      <trkpt lat="44.815968" lon="6.559655"><ele>1161.8</ele></trkpt>
      <trkpt lat="44.816021" lon="6.559512"><ele>1160.8</ele></trkpt>
      <trkpt lat="44.816052" lon="6.559379"><ele>1160.0</ele></trkpt>
      <trkpt lat="44.816074" lon="6.559241"><ele>1159.5</ele></trkpt>
      <trkpt lat="44.816101" lon="6.558921"><ele>1158.8</ele></trkpt>
      <trkpt lat="44.816117" lon="6.558826"><ele>1158.2</ele></trkpt>
      <trkpt lat="44.816139" lon="6.558770"><ele>1158.0</ele></trkpt>
      <trkpt lat="44.816188" lon="6.558676"><ele>1158.0</ele></trkpt>
      <trkpt lat="44.816250" lon="6.558593"><ele>1158.2</ele></trkpt>
      <trkpt lat="44.816392" lon="6.558479"><ele>1157.2</ele></trkpt>
      <trkpt lat="44.817656" lon="6.557807"><ele>1150.5</ele></trkpt>
      <trkpt lat="44.818304" lon="6.557426"><ele>1147.5</ele></trkpt>
      <trkpt lat="44.818757" lon="6.557127"><ele>1145.5</ele></trkpt>
      <trkpt lat="44.819337" lon="6.556806"><ele>1146.5</ele></trkpt>
      <trkpt lat="44.819460" lon="6.556722"><ele>1146.0</ele></trkpt>
      <trkpt lat="44.819607" lon="6.556590"><ele>1144.0</ele></trkpt>
      <trkpt lat="44.819869" lon="6.556308"><ele>1138.5</ele></trkpt>
      <trkpt lat="44.820009" lon="6.556189"><ele>1137.5</ele></trkpt>
      <trkpt lat="44.820448" lon="6.555875"><ele>1139.0</ele></trkpt>
      <trkpt lat="44.820931" lon="6.555456"><ele>1139.8</ele></trkpt>
      <trkpt lat="44.821194" lon="6.555158"><ele>1137.5</ele></trkpt>
      <trkpt lat="44.821443" lon="6.554831"><ele>1135.0</ele></trkpt>
      <trkpt lat="44.821623" lon="6.554577"><ele>1133.5</ele></trkpt>
      <trkpt lat="44.822132" lon="6.553692"><ele>1130.0</ele></trkpt>
      <trkpt lat="44.822208" lon="6.553545"><ele>1129.8</ele></trkpt>
      <trkpt lat="44.822504" lon="6.552899"><ele>1128.2</ele></trkpt>
      <trkpt lat="44.822570" lon="6.552725"><ele>1128.2</ele></trkpt>
      <trkpt lat="44.822620" lon="6.552552"><ele>1127.8</ele></trkpt>
      <trkpt lat="44.822692" lon="6.552241"><ele>1127.2</ele></trkpt>
      <trkpt lat="44.822711" lon="6.552092"><ele>1126.5</ele></trkpt>
      <trkpt lat="44.822724" lon="6.551876"><ele>1124.5</ele></trkpt>
      <trkpt lat="44.822754" lon="6.551673"><ele>1123.2</ele></trkpt>
      <trkpt lat="44.822787" lon="6.551487"><ele>1121.5</ele></trkpt>
      <trkpt lat="44.822821" lon="6.551355"><ele>1120.8</ele></trkpt>
      <trkpt lat="44.822861" lon="6.551250"><ele>1120.0</ele></trkpt>
      <trkpt lat="44.822976" lon="6.551040"><ele>1119.2</ele></trkpt>
      <trkpt lat="44.823165" lon="6.550756"><ele>1119.8</ele></trkpt>
      <trkpt lat="44.823285" lon="6.550557"><ele>1119.8</ele></trkpt>
      <trkpt lat="44.823602" lon="6.550001"><ele>1118.5</ele></trkpt>
      <trkpt lat="44.823708" lon="6.549794"><ele>1118.8</ele></trkpt>
      <trkpt lat="44.823776" lon="6.549635"><ele>1118.0</ele></trkpt>
      <trkpt lat="44.823838" lon="6.549459"><ele>1116.5</ele></trkpt>
      <trkpt lat="44.823907" lon="6.549197"><ele>1115.0</ele></trkpt>
      <trkpt lat="44.823986" lon="6.548946"><ele>1114.5</ele></trkpt>
      <trkpt lat="44.824057" lon="6.548752"><ele>1114.2</ele></trkpt>
      <trkpt lat="44.824156" lon="6.548519"><ele>1114.2</ele></trkpt>
      <trkpt lat="44.824360" lon="6.548108"><ele>1116.5</ele></trkpt>
      <trkpt lat="44.824563" lon="6.547575"><ele>1116.8</ele></trkpt>
      <trkpt lat="44.824624" lon="6.547421"><ele>1117.0</ele></trkpt>
      <trkpt lat="44.824671" lon="6.547276"><ele>1116.8</ele></trkpt>
      <trkpt lat="44.824712" lon="6.547121"><ele>1116.5</ele></trkpt>
      <trkpt lat="44.824767" lon="6.546744"><ele>1114.2</ele></trkpt>
      <trkpt lat="44.824805" lon="6.546584"><ele>1114.0</ele></trkpt>
      <trkpt lat="44.824939" lon="6.546148"><ele>1113.5</ele></trkpt>
      <trkpt lat="44.824974" lon="6.545995"><ele>1112.8</ele></trkpt>
      <trkpt lat="44.824993" lon="6.545868"><ele>1112.0</ele></trkpt>
      <trkpt lat="44.825012" lon="6.545647"><ele>1111.0</ele></trkpt>
      <trkpt lat="44.825017" lon="6.545347"><ele>1109.8</ele></trkpt>
      <trkpt lat="44.824991" lon="6.545015"><ele>1109.5</ele></trkpt>
      <trkpt lat="44.824972" lon="6.544884"><ele>1109.8</ele></trkpt>
      <trkpt lat="44.824937" lon="6.544748"><ele>1109.5</ele></trkpt>
      <trkpt lat="44.824887" lon="6.544591"><ele>1109.2</ele></trkpt>
      <trkpt lat="44.824799" lon="6.544399"><ele>1109.2</ele></trkpt>
      <trkpt lat="44.824522" lon="6.544023"><ele>1106.5</ele></trkpt>
      <trkpt lat="44.824503" lon="6.544045"><ele>1106.2</ele></trkpt>
      <trkpt lat="44.824130" lon="6.544504"><ele>1098.2</ele></trkpt>
      <trkpt lat="44.824044" lon="6.544634"><ele>1096.5</ele></trkpt>
      <trkpt lat="44.823918" lon="6.544840"><ele>1093.5</ele></trkpt>
      <trkpt lat="44.823800" lon="6.545038"><ele>1090.8</ele></trkpt>
      <trkpt lat="44.823757" lon="6.545119"><ele>1089.8</ele></trkpt>
      <trkpt lat="44.823668" lon="6.545283"><ele>1087.8</ele></trkpt>
      <trkpt lat="44.823647" lon="6.545322"><ele>1087.2</ele></trkpt>
      <trkpt lat="44.823628" lon="6.545359"><ele>1086.8</ele></trkpt>
      <trkpt lat="44.823616" lon="6.545381"><ele>1086.5</ele></trkpt>
      <trkpt lat="44.823517" lon="6.545566"><ele>1084.5</ele></trkpt>
      <trkpt lat="44.823500" lon="6.545598"><ele>1084.0</ele></trkpt>
      <trkpt lat="44.823426" lon="6.545759"><ele>1082.5</ele></trkpt>
      <trkpt lat="44.823270" lon="6.546098"><ele>1079.2</ele></trkpt>
      <trkpt lat="44.823167" lon="6.546321"><ele>1076.5</ele></trkpt>
      <trkpt lat="44.823084" lon="6.546500"><ele>1074.8</ele></trkpt>
      <trkpt lat="44.823010" lon="6.546637"><ele>1073.8</ele></trkpt>
      <trkpt lat="44.822894" lon="6.546852"><ele>1072.2</ele></trkpt>
      <trkpt lat="44.822810" lon="6.546977"><ele>1071.0</ele></trkpt>
      <trkpt lat="44.822758" lon="6.547036"><ele>1070.2</ele></trkpt>
      <trkpt lat="44.822693" lon="6.547111"><ele>1069.2</ele></trkpt>
      <trkpt lat="44.822430" lon="6.547316"><ele>1065.8</ele></trkpt>
      <trkpt lat="44.822409" lon="6.547331"><ele>1065.5</ele></trkpt>
      <trkpt lat="44.822309" lon="6.547427"><ele>1064.0</ele></trkpt>
      <trkpt lat="44.822216" lon="6.547588"><ele>1062.8</ele></trkpt>
      <trkpt lat="44.822137" lon="6.547781"><ele>1061.0</ele></trkpt>
      <trkpt lat="44.822116" lon="6.547811"><ele>1060.8</ele></trkpt>
      <trkpt lat="44.822099" lon="6.547816"><ele>1060.2</ele></trkpt>
      <trkpt lat="44.822070" lon="6.547808"><ele>1059.8</ele></trkpt>
      <trkpt lat="44.822054" lon="6.547925"><ele>1059.8</ele></trkpt>
      <trkpt lat="44.821954" lon="6.548289"><ele>1059.8</ele></trkpt>
      <trkpt lat="44.821802" lon="6.548769"><ele>1059.8</ele></trkpt>
      <trkpt lat="44.821647" lon="6.549186"><ele>1059.5</ele></trkpt>
      <trkpt lat="44.821587" lon="6.549322"><ele>1059.5</ele></trkpt>
      <trkpt lat="44.821569" lon="6.549365"><ele>1059.5</ele></trkpt>
      <trkpt lat="44.821321" lon="6.549904"><ele>1059.2</ele></trkpt>
      <trkpt lat="44.821061" lon="6.550397"><ele>1058.0</ele></trkpt>
      <trkpt lat="44.821003" lon="6.550525"><ele>1058.2</ele></trkpt>
      <trkpt lat="44.820915" lon="6.550768"><ele>1058.2</ele></trkpt>
      <trkpt lat="44.820765" lon="6.551214"><ele>1057.8</ele></trkpt>
      <trkpt lat="44.820572" lon="6.551682"><ele>1055.2</ele></trkpt>
      <trkpt lat="44.820501" lon="6.551912"><ele>1054.5</ele></trkpt>
      <trkpt lat="44.820460" lon="6.552099"><ele>1054.2</ele></trkpt>
      <trkpt lat="44.820408" lon="6.552547"><ele>1053.2</ele></trkpt>
      <trkpt lat="44.820379" lon="6.552743"><ele>1052.5</ele></trkpt>
      <trkpt lat="44.820264" lon="6.553174"><ele>1051.8</ele></trkpt>
      <trkpt lat="44.820207" lon="6.553340"><ele>1052.5</ele></trkpt>
      <trkpt lat="44.820139" lon="6.553484"><ele>1052.8</ele></trkpt>
      <trkpt lat="44.820050" lon="6.553608"><ele>1052.0</ele></trkpt>
      <trkpt lat="44.819919" lon="6.553755"><ele>1052.0</ele></trkpt>
      <trkpt lat="44.819626" lon="6.554101"><ele>1052.5</ele></trkpt>
      <trkpt lat="44.819421" lon="6.554329"><ele>1052.8</ele></trkpt>
      <trkpt lat="44.819194" lon="6.554534"><ele>1051.5</ele></trkpt>
      <trkpt lat="44.818058" lon="6.555421"><ele>1047.5</ele></trkpt>
      <trkpt lat="44.817644" lon="6.555694"><ele>1046.8</ele></trkpt>
      <trkpt lat="44.817469" lon="6.555828"><ele>1046.2</ele></trkpt>
      <trkpt lat="44.817000" lon="6.556250"><ele>1050.2</ele></trkpt>
      <trkpt lat="44.816854" lon="6.556352"><ele>1050.2</ele></trkpt>
      <trkpt lat="44.816686" lon="6.556449"><ele>1050.2</ele></trkpt>
      <trkpt lat="44.815691" lon="6.556958"><ele>1050.5</ele></trkpt>
      <trkpt lat="44.814522" lon="6.557584"><ele>1055.0</ele></trkpt>
      <trkpt lat="44.814354" lon="6.557655"><ele>1056.5</ele></trkpt>
      <trkpt lat="44.814167" lon="6.557711"><ele>1057.5</ele></trkpt>
      <trkpt lat="44.813740" lon="6.557784"><ele>1056.0</ele></trkpt>
      <trkpt lat="44.813278" lon="6.557906"><ele>1053.8</ele></trkpt>
      <trkpt lat="44.812976" lon="6.558022"><ele>1053.8</ele></trkpt>
      <trkpt lat="44.812520" lon="6.558181"><ele>1052.8</ele></trkpt>
      <trkpt lat="44.812414" lon="6.558228"><ele>1052.5</ele></trkpt>
      <trkpt lat="44.812308" lon="6.558294"><ele>1053.0</ele></trkpt>
      <trkpt lat="44.812240" lon="6.558357"><ele>1053.5</ele></trkpt>
      <trkpt lat="44.812197" lon="6.558411"><ele>1054.0</ele></trkpt>
      <trkpt lat="44.812163" lon="6.558487"><ele>1055.0</ele></trkpt>
      <trkpt lat="44.812131" lon="6.558584"><ele>1056.8</ele></trkpt>
      <trkpt lat="44.812107" lon="6.558692"><ele>1057.8</ele></trkpt>
      <trkpt lat="44.812092" lon="6.558769"><ele>1058.0</ele></trkpt>
      <trkpt lat="44.812071" lon="6.558854"><ele>1058.5</ele></trkpt>
      <trkpt lat="44.812044" lon="6.558965"><ele>1058.8</ele></trkpt>
      <trkpt lat="44.811999" lon="6.559076"><ele>1058.8</ele></trkpt>
      <trkpt lat="44.811958" lon="6.559146"><ele>1058.8</ele></trkpt>
      <trkpt lat="44.811902" lon="6.559219"><ele>1058.8</ele></trkpt>
      <trkpt lat="44.811849" lon="6.559266"><ele>1058.8</ele></trkpt>
      <trkpt lat="44.811780" lon="6.559307"><ele>1058.8</ele></trkpt>
      <trkpt lat="44.811383" lon="6.559487"><ele>1060.0</ele></trkpt>
      <trkpt lat="44.811260" lon="6.559555"><ele>1060.5</ele></trkpt>
      <trkpt lat="44.811166" lon="6.559629"><ele>1061.0</ele></trkpt>
      <trkpt lat="44.811021" lon="6.559789"><ele>1061.0</ele></trkpt>
      <trkpt lat="44.810903" lon="6.559916"><ele>1061.0</ele></trkpt>
      <trkpt lat="44.810782" lon="6.560015"><ele>1061.0</ele></trkpt>
      <trkpt lat="44.810742" lon="6.560044"><ele>1061.2</ele></trkpt>
      <trkpt lat="44.810500" lon="6.560196"><ele>1062.0</ele></trkpt>
      <trkpt lat="44.810430" lon="6.560232"><ele>1062.0</ele></trkpt>
      <trkpt lat="44.810310" lon="6.560259"><ele>1062.0</ele></trkpt>
      <trkpt lat="44.810253" lon="6.560261"><ele>1062.0</ele></trkpt>
      <trkpt lat="44.810047" lon="6.560214"><ele>1062.0</ele></trkpt>
      <trkpt lat="44.810028" lon="6.560209"><ele>1062.0</ele></trkpt>
      <trkpt lat="44.809779" lon="6.560149"><ele>1062.2</ele></trkpt>
      <trkpt lat="44.809615" lon="6.560106"><ele>1062.0</ele></trkpt>
      <trkpt lat="44.809383" lon="6.560026"><ele>1061.2</ele></trkpt>
      <trkpt lat="44.809324" lon="6.560007"><ele>1060.5</ele></trkpt>
      <trkpt lat="44.808920" lon="6.559877"><ele>1058.5</ele></trkpt>
      <trkpt lat="44.808764" lon="6.559811"><ele>1057.2</ele></trkpt>
      <trkpt lat="44.808613" lon="6.559730"><ele>1055.8</ele></trkpt>
      <trkpt lat="44.808474" lon="6.559643"><ele>1055.8</ele></trkpt>
      <trkpt lat="44.808420" lon="6.559619"><ele>1055.5</ele></trkpt>
      <trkpt lat="44.808363" lon="6.559605"><ele>1054.8</ele></trkpt>
      <trkpt lat="44.808292" lon="6.559601"><ele>1054.5</ele></trkpt>
      <trkpt lat="44.808218" lon="6.559614"><ele>1054.5</ele></trkpt>
      <trkpt lat="44.808141" lon="6.559645"><ele>1053.8</ele></trkpt>
      <trkpt lat="44.807647" lon="6.559943"><ele>1050.0</ele></trkpt>
      <trkpt lat="44.807569" lon="6.559970"><ele>1049.0</ele></trkpt>
      <trkpt lat="44.807494" lon="6.559979"><ele>1049.0</ele></trkpt>
      <trkpt lat="44.807337" lon="6.559976"><ele>1048.5</ele></trkpt>
      <trkpt lat="44.806730" lon="6.559930"><ele>1046.5</ele></trkpt>
      <trkpt lat="44.806595" lon="6.559909"><ele>1045.8</ele></trkpt>
      <trkpt lat="44.806487" lon="6.559876"><ele>1044.8</ele></trkpt>
      <trkpt lat="44.806358" lon="6.559785"><ele>1044.5</ele></trkpt>
      <trkpt lat="44.806243" lon="6.559715"><ele>1044.5</ele></trkpt>
      <trkpt lat="44.806123" lon="6.559686"><ele>1043.2</ele></trkpt>
      <trkpt lat="44.805954" lon="6.559693"><ele>1042.8</ele></trkpt>
      <trkpt lat="44.805682" lon="6.559720"><ele>1042.0</ele></trkpt>
      <trkpt lat="44.804999" lon="6.559840"><ele>1039.0</ele></trkpt>
      <trkpt lat="44.804892" lon="6.559851"><ele>1037.5</ele></trkpt>
      <trkpt lat="44.804801" lon="6.559846"><ele>1036.8</ele></trkpt>
      <trkpt lat="44.804691" lon="6.559815"><ele>1037.0</ele></trkpt>
      <trkpt lat="44.804517" lon="6.559720"><ele>1036.8</ele></trkpt>
      <trkpt lat="44.804436" lon="6.559686"><ele>1036.0</ele></trkpt>
      <trkpt lat="44.804349" lon="6.559667"><ele>1036.0</ele></trkpt>
      <trkpt lat="44.804247" lon="6.559666"><ele>1035.5</ele></trkpt>
      <trkpt lat="44.803634" lon="6.559820"><ele>1030.5</ele></trkpt>
      <trkpt lat="44.803544" lon="6.559824"><ele>1029.8</ele></trkpt>
      <trkpt lat="44.803470" lon="6.559816"><ele>1029.2</ele></trkpt>
      <trkpt lat="44.803247" lon="6.559711"><ele>1029.0</ele></trkpt>
      <trkpt lat="44.803165" lon="6.559687"><ele>1028.8</ele></trkpt>
      <trkpt lat="44.803083" lon="6.559682"><ele>1028.0</ele></trkpt>
      <trkpt lat="44.803008" lon="6.559692"><ele>1027.5</ele></trkpt>
      <trkpt lat="44.802921" lon="6.559722"><ele>1027.2</ele></trkpt>
      <trkpt lat="44.802332" lon="6.559997"><ele>1023.5</ele></trkpt>
      <trkpt lat="44.802222" lon="6.560030"><ele>1022.8</ele></trkpt>
      <trkpt lat="44.801713" lon="6.560059"><ele>1022.0</ele></trkpt>
      <trkpt lat="44.801619" lon="6.560042"><ele>1021.8</ele></trkpt>
      <trkpt lat="44.801564" lon="6.560017"><ele>1021.2</ele></trkpt>
      <trkpt lat="44.801489" lon="6.559960"><ele>1020.5</ele></trkpt>
      <trkpt lat="44.801439" lon="6.559884"><ele>1020.2</ele></trkpt>
      <trkpt lat="44.801301" lon="6.559553"><ele>1020.2</ele></trkpt>
      <trkpt lat="44.801247" lon="6.559472"><ele>1019.8</ele></trkpt>
      <trkpt lat="44.801183" lon="6.559413"><ele>1018.0</ele></trkpt>
      <trkpt lat="44.801113" lon="6.559379"><ele>1016.0</ele></trkpt>
      <trkpt lat="44.801043" lon="6.559368"><ele>1014.5</ele></trkpt>
      <trkpt lat="44.800981" lon="6.559375"><ele>1013.8</ele></trkpt>
      <trkpt lat="44.800911" lon="6.559410"><ele>1012.8</ele></trkpt>
      <trkpt lat="44.800789" lon="6.559530"><ele>1012.8</ele></trkpt>
      <trkpt lat="44.800737" lon="6.559566"><ele>1013.0</ele></trkpt>
      <trkpt lat="44.800675" lon="6.559578"><ele>1013.0</ele></trkpt>
      <trkpt lat="44.800619" lon="6.559568"><ele>1012.2</ele></trkpt>
      <trkpt lat="44.800556" lon="6.559537"><ele>1011.2</ele></trkpt>
      <trkpt lat="44.800326" lon="6.559373"><ele>1010.0</ele></trkpt>
      <trkpt lat="44.800149" lon="6.559274"><ele>1011.0</ele></trkpt>
      <trkpt lat="44.799989" lon="6.559207"><ele>1012.5</ele></trkpt>
      <trkpt lat="44.799815" lon="6.559154"><ele>1010.2</ele></trkpt>
      <trkpt lat="44.799630" lon="6.559108"><ele>1008.8</ele></trkpt>
      <trkpt lat="44.799012" lon="6.559019"><ele>1003.2</ele></trkpt>
      <trkpt lat="44.798884" lon="6.559019"><ele>1000.2</ele></trkpt>
      <trkpt lat="44.798528" lon="6.559093"><ele>995.2</ele></trkpt>
      <trkpt lat="44.798120" lon="6.559193"><ele>993.8</ele></trkpt>
      <trkpt lat="44.797930" lon="6.559287"><ele>993.0</ele></trkpt>
      <trkpt lat="44.797839" lon="6.559362"><ele>992.0</ele></trkpt>
      <trkpt lat="44.797601" lon="6.559600"><ele>986.8</ele></trkpt>
      <trkpt lat="44.797552" lon="6.559630"><ele>985.0</ele></trkpt>
      <trkpt lat="44.797508" lon="6.559631"><ele>983.2</ele></trkpt>
      <trkpt lat="44.797458" lon="6.559608"><ele>982.0</ele></trkpt>
      <trkpt lat="44.797429" lon="6.559566"><ele>981.2</ele></trkpt>
      <trkpt lat="44.797305" lon="6.559268"><ele>980.2</ele></trkpt>
      <trkpt lat="44.797223" lon="6.559084"><ele>981.2</ele></trkpt>
      <trkpt lat="44.797167" lon="6.558988"><ele>981.5</ele></trkpt>
      <trkpt lat="44.797128" lon="6.558942"><ele>981.8</ele></trkpt>
      <trkpt lat="44.797094" lon="6.558902"><ele>981.8</ele></trkpt>
      <trkpt lat="44.796994" lon="6.558833"><ele>981.8</ele></trkpt>
      <trkpt lat="44.796902" lon="6.558781"><ele>982.0</ele></trkpt>
      <trkpt lat="44.796783" lon="6.558736"><ele>982.0</ele></trkpt>
      <trkpt lat="44.796686" lon="6.558724"><ele>982.0</ele></trkpt>
      <trkpt lat="44.796634" lon="6.558723"><ele>981.8</ele></trkpt>
      <trkpt lat="44.796512" lon="6.558755"><ele>981.2</ele></trkpt>
      <trkpt lat="44.796433" lon="6.558788"><ele>981.0</ele></trkpt>
      <trkpt lat="44.796386" lon="6.558808"><ele>981.0</ele></trkpt>
      <trkpt lat="44.796291" lon="6.558853"><ele>981.0</ele></trkpt>
      <trkpt lat="44.796211" lon="6.558894"><ele>981.0</ele></trkpt>
      <trkpt lat="44.796136" lon="6.558927"><ele>981.0</ele></trkpt>
      <trkpt lat="44.796044" lon="6.558961"><ele>980.8</ele></trkpt>
      <trkpt lat="44.795994" lon="6.558974"><ele>980.5</ele></trkpt>
      <trkpt lat="44.795968" lon="6.558982"><ele>980.2</ele></trkpt>
      <trkpt lat="44.795930" lon="6.558999"><ele>980.2</ele></trkpt>
      <trkpt lat="44.795715" lon="6.559104"><ele>979.5</ele></trkpt>
      <trkpt lat="44.795677" lon="6.559123"><ele>979.5</ele></trkpt>
      <trkpt lat="44.795458" lon="6.559231"><ele>978.8</ele></trkpt>
      <trkpt lat="44.795330" lon="6.559292"><ele>978.5</ele></trkpt>
      <trkpt lat="44.795010" lon="6.559437"><ele>978.8</ele></trkpt>
      <trkpt lat="44.794964" lon="6.559460"><ele>978.8</ele></trkpt>
      <trkpt lat="44.794895" lon="6.559505"><ele>978.2</ele></trkpt>
      <trkpt lat="44.794866" lon="6.559540"><ele>977.8</ele></trkpt>
      <trkpt lat="44.794850" lon="6.559572"><ele>977.5</ele></trkpt>
      <trkpt lat="44.794830" lon="6.559554"><ele>977.8</ele></trkpt>
      <trkpt lat="44.794790" lon="6.559537"><ele>978.0</ele></trkpt>
      <trkpt lat="44.794741" lon="6.559520"><ele>978.2</ele></trkpt>
      <trkpt lat="44.794704" lon="6.559507"><ele>978.5</ele></trkpt>
      <trkpt lat="44.794586" lon="6.559463"><ele>978.2</ele></trkpt>
      <trkpt lat="44.794386" lon="6.559390"><ele>978.0</ele></trkpt>
      <trkpt lat="44.794313" lon="6.559366"><ele>978.0</ele></trkpt>
      <trkpt lat="44.794263" lon="6.559350"><ele>978.0</ele></trkpt>
      <trkpt lat="44.794106" lon="6.559288"><ele>978.0</ele></trkpt>
      <trkpt lat="44.793968" lon="6.559239"><ele>978.0</ele></trkpt>
      <trkpt lat="44.793796" lon="6.559177"><ele>977.5</ele></trkpt>
      <trkpt lat="44.793757" lon="6.559161"><ele>977.5</ele></trkpt>
      <trkpt lat="44.793565" lon="6.559085"><ele>977.0</ele></trkpt>
      <trkpt lat="44.793466" lon="6.559046"><ele>977.0</ele></trkpt>
      <trkpt lat="44.793321" lon="6.558991"><ele>977.0</ele></trkpt>
      <trkpt lat="44.793256" lon="6.558963"><ele>977.0</ele></trkpt>
      <trkpt lat="44.793065" lon="6.558869"><ele>977.0</ele></trkpt>
      <trkpt lat="44.792999" lon="6.558832"><ele>976.8</ele></trkpt>
      <trkpt lat="44.792840" lon="6.558747"><ele>976.5</ele></trkpt>
      <trkpt lat="44.792827" lon="6.558788"><ele>976.2</ele></trkpt>
      <trkpt lat="44.792771" lon="6.558962"><ele>976.0</ele></trkpt>
      <trkpt lat="44.792730" lon="6.559048"><ele>976.0</ele></trkpt>
      <trkpt lat="44.792674" lon="6.559121"><ele>976.0</ele></trkpt>
      <trkpt lat="44.792635" lon="6.559157"><ele>976.0</ele></trkpt>
      <trkpt lat="44.792411" lon="6.559363"><ele>975.5</ele></trkpt>
      <trkpt lat="44.792378" lon="6.559394"><ele>975.5</ele></trkpt>
      <trkpt lat="44.792307" lon="6.559414"><ele>975.2</ele></trkpt>
      <trkpt lat="44.792167" lon="6.559432"><ele>975.0</ele></trkpt>
      <trkpt lat="44.791936" lon="6.559444"><ele>974.8</ele></trkpt>
      <trkpt lat="44.791835" lon="6.559450"><ele>974.5</ele></trkpt>
      <trkpt lat="44.791581" lon="6.559456"><ele>974.0</ele></trkpt>
      <trkpt lat="44.791527" lon="6.559446"><ele>974.0</ele></trkpt>
      <trkpt lat="44.791485" lon="6.559389"><ele>974.0</ele></trkpt>
      <trkpt lat="44.791461" lon="6.559439"><ele>974.0</ele></trkpt>
      <trkpt lat="44.791429" lon="6.559416"><ele>974.0</ele></trkpt>
      <trkpt lat="44.791322" lon="6.559413"><ele>973.8</ele></trkpt>
      <trkpt lat="44.791054" lon="6.559217"><ele>973.5</ele></trkpt>
      <trkpt lat="44.790891" lon="6.559078"><ele>973.0</ele></trkpt>
      <trkpt lat="44.790793" lon="6.558965"><ele>973.0</ele></trkpt>
      <trkpt lat="44.790613" lon="6.558777"><ele>973.0</ele></trkpt>
      <trkpt lat="44.790505" lon="6.558727"><ele>973.0</ele></trkpt>
      <trkpt lat="44.790411" lon="6.558602"><ele>973.0</ele></trkpt>
      <trkpt lat="44.790401" lon="6.558609"><ele>973.0</ele></trkpt>
      <trkpt lat="44.790370" lon="6.558633"><ele>973.0</ele></trkpt>
      <trkpt lat="44.790330" lon="6.558573"><ele>973.0</ele></trkpt>
      <trkpt lat="44.790318" lon="6.558546"><ele>973.0</ele></trkpt>
      <trkpt lat="44.790341" lon="6.558499"><ele>973.0</ele></trkpt>
      <trkpt lat="44.790477" lon="6.557994"><ele>973.0</ele></trkpt>
      <trkpt lat="44.790550" lon="6.557842"><ele>973.0</ele></trkpt>
      <trkpt lat="44.790591" lon="6.557777"><ele>973.0</ele></trkpt>
      <trkpt lat="44.790625" lon="6.557735"><ele>973.2</ele></trkpt>
      <trkpt lat="44.790661" lon="6.557708"><ele>973.5</ele></trkpt>
      <trkpt lat="44.790684" lon="6.557659"><ele>973.5</ele></trkpt>
      <trkpt lat="44.790685" lon="6.557588"><ele>973.8</ele></trkpt>
      <trkpt lat="44.790675" lon="6.557555"><ele>973.8</ele></trkpt>
      <trkpt lat="44.790657" lon="6.557529"><ele>973.8</ele></trkpt>
      <trkpt lat="44.790632" lon="6.557509"><ele>973.8</ele></trkpt>
      <trkpt lat="44.790604" lon="6.557502"><ele>973.8</ele></trkpt>
      <trkpt lat="44.790576" lon="6.557509"><ele>973.8</ele></trkpt>
      <trkpt lat="44.790551" lon="6.557529"><ele>973.8</ele></trkpt>
      <trkpt lat="44.790532" lon="6.557560"><ele>973.5</ele></trkpt>
      <trkpt lat="44.790503" lon="6.557536"><ele>973.5</ele></trkpt>
      <trkpt lat="44.790410" lon="6.557463"><ele>973.5</ele></trkpt>
      <trkpt lat="44.790310" lon="6.557387"><ele>973.2</ele></trkpt>
      <trkpt lat="44.790232" lon="6.557329"><ele>973.5</ele></trkpt>
      <trkpt lat="44.790056" lon="6.557215"><ele>973.0</ele></trkpt>
      <trkpt lat="44.789888" lon="6.557125"><ele>972.8</ele></trkpt>
      <trkpt lat="44.789063" lon="6.556668"><ele>972.0</ele></trkpt>
      <trkpt lat="44.788825" lon="6.556522"><ele>972.2</ele></trkpt>
      <trkpt lat="44.788731" lon="6.556465"><ele>972.0</ele></trkpt>
      <trkpt lat="44.788590" lon="6.556376"><ele>972.0</ele></trkpt>
      <trkpt lat="44.788562" lon="6.556358"><ele>972.0</ele></trkpt>
      <trkpt lat="44.788569" lon="6.556318"><ele>972.2</ele></trkpt>
      <trkpt lat="44.788567" lon="6.556276"><ele>972.5</ele></trkpt>
      <trkpt lat="44.788556" lon="6.556238"><ele>972.8</ele></trkpt>
      <trkpt lat="44.788536" lon="6.556206"><ele>973.0</ele></trkpt>
      <trkpt lat="44.788510" lon="6.556185"><ele>973.0</ele></trkpt>
      <trkpt lat="44.788481" lon="6.556177"><ele>973.0</ele></trkpt>
      <trkpt lat="44.788452" lon="6.556182"><ele>972.8</ele></trkpt>
      <trkpt lat="44.788425" lon="6.556200"><ele>972.5</ele></trkpt>
      <trkpt lat="44.788404" lon="6.556229"><ele>972.2</ele></trkpt>
      <trkpt lat="44.788390" lon="6.556266"><ele>972.0</ele></trkpt>
      <trkpt lat="44.788350" lon="6.556251"><ele>972.0</ele></trkpt>
      <trkpt lat="44.787842" lon="6.556069"><ele>971.2</ele></trkpt>
      <trkpt lat="44.787695" lon="6.555981"><ele>971.5</ele></trkpt>
      <trkpt lat="44.787634" lon="6.555934"><ele>971.8</ele></trkpt>
      <trkpt lat="44.787551" lon="6.555831"><ele>972.8</ele></trkpt>
      <trkpt lat="44.787520" lon="6.555776"><ele>972.5</ele></trkpt>
      <trkpt lat="44.787468" lon="6.555633"><ele>971.5</ele></trkpt>
      <trkpt lat="44.787456" lon="6.555571"><ele>971.2</ele></trkpt>
      <trkpt lat="44.787475" lon="6.555545"><ele>971.0</ele></trkpt>
      <trkpt lat="44.787487" lon="6.555512"><ele>970.8</ele></trkpt>
      <trkpt lat="44.787490" lon="6.555476"><ele>970.5</ele></trkpt>
      <trkpt lat="44.787485" lon="6.555440"><ele>970.5</ele></trkpt>
      <trkpt lat="44.787471" lon="6.555408"><ele>970.5</ele></trkpt>
      <trkpt lat="44.787451" lon="6.555384"><ele>970.2</ele></trkpt>
      <trkpt lat="44.787427" lon="6.555371"><ele>970.2</ele></trkpt>
      <trkpt lat="44.787400" lon="6.555370"><ele>970.2</ele></trkpt>
      <trkpt lat="44.787376" lon="6.555382"><ele>970.5</ele></trkpt>
      <trkpt lat="44.787355" lon="6.555404"><ele>970.5</ele></trkpt>
      <trkpt lat="44.787340" lon="6.555435"><ele>970.8</ele></trkpt>
      <trkpt lat="44.787334" lon="6.555470"><ele>971.0</ele></trkpt>
      <trkpt lat="44.787336" lon="6.555507"><ele>971.2</ele></trkpt>
      <trkpt lat="44.787301" lon="6.555515"><ele>971.2</ele></trkpt>
      <trkpt lat="44.787127" lon="6.555562"><ele>971.5</ele></trkpt>
      <trkpt lat="44.787097" lon="6.555570"><ele>971.5</ele></trkpt>
      <trkpt lat="44.786689" lon="6.555668"><ele>971.8</ele></trkpt>
      <trkpt lat="44.786389" lon="6.555754"><ele>971.2</ele></trkpt>
      <trkpt lat="44.786089" lon="6.555849"><ele>971.0</ele></trkpt>
      <trkpt lat="44.785783" lon="6.555967"><ele>971.2</ele></trkpt>
      <trkpt lat="44.785510" lon="6.556074"><ele>970.5</ele></trkpt>
      <trkpt lat="44.785222" lon="6.556207"><ele>970.8</ele></trkpt>
      <trkpt lat="44.784798" lon="6.556408"><ele>970.5</ele></trkpt>
      <trkpt lat="44.784512" lon="6.556553"><ele>970.5</ele></trkpt>
      <trkpt lat="44.783929" lon="6.556833"><ele>970.5</ele></trkpt>
      <trkpt lat="44.783712" lon="6.556915"><ele>970.8</ele></trkpt>
      <trkpt lat="44.783518" lon="6.556966"><ele>970.5</ele></trkpt>
      <trkpt lat="44.783415" lon="6.556976"><ele>970.2</ele></trkpt>
      <trkpt lat="44.783235" lon="6.556973"><ele>970.0</ele></trkpt>
      <trkpt lat="44.783166" lon="6.556953"><ele>970.0</ele></trkpt>
      <trkpt lat="44.783032" lon="6.556913"><ele>970.0</ele></trkpt>
      <trkpt lat="44.782918" lon="6.556871"><ele>970.8</ele></trkpt>
      <trkpt lat="44.782872" lon="6.556855"><ele>970.8</ele></trkpt>
      <trkpt lat="44.782792" lon="6.556827"><ele>971.2</ele></trkpt>
      <trkpt lat="44.782670" lon="6.556785"><ele>972.0</ele></trkpt>
      <trkpt lat="44.782532" lon="6.556737"><ele>972.8</ele></trkpt>
      <trkpt lat="44.782494" lon="6.556721"><ele>973.0</ele></trkpt>
      <trkpt lat="44.782307" lon="6.556655"><ele>973.0</ele></trkpt>
      <trkpt lat="44.782211" lon="6.556623"><ele>973.0</ele></trkpt>
      <trkpt lat="44.781931" lon="6.556528"><ele>974.0</ele></trkpt>
      <trkpt lat="44.781811" lon="6.556492"><ele>974.0</ele></trkpt>
      <trkpt lat="44.781715" lon="6.556462"><ele>974.0</ele></trkpt>
      <trkpt lat="44.781548" lon="6.556416"><ele>974.0</ele></trkpt>
      <trkpt lat="44.781276" lon="6.556330"><ele>974.0</ele></trkpt>
      <trkpt lat="44.781024" lon="6.556255"><ele>974.0</ele></trkpt>
      <trkpt lat="44.780889" lon="6.556217"><ele>974.0</ele></trkpt>
      <trkpt lat="44.780858" lon="6.556207"><ele>974.0</ele></trkpt>
      <trkpt lat="44.780714" lon="6.556163"><ele>973.5</ele></trkpt>
      <trkpt lat="44.780681" lon="6.556153"><ele>973.2</ele></trkpt>
      <trkpt lat="44.780641" lon="6.556140"><ele>973.2</ele></trkpt>
      <trkpt lat="44.780542" lon="6.556109"><ele>972.8</ele></trkpt>
      <trkpt lat="44.780425" lon="6.556073"><ele>972.5</ele></trkpt>
      <trkpt lat="44.780315" lon="6.556040"><ele>972.2</ele></trkpt>
      <trkpt lat="44.780267" lon="6.556025"><ele>972.2</ele></trkpt>
      <trkpt lat="44.780096" lon="6.555972"><ele>972.5</ele></trkpt>
      <trkpt lat="44.779889" lon="6.555908"><ele>972.2</ele></trkpt>
      <trkpt lat="44.779866" lon="6.555901"><ele>972.2</ele></trkpt>
      <trkpt lat="44.779219" lon="6.555695"><ele>970.5</ele></trkpt>
      <trkpt lat="44.778711" lon="6.555530"><ele>970.2</ele></trkpt>
      <trkpt lat="44.778091" lon="6.555339"><ele>970.5</ele></trkpt>
      <trkpt lat="44.778001" lon="6.555318"><ele>970.8</ele></trkpt>
      <trkpt lat="44.777947" lon="6.555312"><ele>970.8</ele></trkpt>
      <trkpt lat="44.777909" lon="6.555309"><ele>970.8</ele></trkpt>
      <trkpt lat="44.777894" lon="6.555309"><ele>970.8</ele></trkpt>
      <trkpt lat="44.777844" lon="6.555311"><ele>970.8</ele></trkpt>
      <trkpt lat="44.777819" lon="6.555312"><ele>970.8</ele></trkpt>
      <trkpt lat="44.777808" lon="6.555260"><ele>971.0</ele></trkpt>
      <trkpt lat="44.777794" lon="6.555240"><ele>971.0</ele></trkpt>
      <trkpt lat="44.777759" lon="6.555223"><ele>971.0</ele></trkpt>
      <trkpt lat="44.777740" lon="6.555226"><ele>971.0</ele></trkpt>
      <trkpt lat="44.777711" lon="6.555251"><ele>971.0</ele></trkpt>
      <trkpt lat="44.777702" lon="6.555271"><ele>971.0</ele></trkpt>
      <trkpt lat="44.777673" lon="6.555255"><ele>971.0</ele></trkpt>
      <trkpt lat="44.777614" lon="6.555232"><ele>971.0</ele></trkpt>
      <trkpt lat="44.777538" lon="6.555213"><ele>971.0</ele></trkpt>
      <trkpt lat="44.777370" lon="6.555193"><ele>971.0</ele></trkpt>
      <trkpt lat="44.777233" lon="6.555194"><ele>971.0</ele></trkpt>
      <trkpt lat="44.777121" lon="6.555205"><ele>970.5</ele></trkpt>
      <trkpt lat="44.777009" lon="6.555241"><ele>970.0</ele></trkpt>
      <trkpt lat="44.776843" lon="6.555331"><ele>969.5</ele></trkpt>
      <trkpt lat="44.776779" lon="6.555364"><ele>969.2</ele></trkpt>
      <trkpt lat="44.776673" lon="6.555431"><ele>969.0</ele></trkpt>
      <trkpt lat="44.776489" lon="6.555526"><ele>968.2</ele></trkpt>
      <trkpt lat="44.776456" lon="6.555543"><ele>968.2</ele></trkpt>
      <trkpt lat="44.776265" lon="6.555642"><ele>967.5</ele></trkpt>
      <trkpt lat="44.776214" lon="6.555668"><ele>967.2</ele></trkpt>
      <trkpt lat="44.776169" lon="6.555691"><ele>967.0</ele></trkpt>
      <trkpt lat="44.775984" lon="6.555774"><ele>966.0</ele></trkpt>
      <trkpt lat="44.775017" lon="6.556127"><ele>962.0</ele></trkpt>
      <trkpt lat="44.774838" lon="6.556177"><ele>961.5</ele></trkpt>
      <trkpt lat="44.774673" lon="6.556208"><ele>961.0</ele></trkpt>
      <trkpt lat="44.774512" lon="6.556212"><ele>960.5</ele></trkpt>
      <trkpt lat="44.774368" lon="6.556196"><ele>960.0</ele></trkpt>
      <trkpt lat="44.774245" lon="6.556181"><ele>959.8</ele></trkpt>
      <trkpt lat="44.774029" lon="6.556193"><ele>959.0</ele></trkpt>
      <trkpt lat="44.773925" lon="6.556219"><ele>958.5</ele></trkpt>
      <trkpt lat="44.773665" lon="6.556325"><ele>957.2</ele></trkpt>
      <trkpt lat="44.773462" lon="6.556414"><ele>957.0</ele></trkpt>
      <trkpt lat="44.773289" lon="6.556501"><ele>956.8</ele></trkpt>
      <trkpt lat="44.770786" lon="6.557928"><ele>958.0</ele></trkpt>
      <trkpt lat="44.770671" lon="6.557988"><ele>957.8</ele></trkpt>
      <trkpt lat="44.770564" lon="6.558031"><ele>957.2</ele></trkpt>
      <trkpt lat="44.770432" lon="6.558068"><ele>956.2</ele></trkpt>
      <trkpt lat="44.770354" lon="6.558082"><ele>956.0</ele></trkpt>
      <trkpt lat="44.770120" lon="6.558082"><ele>954.5</ele></trkpt>
      <trkpt lat="44.769817" lon="6.558037"><ele>954.2</ele></trkpt>
      <trkpt lat="44.769640" lon="6.558028"><ele>954.8</ele></trkpt>
      <trkpt lat="44.769558" lon="6.558033"><ele>955.0</ele></trkpt>
      <trkpt lat="44.769276" lon="6.558087"><ele>955.8</ele></trkpt>
      <trkpt lat="44.769119" lon="6.558135"><ele>956.5</ele></trkpt>
      <trkpt lat="44.768941" lon="6.558208"><ele>958.2</ele></trkpt>
      <trkpt lat="44.768800" lon="6.558285"><ele>958.2</ele></trkpt>
      <trkpt lat="44.768627" lon="6.558400"><ele>957.8</ele></trkpt>
      <trkpt lat="44.768478" lon="6.558518"><ele>959.0</ele></trkpt>
      <trkpt lat="44.768343" lon="6.558639"><ele>959.2</ele></trkpt>
      <trkpt lat="44.768209" lon="6.558787"><ele>961.8</ele></trkpt>
      <trkpt lat="44.767921" lon="6.559207"><ele>964.5</ele></trkpt>
      <trkpt lat="44.767473" lon="6.559985"><ele>966.5</ele></trkpt>
      <trkpt lat="44.766840" lon="6.560966"><ele>969.0</ele></trkpt>
      <trkpt lat="44.766651" lon="6.561234"><ele>969.0</ele></trkpt>
      <trkpt lat="44.766388" lon="6.561525"><ele>968.0</ele></trkpt>
      <trkpt lat="44.765998" lon="6.561882"><ele>966.0</ele></trkpt>
      <trkpt lat="44.765386" lon="6.562479"><ele>965.0</ele></trkpt>
      <trkpt lat="44.765258" lon="6.562625"><ele>964.5</ele></trkpt>
      <trkpt lat="44.764800" lon="6.563245"><ele>964.2</ele></trkpt>
      <trkpt lat="44.764513" lon="6.563663"><ele>961.8</ele></trkpt>
      <trkpt lat="44.764360" lon="6.563899"><ele>961.5</ele></trkpt>
      <trkpt lat="44.764283" lon="6.564001"><ele>962.0</ele></trkpt>
      <trkpt lat="44.764180" lon="6.564118"><ele>962.0</ele></trkpt>
      <trkpt lat="44.763958" lon="6.564340"><ele>963.8</ele></trkpt>
      <trkpt lat="44.763699" lon="6.564673"><ele>960.8</ele></trkpt>
      <trkpt lat="44.763610" lon="6.564767"><ele>959.5</ele></trkpt>
      <trkpt lat="44.762868" lon="6.565436"><ele>963.2</ele></trkpt>
      <trkpt lat="44.762751" lon="6.565554"><ele>961.8</ele></trkpt>
      <trkpt lat="44.762628" lon="6.565664"><ele>962.0</ele></trkpt>
      <trkpt lat="44.762331" lon="6.565896"><ele>962.8</ele></trkpt>
      <trkpt lat="44.762200" lon="6.566014"><ele>962.5</ele></trkpt>
      <trkpt lat="44.761874" lon="6.566352"><ele>960.8</ele></trkpt>
      <trkpt lat="44.761222" lon="6.567154"><ele>958.2</ele></trkpt>
      <trkpt lat="44.760780" lon="6.567852"><ele>955.5</ele></trkpt>
      <trkpt lat="44.760662" lon="6.567988"><ele>955.2</ele></trkpt>
      <trkpt lat="44.760297" lon="6.568313"><ele>956.0</ele></trkpt>
      <trkpt lat="44.759230" lon="6.569097"><ele>957.5</ele></trkpt>
      <trkpt lat="44.759046" lon="6.569258"><ele>956.8</ele></trkpt>
      <trkpt lat="44.758911" lon="6.569364"><ele>956.8</ele></trkpt>
      <trkpt lat="44.758005" lon="6.569932"><ele>959.5</ele></trkpt>
      <trkpt lat="44.757807" lon="6.570086"><ele>959.0</ele></trkpt>
      <trkpt lat="44.757604" lon="6.570276"><ele>957.2</ele></trkpt>
      <trkpt lat="44.757127" lon="6.570768"><ele>954.0</ele></trkpt>
      <trkpt lat="44.757000" lon="6.570868"><ele>953.2</ele></trkpt>
      <trkpt lat="44.756764" lon="6.570982"><ele>953.0</ele></trkpt>
      <trkpt lat="44.756375" lon="6.571148"><ele>953.0</ele></trkpt>
      <trkpt lat="44.756232" lon="6.571240"><ele>952.5</ele></trkpt>
      <trkpt lat="44.755645" lon="6.571666"><ele>950.2</ele></trkpt>
      <trkpt lat="44.755081" lon="6.571996"><ele>949.2</ele></trkpt>
      <trkpt lat="44.754673" lon="6.572309"><ele>946.8</ele></trkpt>
      <trkpt lat="44.754455" lon="6.572460"><ele>946.0</ele></trkpt>
      <trkpt lat="44.754267" lon="6.572583"><ele>945.5</ele></trkpt>
      <trkpt lat="44.753967" lon="6.572734"><ele>945.0</ele></trkpt>
      <trkpt lat="44.753909" lon="6.572808"><ele>943.8</ele></trkpt>
      <trkpt lat="44.753935" lon="6.572866"><ele>941.5</ele></trkpt>
      <trkpt lat="44.753951" lon="6.572967"><ele>938.2</ele></trkpt>
      <trkpt lat="44.754056" lon="6.573408"><ele>937.8</ele></trkpt>
      <trkpt lat="44.754108" lon="6.573543"><ele>939.8</ele></trkpt>
      <trkpt lat="44.754167" lon="6.573653"><ele>940.8</ele></trkpt>
      <trkpt lat="44.754459" lon="6.574070"><ele>939.8</ele></trkpt>
      <trkpt lat="44.754803" lon="6.574627"><ele>941.0</ele></trkpt>
      <trkpt lat="44.754850" lon="6.574716"><ele>941.2</ele></trkpt>
      <trkpt lat="44.754892" lon="6.574849"><ele>941.8</ele></trkpt>
      <trkpt lat="44.754920" lon="6.574961"><ele>942.0</ele></trkpt>
      <trkpt lat="44.754931" lon="6.575004"><ele>942.0</ele></trkpt>
      <trkpt lat="44.754928" lon="6.575091"><ele>941.5</ele></trkpt>
      <trkpt lat="44.754940" lon="6.575226"><ele>940.2</ele></trkpt>
      <trkpt lat="44.754948" lon="6.575254"><ele>940.0</ele></trkpt>
      <trkpt lat="44.754021" lon="6.575881"><ele>938.8</ele></trkpt>
      <trkpt lat="44.753717" lon="6.576117"><ele>938.0</ele></trkpt>
      <trkpt lat="44.752835" lon="6.576694"><ele>938.0</ele></trkpt>
      <trkpt lat="44.751973" lon="6.577260"><ele>938.8</ele></trkpt>
      <trkpt lat="44.751730" lon="6.577416"><ele>939.5</ele></trkpt>
      <trkpt lat="44.751409" lon="6.577626"><ele>940.8</ele></trkpt>
      <trkpt lat="44.751379" lon="6.577646"><ele>941.0</ele></trkpt>
      <trkpt lat="44.751107" lon="6.577828"><ele>942.0</ele></trkpt>
      <trkpt lat="44.750931" lon="6.577945"><ele>942.2</ele></trkpt>
      <trkpt lat="44.750640" lon="6.578136"><ele>943.8</ele></trkpt>
      <trkpt lat="44.750458" lon="6.578254"><ele>944.5</ele></trkpt>
      <trkpt lat="44.750204" lon="6.578422"><ele>945.0</ele></trkpt>
      <trkpt lat="44.750175" lon="6.578438"><ele>945.0</ele></trkpt>
      <trkpt lat="44.750155" lon="6.578451"><ele>945.0</ele></trkpt>
      <trkpt lat="44.750129" lon="6.578468"><ele>945.0</ele></trkpt>
      <trkpt lat="44.750115" lon="6.578476"><ele>945.0</ele></trkpt>
      <trkpt lat="44.750097" lon="6.578488"><ele>945.2</ele></trkpt>
      <trkpt lat="44.749936" lon="6.578590"><ele>945.5</ele></trkpt>
      <trkpt lat="44.749478" lon="6.578886"><ele>945.0</ele></trkpt>
      <trkpt lat="44.749362" lon="6.578960"><ele>944.5</ele></trkpt>
      <trkpt lat="44.749263" lon="6.579023"><ele>944.0</ele></trkpt>
      <trkpt lat="44.749180" lon="6.579076"><ele>943.8</ele></trkpt>
      <trkpt lat="44.749125" lon="6.579112"><ele>943.5</ele></trkpt>
      <trkpt lat="44.749048" lon="6.579161"><ele>943.5</ele></trkpt>
      <trkpt lat="44.748984" lon="6.579202"><ele>943.5</ele></trkpt>
      <trkpt lat="44.748964" lon="6.579214"><ele>943.2</ele></trkpt>
      <trkpt lat="44.748907" lon="6.579250"><ele>943.2</ele></trkpt>
      <trkpt lat="44.748714" lon="6.579370"><ele>942.8</ele></trkpt>
      <trkpt lat="44.748445" lon="6.579545"><ele>942.2</ele></trkpt>
      <trkpt lat="44.748398" lon="6.579571"><ele>942.2</ele></trkpt>
      <trkpt lat="44.748336" lon="6.579585"><ele>942.0</ele></trkpt>
      <trkpt lat="44.748077" lon="6.579619"><ele>940.8</ele></trkpt>
      <trkpt lat="44.748046" lon="6.579632"><ele>940.5</ele></trkpt>
      <trkpt lat="44.748015" lon="6.579653"><ele>940.5</ele></trkpt>
      <trkpt lat="44.747913" lon="6.579730"><ele>940.5</ele></trkpt>
      <trkpt lat="44.747536" lon="6.580052"><ele>940.2</ele></trkpt>
      <trkpt lat="44.747257" lon="6.580237"><ele>940.8</ele></trkpt>
      <trkpt lat="44.746928" lon="6.580410"><ele>941.5</ele></trkpt>
      <trkpt lat="44.746743" lon="6.580501"><ele>942.2</ele></trkpt>
      <trkpt lat="44.746683" lon="6.580531"><ele>942.8</ele></trkpt>
      <trkpt lat="44.746647" lon="6.580549"><ele>943.0</ele></trkpt>
      <trkpt lat="44.746468" lon="6.580638"><ele>944.5</ele></trkpt>
      <trkpt lat="44.746316" lon="6.580720"><ele>946.0</ele></trkpt>
      <trkpt lat="44.746191" lon="6.580804"><ele>947.8</ele></trkpt>
      <trkpt lat="44.746046" lon="6.580914"><ele>949.0</ele></trkpt>
      <trkpt lat="44.745877" lon="6.581080"><ele>949.5</ele></trkpt>
      <trkpt lat="44.745702" lon="6.581234"><ele>948.5</ele></trkpt>
      <trkpt lat="44.745568" lon="6.581326"><ele>947.5</ele></trkpt>
      <trkpt lat="44.745360" lon="6.581442"><ele>947.0</ele></trkpt>
      <trkpt lat="44.745146" lon="6.581581"><ele>947.0</ele></trkpt>
      <trkpt lat="44.744920" lon="6.581739"><ele>947.8</ele></trkpt>
      <trkpt lat="44.744673" lon="6.581928"><ele>948.0</ele></trkpt>
      <trkpt lat="44.744335" lon="6.582198"><ele>949.0</ele></trkpt>
      <trkpt lat="44.744209" lon="6.582256"><ele>950.2</ele></trkpt>
      <trkpt lat="44.744065" lon="6.582294"><ele>950.5</ele></trkpt>
      <trkpt lat="44.743613" lon="6.582370"><ele>948.0</ele></trkpt>
      <trkpt lat="44.742895" lon="6.582484"><ele>948.2</ele></trkpt>
      <trkpt lat="44.742669" lon="6.582519"><ele>949.2</ele></trkpt>
      <trkpt lat="44.742460" lon="6.582564"><ele>949.0</ele></trkpt>
      <trkpt lat="44.742272" lon="6.582622"><ele>947.2</ele></trkpt>
      <trkpt lat="44.741977" lon="6.582734"><ele>946.0</ele></trkpt>
      <trkpt lat="44.741848" lon="6.582772"><ele>945.0</ele></trkpt>
      <trkpt lat="44.741524" lon="6.582820"><ele>942.0</ele></trkpt>
      <trkpt lat="44.740072" lon="6.583320"><ele>931.8</ele></trkpt>
      <trkpt lat="44.739553" lon="6.583458"><ele>928.0</ele></trkpt>
      <trkpt lat="44.739156" lon="6.583522"><ele>928.0</ele></trkpt>
      <trkpt lat="44.737759" lon="6.583688"><ele>927.5</ele></trkpt>
      <trkpt lat="44.733589" lon="6.584185"><ele>924.2</ele></trkpt>
      <trkpt lat="44.733135" lon="6.584273"><ele>924.8</ele></trkpt>
      <trkpt lat="44.732656" lon="6.584419"><ele>923.8</ele></trkpt>
      <trkpt lat="44.730091" lon="6.585241"><ele>923.0</ele></trkpt>
      <trkpt lat="44.728318" lon="6.585818"><ele>919.8</ele></trkpt>
      <trkpt lat="44.727946" lon="6.585947"><ele>919.5</ele></trkpt>
      <trkpt lat="44.727571" lon="6.586117"><ele>918.8</ele></trkpt>
      <trkpt lat="44.727192" lon="6.586348"><ele>918.8</ele></trkpt>
      <trkpt lat="44.726908" lon="6.586557"><ele>918.8</ele></trkpt>
      <trkpt lat="44.726673" lon="6.586754"><ele>918.5</ele></trkpt>
      <trkpt lat="44.725428" lon="6.588019"><ele>919.2</ele></trkpt>
      <trkpt lat="44.724746" lon="6.588685"><ele>918.8</ele></trkpt>
      <trkpt lat="44.724451" lon="6.588979"><ele>917.5</ele></trkpt>
      <trkpt lat="44.724390" lon="6.589050"><ele>917.5</ele></trkpt>
      <trkpt lat="44.723914" lon="6.589534"><ele>917.2</ele></trkpt>
      <trkpt lat="44.723539" lon="6.589948"><ele>916.8</ele></trkpt>
      <trkpt lat="44.721370" lon="6.592171"><ele>918.2</ele></trkpt>
      <trkpt lat="44.719122" lon="6.594424"><ele>922.8</ele></trkpt>
      <trkpt lat="44.718971" lon="6.594586"><ele>922.8</ele></trkpt>
      <trkpt lat="44.717398" lon="6.596188"><ele>917.0</ele></trkpt>
      <trkpt lat="44.715476" lon="6.598132"><ele>908.5</ele></trkpt>
      <trkpt lat="44.713526" lon="6.600148"><ele>906.5</ele></trkpt>
      <trkpt lat="44.712671" lon="6.601014"><ele>907.5</ele></trkpt>
      <trkpt lat="44.712172" lon="6.601512"><ele>912.0</ele></trkpt>
      <trkpt lat="44.711900" lon="6.601769"><ele>913.2</ele></trkpt>
      <trkpt lat="44.711614" lon="6.602013"><ele>912.5</ele></trkpt>
      <trkpt lat="44.711416" lon="6.602166"><ele>911.8</ele></trkpt>
      <trkpt lat="44.711178" lon="6.602317"><ele>911.0</ele></trkpt>
      <trkpt lat="44.710915" lon="6.602457"><ele>909.2</ele></trkpt>
      <trkpt lat="44.710654" lon="6.602571"><ele>908.2</ele></trkpt>
      <trkpt lat="44.709013" lon="6.603192"><ele>905.8</ele></trkpt>
      <trkpt lat="44.708596" lon="6.603357"><ele>904.0</ele></trkpt>
      <trkpt lat="44.708257" lon="6.603510"><ele>904.2</ele></trkpt>
      <trkpt lat="44.707740" lon="6.603776"><ele>904.0</ele></trkpt>
      <trkpt lat="44.707446" lon="6.603963"><ele>904.0</ele></trkpt>
      <trkpt lat="44.707141" lon="6.604172"><ele>904.0</ele></trkpt>
      <trkpt lat="44.707099" lon="6.604200"><ele>904.0</ele></trkpt>
      <trkpt lat="44.706910" lon="6.604271"><ele>904.2</ele></trkpt>
      <trkpt lat="44.706872" lon="6.604284"><ele>904.2</ele></trkpt>
      <trkpt lat="44.706812" lon="6.604243"><ele>904.2</ele></trkpt>
      <trkpt lat="44.706764" lon="6.604239"><ele>904.2</ele></trkpt>
      <trkpt lat="44.706718" lon="6.604255"><ele>904.2</ele></trkpt>
      <trkpt lat="44.706678" lon="6.604291"><ele>904.2</ele></trkpt>
      <trkpt lat="44.706647" lon="6.604342"><ele>904.5</ele></trkpt>
      <trkpt lat="44.706628" lon="6.604416"><ele>904.8</ele></trkpt>
      <trkpt lat="44.706563" lon="6.604499"><ele>904.5</ele></trkpt>
      <trkpt lat="44.706488" lon="6.604560"><ele>904.0</ele></trkpt>
      <trkpt lat="44.706390" lon="6.604624"><ele>904.0</ele></trkpt>
      <trkpt lat="44.706342" lon="6.604646"><ele>904.0</ele></trkpt>
      <trkpt lat="44.706121" lon="6.604753"><ele>904.0</ele></trkpt>
      <trkpt lat="44.705764" lon="6.604952"><ele>905.0</ele></trkpt>
      <trkpt lat="44.705210" lon="6.605318"><ele>905.0</ele></trkpt>
      <trkpt lat="44.705010" lon="6.605475"><ele>905.8</ele></trkpt>
      <trkpt lat="44.704795" lon="6.605646"><ele>906.2</ele></trkpt>
      <trkpt lat="44.701627" lon="6.608381"><ele>902.5</ele></trkpt>
      <trkpt lat="44.700956" lon="6.608931"><ele>901.2</ele></trkpt>
      <trkpt lat="44.700549" lon="6.609275"><ele>901.0</ele></trkpt>
      <trkpt lat="44.700414" lon="6.609386"><ele>901.0</ele></trkpt>
      <trkpt lat="44.700031" lon="6.609644"><ele>900.2</ele></trkpt>
      <trkpt lat="44.699804" lon="6.609776"><ele>900.5</ele></trkpt>
      <trkpt lat="44.699566" lon="6.609927"><ele>900.2</ele></trkpt>
      <trkpt lat="44.699155" lon="6.610094"><ele>899.5</ele></trkpt>
      <trkpt lat="44.698746" lon="6.610228"><ele>900.0</ele></trkpt>
      <trkpt lat="44.697772" lon="6.610515"><ele>901.8</ele></trkpt>
      <trkpt lat="44.694463" lon="6.611464"><ele>919.2</ele></trkpt>
      <trkpt lat="44.693734" lon="6.611676"><ele>923.0</ele></trkpt>
      <trkpt lat="44.692438" lon="6.612040"><ele>927.5</ele></trkpt>
      <trkpt lat="44.692306" lon="6.612078"><ele>927.5</ele></trkpt>
      <trkpt lat="44.689861" lon="6.612792"><ele>928.5</ele></trkpt>
      <trkpt lat="44.687494" lon="6.613471"><ele>917.2</ele></trkpt>
      <trkpt lat="44.686453" lon="6.613772"><ele>911.0</ele></trkpt>
      <trkpt lat="44.685468" lon="6.614060"><ele>906.2</ele></trkpt>
      <trkpt lat="44.684945" lon="6.614212"><ele>904.8</ele></trkpt>
      <trkpt lat="44.684116" lon="6.614451"><ele>901.5</ele></trkpt>
      <trkpt lat="44.683919" lon="6.614508"><ele>900.5</ele></trkpt>
      <trkpt lat="44.683866" lon="6.614524"><ele>900.5</ele></trkpt>
      <trkpt lat="44.679491" lon="6.615797"><ele>889.0</ele></trkpt>
      <trkpt lat="44.678706" lon="6.616018"><ele>889.0</ele></trkpt>
      <trkpt lat="44.678417" lon="6.616104"><ele>889.0</ele></trkpt>
      <trkpt lat="44.678297" lon="6.616138"><ele>889.0</ele></trkpt>
      <trkpt lat="44.677436" lon="6.616383"><ele>888.8</ele></trkpt>
      <trkpt lat="44.677284" lon="6.616430"><ele>888.2</ele></trkpt>
      <trkpt lat="44.676954" lon="6.616502"><ele>888.0</ele></trkpt>
      <trkpt lat="44.676828" lon="6.616582"><ele>888.2</ele></trkpt>
      <trkpt lat="44.676654" lon="6.616617"><ele>888.8</ele></trkpt>
      <trkpt lat="44.676587" lon="6.616603"><ele>888.8</ele></trkpt>
      <trkpt lat="44.676460" lon="6.616624"><ele>888.8</ele></trkpt>
      <trkpt lat="44.676161" lon="6.616669"><ele>888.0</ele></trkpt>
      <trkpt lat="44.675968" lon="6.616707"><ele>888.0</ele></trkpt>
      <trkpt lat="44.675709" lon="6.616812"><ele>888.0</ele></trkpt>
      <trkpt lat="44.675471" lon="6.616961"><ele>888.0</ele></trkpt>
      <trkpt lat="44.675334" lon="6.616999"><ele>888.0</ele></trkpt>
      <trkpt lat="44.675012" lon="6.617091"><ele>887.8</ele></trkpt>
      <trkpt lat="44.674776" lon="6.617158"><ele>888.0</ele></trkpt>
      <trkpt lat="44.674665" lon="6.617187"><ele>888.0</ele></trkpt>
      <trkpt lat="44.674639" lon="6.617194"><ele>888.0</ele></trkpt>
      <trkpt lat="44.674499" lon="6.617230"><ele>888.0</ele></trkpt>
      <trkpt lat="44.674462" lon="6.617240"><ele>888.0</ele></trkpt>
      <trkpt lat="44.674439" lon="6.617246"><ele>888.0</ele></trkpt>
      <trkpt lat="44.674044" lon="6.617350"><ele>888.0</ele></trkpt>
      <trkpt lat="44.672974" lon="6.617662"><ele>888.0</ele></trkpt>
      <trkpt lat="44.672826" lon="6.617706"><ele>888.0</ele></trkpt>
      <trkpt lat="44.672761" lon="6.617723"><ele>888.0</ele></trkpt>
      <trkpt lat="44.672231" lon="6.617879"><ele>888.0</ele></trkpt>
      <trkpt lat="44.671994" lon="6.617944"><ele>888.0</ele></trkpt>
      <trkpt lat="44.671831" lon="6.618005"><ele>888.2</ele></trkpt>
      <trkpt lat="44.671696" lon="6.618046"><ele>888.8</ele></trkpt>
      <trkpt lat="44.671492" lon="6.618144"><ele>889.0</ele></trkpt>
      <trkpt lat="44.671374" lon="6.618178"><ele>889.0</ele></trkpt>
      <trkpt lat="44.671296" lon="6.618192"><ele>889.0</ele></trkpt>
      <trkpt lat="44.671202" lon="6.618204"><ele>889.0</ele></trkpt>
      <trkpt lat="44.671013" lon="6.618225"><ele>889.2</ele></trkpt>
      <trkpt lat="44.670949" lon="6.618241"><ele>889.5</ele></trkpt>
      <trkpt lat="44.670628" lon="6.618319"><ele>890.0</ele></trkpt>
      <trkpt lat="44.670172" lon="6.618448"><ele>890.0</ele></trkpt>
      <trkpt lat="44.669993" lon="6.618470"><ele>890.5</ele></trkpt>
      <trkpt lat="44.669722" lon="6.618485"><ele>891.5</ele></trkpt>
      <trkpt lat="44.669511" lon="6.618480"><ele>891.8</ele></trkpt>
      <trkpt lat="44.669282" lon="6.618451"><ele>892.0</ele></trkpt>
      <trkpt lat="44.669082" lon="6.618412"><ele>892.2</ele></trkpt>
      <trkpt lat="44.668770" lon="6.618327"><ele>893.2</ele></trkpt>
      <trkpt lat="44.668463" lon="6.618201"><ele>892.8</ele></trkpt>
      <trkpt lat="44.668238" lon="6.618097"><ele>893.8</ele></trkpt>
      <trkpt lat="44.668038" lon="6.617976"><ele>894.0</ele></trkpt>
      <trkpt lat="44.667670" lon="6.617706"><ele>894.5</ele></trkpt>
      <trkpt lat="44.667387" lon="6.617463"><ele>894.5</ele></trkpt>
      <trkpt lat="44.667144" lon="6.617199"><ele>894.5</ele></trkpt>
      <trkpt lat="44.666947" lon="6.616946"><ele>895.8</ele></trkpt>
      <trkpt lat="44.666882" lon="6.616859"><ele>895.5</ele></trkpt>
      <trkpt lat="44.666620" lon="6.616453"><ele>895.0</ele></trkpt>
      <trkpt lat="44.666481" lon="6.616205"><ele>894.8</ele></trkpt>
      <trkpt lat="44.666333" lon="6.615923"><ele>894.5</ele></trkpt>
      <trkpt lat="44.665993" lon="6.615261"><ele>894.5</ele></trkpt>
      <trkpt lat="44.665926" lon="6.615061"><ele>894.8</ele></trkpt>
      <trkpt lat="44.665853" lon="6.614791"><ele>895.5</ele></trkpt>
      <trkpt lat="44.665841" lon="6.614692"><ele>895.8</ele></trkpt>
      <trkpt lat="44.665850" lon="6.614636"><ele>895.5</ele></trkpt>
      <trkpt lat="44.665850" lon="6.614579"><ele>895.8</ele></trkpt>
      <trkpt lat="44.665836" lon="6.614501"><ele>895.8</ele></trkpt>
      <trkpt lat="44.665806" lon="6.614433"><ele>895.8</ele></trkpt>
      <trkpt lat="44.665762" lon="6.614380"><ele>895.2</ele></trkpt>
      <trkpt lat="44.665715" lon="6.614350"><ele>895.0</ele></trkpt>
      <trkpt lat="44.665663" lon="6.614339"><ele>895.0</ele></trkpt>
      <trkpt lat="44.665601" lon="6.614352"><ele>895.2</ele></trkpt>
      <trkpt lat="44.665546" lon="6.614393"><ele>895.5</ele></trkpt>
      <trkpt lat="44.665503" lon="6.614458"><ele>895.2</ele></trkpt>
      <trkpt lat="44.665477" lon="6.614538"><ele>895.0</ele></trkpt>
      <trkpt lat="44.665472" lon="6.614642"><ele>895.2</ele></trkpt>
      <trkpt lat="44.665403" lon="6.614785"><ele>894.8</ele></trkpt>
      <trkpt lat="44.665147" lon="6.615113"><ele>893.8</ele></trkpt>
      <trkpt lat="44.663155" lon="6.617106"><ele>898.0</ele></trkpt>
      <trkpt lat="44.663108" lon="6.617156"><ele>898.2</ele></trkpt>
      <trkpt lat="44.662492" lon="6.617767"><ele>901.0</ele></trkpt>
      <trkpt lat="44.662436" lon="6.617823"><ele>901.2</ele></trkpt>
      <trkpt lat="44.662202" lon="6.618055"><ele>903.0</ele></trkpt>
      <trkpt lat="44.662100" lon="6.618110"><ele>903.2</ele></trkpt>
      <trkpt lat="44.662041" lon="6.618142"><ele>903.5</ele></trkpt>
      <trkpt lat="44.661989" lon="6.618162"><ele>903.8</ele></trkpt>
      <trkpt lat="44.661946" lon="6.618141"><ele>903.8</ele></trkpt>
      <trkpt lat="44.661900" lon="6.618141"><ele>904.2</ele></trkpt>
      <trkpt lat="44.661857" lon="6.618160"><ele>904.5</ele></trkpt>
      <trkpt lat="44.661820" lon="6.618197"><ele>904.8</ele></trkpt>
      <trkpt lat="44.661793" lon="6.618248"><ele>905.0</ele></trkpt>
      <trkpt lat="44.661778" lon="6.618307"><ele>905.0</ele></trkpt>
      <trkpt lat="44.661777" lon="6.618369"><ele>905.0</ele></trkpt>
      <trkpt lat="44.661716" lon="6.618510"><ele>905.0</ele></trkpt>
      <trkpt lat="44.661626" lon="6.618633"><ele>905.2</ele></trkpt>
      <trkpt lat="44.661534" lon="6.618729"><ele>905.8</ele></trkpt>
      <trkpt lat="44.661480" lon="6.618782"><ele>906.2</ele></trkpt>
      <trkpt lat="44.661317" lon="6.618943"><ele>907.0</ele></trkpt>
      <trkpt lat="44.661246" lon="6.619015"><ele>907.2</ele></trkpt>
      <trkpt lat="44.660527" lon="6.619736"><ele>910.0</ele></trkpt>
      <trkpt lat="44.660428" lon="6.619845"><ele>910.0</ele></trkpt>
      <trkpt lat="44.660305" lon="6.619999"><ele>910.8</ele></trkpt>
      <trkpt lat="44.660159" lon="6.620200"><ele>910.5</ele></trkpt>
      <trkpt lat="44.660021" lon="6.620418"><ele>911.2</ele></trkpt>
      <trkpt lat="44.659897" lon="6.620647"><ele>911.5</ele></trkpt>
      <trkpt lat="44.659760" lon="6.620969"><ele>912.0</ele></trkpt>
      <trkpt lat="44.659663" lon="6.621246"><ele>911.8</ele></trkpt>
      <trkpt lat="44.659588" lon="6.621523"><ele>911.5</ele></trkpt>
      <trkpt lat="44.659511" lon="6.621845"><ele>911.5</ele></trkpt>
      <trkpt lat="44.659450" lon="6.622235"><ele>910.8</ele></trkpt>
      <trkpt lat="44.659423" lon="6.622592"><ele>909.8</ele></trkpt>
      <trkpt lat="44.659417" lon="6.622958"><ele>909.2</ele></trkpt>
      <trkpt lat="44.659491" lon="6.624207"><ele>911.5</ele></trkpt>
      <trkpt lat="44.659550" lon="6.625122"><ele>911.0</ele></trkpt>
      <trkpt lat="44.659571" lon="6.625485"><ele>911.2</ele></trkpt>
      <trkpt lat="44.659612" lon="6.626227"><ele>912.5</ele></trkpt>
      <trkpt lat="44.659662" lon="6.627130"><ele>915.0</ele></trkpt>
      <trkpt lat="44.659761" lon="6.628747"><ele>922.8</ele></trkpt>
      <trkpt lat="44.659782" lon="6.629231"><ele>925.5</ele></trkpt>
      <trkpt lat="44.659788" lon="6.629614"><ele>927.8</ele></trkpt>
      <trkpt lat="44.659780" lon="6.629854"><ele>928.8</ele></trkpt>
      <trkpt lat="44.659757" lon="6.630127"><ele>930.0</ele></trkpt>
      <trkpt lat="44.659716" lon="6.630425"><ele>931.2</ele></trkpt>
      <trkpt lat="44.659673" lon="6.630626"><ele>931.8</ele></trkpt>
      <trkpt lat="44.659622" lon="6.630819"><ele>932.8</ele></trkpt>
      <trkpt lat="44.659575" lon="6.630986"><ele>933.5</ele></trkpt>
      <trkpt lat="44.659509" lon="6.631183"><ele>934.2</ele></trkpt>
      <trkpt lat="44.659431" lon="6.631380"><ele>934.8</ele></trkpt>
      <trkpt lat="44.659272" lon="6.631727"><ele>936.0</ele></trkpt>
      <trkpt lat="44.659186" lon="6.631880"><ele>935.8</ele></trkpt>
      <trkpt lat="44.658942" lon="6.632268"><ele>936.8</ele></trkpt>
      <trkpt lat="44.658534" lon="6.632849"><ele>941.5</ele></trkpt>
      <trkpt lat="44.658467" lon="6.633006"><ele>942.5</ele></trkpt>
      <trkpt lat="44.658422" lon="6.633205"><ele>943.5</ele></trkpt>
      <trkpt lat="44.658403" lon="6.633413"><ele>944.0</ele></trkpt>
      <trkpt lat="44.658413" lon="6.633583"><ele>944.0</ele></trkpt>
      <trkpt lat="44.658447" lon="6.633757"><ele>944.8</ele></trkpt>
      <trkpt lat="44.658495" lon="6.633926"><ele>945.8</ele></trkpt>
      <trkpt lat="44.658554" lon="6.634083"><ele>945.8</ele></trkpt>
      <trkpt lat="44.658614" lon="6.634217"><ele>945.5</ele></trkpt>
      <trkpt lat="44.659197" lon="6.635569"><ele>952.8</ele></trkpt>
      <trkpt lat="44.659282" lon="6.635756"><ele>953.8</ele></trkpt>
      <trkpt lat="44.659722" lon="6.636811"><ele>955.2</ele></trkpt>
      <trkpt lat="44.659785" lon="6.636949"><ele>956.0</ele></trkpt>
      <trkpt lat="44.659839" lon="6.637114"><ele>957.0</ele></trkpt>
      <trkpt lat="44.659879" lon="6.637288"><ele>958.2</ele></trkpt>
      <trkpt lat="44.659898" lon="6.637482"><ele>959.5</ele></trkpt>
      <trkpt lat="44.659897" lon="6.637651"><ele>960.8</ele></trkpt>
      <trkpt lat="44.659862" lon="6.637924"><ele>961.8</ele></trkpt>
      <trkpt lat="44.659774" lon="6.638446"><ele>963.0</ele></trkpt>
      <trkpt lat="44.659759" lon="6.638682"><ele>964.0</ele></trkpt>
      <trkpt lat="44.659776" lon="6.638931"><ele>965.0</ele></trkpt>
      <trkpt lat="44.659931" lon="6.640078"><ele>968.2</ele></trkpt>
      <trkpt lat="44.659937" lon="6.640276"><ele>969.0</ele></trkpt>
      <trkpt lat="44.659928" lon="6.640457"><ele>970.2</ele></trkpt>
      <trkpt lat="44.659904" lon="6.640626"><ele>971.0</ele></trkpt>
      <trkpt lat="44.659873" lon="6.640736"><ele>971.2</ele></trkpt>
      <trkpt lat="44.659803" lon="6.640917"><ele>971.2</ele></trkpt>
      <trkpt lat="44.659637" lon="6.641230"><ele>970.8</ele></trkpt>
      <trkpt lat="44.659590" lon="6.641336"><ele>970.8</ele></trkpt>
      <trkpt lat="44.659526" lon="6.641505"><ele>972.0</ele></trkpt>
      <trkpt lat="44.659408" lon="6.641678"><ele>972.2</ele></trkpt>
      <trkpt lat="44.659367" lon="6.641731"><ele>972.0</ele></trkpt>
      <trkpt lat="44.659332" lon="6.641744"><ele>971.5</ele></trkpt>
      <trkpt lat="44.659301" lon="6.641773"><ele>971.0</ele></trkpt>
      <trkpt lat="44.659279" lon="6.641814"><ele>971.2</ele></trkpt>
      <trkpt lat="44.659267" lon="6.641863"><ele>971.5</ele></trkpt>
      <trkpt lat="44.659267" lon="6.641916"><ele>972.2</ele></trkpt>
      <trkpt lat="44.659279" lon="6.641966"><ele>973.0</ele></trkpt>
      <trkpt lat="44.659302" lon="6.642008"><ele>973.5</ele></trkpt>
      <trkpt lat="44.659353" lon="6.642047"><ele>974.5</ele></trkpt>
      <trkpt lat="44.659377" lon="6.642193"><ele>975.5</ele></trkpt>
      <trkpt lat="44.659386" lon="6.642368"><ele>975.8</ele></trkpt>
      <trkpt lat="44.659374" lon="6.642617"><ele>975.8</ele></trkpt>
      <trkpt lat="44.659358" lon="6.643187"><ele>977.0</ele></trkpt>
      <trkpt lat="44.659370" lon="6.643417"><ele>977.8</ele></trkpt>
      <trkpt lat="44.659391" lon="6.643580"><ele>978.2</ele></trkpt>
      <trkpt lat="44.659445" lon="6.643767"><ele>979.2</ele></trkpt>
      <trkpt lat="44.659525" lon="6.643957"><ele>980.5</ele></trkpt>
      <trkpt lat="44.659632" lon="6.644156"><ele>981.8</ele></trkpt>
      <trkpt lat="44.659879" lon="6.644571"><ele>985.5</ele></trkpt>
      <trkpt lat="44.660018" lon="6.644885"><ele>987.8</ele></trkpt>
      <trkpt lat="44.660038" lon="6.644952"><ele>988.0</ele></trkpt>
      <trkpt lat="44.660062" lon="6.645100"><ele>988.2</ele></trkpt>
      <trkpt lat="44.660079" lon="6.645350"><ele>988.5</ele></trkpt>
      <trkpt lat="44.660136" lon="6.646621"><ele>993.2</ele></trkpt>
      <trkpt lat="44.660136" lon="6.646865"><ele>994.0</ele></trkpt>
      <trkpt lat="44.660122" lon="6.647024"><ele>994.5</ele></trkpt>
      <trkpt lat="44.660112" lon="6.647077"><ele>994.8</ele></trkpt>
      <trkpt lat="44.659865" lon="6.648276"><ele>997.5</ele></trkpt>
      <trkpt lat="44.659852" lon="6.648390"><ele>998.0</ele></trkpt>
      <trkpt lat="44.659847" lon="6.648511"><ele>998.8</ele></trkpt>
      <trkpt lat="44.659815" lon="6.648510"><ele>998.2</ele></trkpt>
      <trkpt lat="44.659719" lon="6.648510"><ele>997.0</ele></trkpt>
    </trkseg>
  </trk>
</gpx>
